id,name_zh,name_en,country,country_en,url,開放第二次出國交換之同學選填,申請組別,GPA要求,年級限制,語言要求,不接受申請之學院,名額,學校年曆,註冊繳費,住宿資訊,注意事項,latitude,longitude
1115,聖保羅大學,Universidade de São Paulo (USP),巴西,Brazil,https://oia.ntu.edu.tw/outgoing/view/semester/1/sn/1115,是,一般組,無,大二以上/碩一以上/博一以上學生,須具葡語B1檢定證書,無,全學年2名,First Semester: February - June；Second Semester: August - December,須在本校註冊並繳交全額學雜費，免繳該校學費，但該校雜費、住宿費、生活費、保險費、往返機票費等均須自行負擔,不保證住宿，住宿資訊請參考此連結,交換學校一覽表所列之語言能力為該校之最低門檻要求，同學需自行確認語言能力是否符合該校修課要求、查詢是否有相對應系所及足夠的課程可供選讀、能否達到該校之每學期修課學分數要求、以及是否具備相關領域之背景知識，若未達標準，該校有權拒收,,-22.3347205
974,里約熱內盧天主教大學,Pontifícia Universidade Católica do Rio de Janeiro (PUC-Rio),巴西,Brazil,https://oia.ntu.edu.tw/outgoing/view/semester/1/sn/974,否,一般組,GPA 達3.00分以上,大二以上(僅限大學部)學生,TOEFL iBT 79 (不接受 Home Edition) 或 IELTS 6.0；或具葡萄牙語能力證明 ，B1以上檢定證書或本校修讀葡萄牙語4個學期以上成績及格證明,無,全學年1名,First Semester: February - July；Second Semester: August - December,須在本校註冊並繳交全額學雜費，免繳該校學費，但住宿費、生活費、保險費、往返機票費等均須自行負擔,可申請校外住宿（Home-stay Program），住宿資訊請參考此連結,交換學校一覽表所列之語言能力為該校之最低門檻要求，同學需自行確認語言能力是否符合該校修課要求、查詢是否有相對應系所及足夠的課程可供選讀、能否達到該校之每學期修課學分數要求、以及是否具備相關領域之背景知識，若未達標準，該校有權拒收,,-22.9796815
931,坎皮納斯州立大學,Universidade Estadual de Campinas (UNICAMP),巴西,Brazil,https://oia.ntu.edu.tw/outgoing/view/semester/1/sn/931,是,一般組,無,大二以上/碩一以上/博一以上學生,具葡萄牙語能力證明 ，B1以上檢定證書或本校修讀葡萄牙語4個學期以上成績及格證明,醫學院、音樂學院、藝術學院、體育學院，論文及畢業專題，語言課程,全學年1名,First semester: February - July；Second semester: August - December,須在本校註冊並繳交全額學雜費，免繳該校學費，但住宿費、生活費、保險費、往返機票費等均須自行負擔,不保證住宿,交換學校一覽表所列之語言能力為該校之最低門檻要求，同學需自行確認語言能力是否符合該校修課要求、查詢是否有相對應系所及足夠的課程可供選讀、能否達到該校之每學期修課學分數要求、以及是否具備相關領域之背景知識，若未達標準，該校有權拒收,,-22.822656
1061,魁北克大學蒙特婁分校,Université du Québec à Montréal (UQAM),加拿大,Canada,https://oia.ntu.edu.tw/outgoing/view/semester/1/sn/1061,是,法語組,GPA 達3.20分以上，部分院系有更高 GPA 要求，選填志願前請詳見注意事項，以免遭到拒收。,大二以上/碩一以上(不含博士生)學生,具法語檢定成績 B2(中高級) 級以上,管理學院,一學期2名,Fall semester: September - December；Winter semester: January - April/May,須在本校註冊並繳交全額學雜費，免繳該校學費，但該校雜費、住宿費、生活費、保險費、往返機票費等均須自行負擔,不保證住宿，住宿資訊請參考此連結,交換學校一覽表所列之語言能力為該校之最低門檻要求，同學需自行確認語言能力是否符合該校修課要求、查詢是否有相對應系所及足夠的課程可供選讀、能否達到該校之每學期修課學分數要求、以及是否具備相關領域之背景知識，若未達標準，該校有權拒收,,45.5132253
1075,愛德華王子島大學,University of Prince Edward Island (UPEI),加拿大,Canada,https://oia.ntu.edu.tw/outgoing/view/semester/1/sn/1075,是,一般組,GPA 達2.70分以上,大二以上(僅限大學部)學生,TOEFL iBT 80 (讀 20 聽 20 說 20 寫 20 不接受 Home Edition) 或 IELTS 6.5 (聽 6.0 讀 6.0 寫 6.5 說 6.0),護理、獸醫、eMBA、運動機能學、工程學院,全學年0名,Semester 1: September - December；Semester 2: January - March/April,須在本校註冊並繳交全額學雜費，免繳該校學費，但住宿費、生活費、保險費、往返機票費等均須自行負擔,不保證住宿，住宿資訊請參考,交換學校一覽表所列之語言能力為該校之最低門檻要求，同學需自行確認語言能力是否符合該校修課要求、查詢是否有相對應系所及足夠的課程可供選讀、能否達到該校之每學期修課學分數要求、以及是否具備相關領域之背景知識，若未達標準，該校有權拒收,,46.2594778
115,蒙特婁大學,Université de Montréal (UdeM),加拿大,Canada,https://oia.ntu.edu.tw/outgoing/view/semester/1/sn/115,是,法語組,GPA 達3.00分以上,大二以上/碩一以上(不含博士生)學生,具法語檢定成績 B2(中高級) 級以上,管理學院、工學院,一學期2名,Fall Semester: September - December；Winter Semester: January - April,須在本校註冊並繳交全額學雜費，免繳該校學費，但住宿費、生活費、保險費、往返機票費等均須自行負擔,不保證住宿，住宿資訊請參考此連結,交換學校一覽表所列之語言能力為該校之最低門檻要求，同學需自行確認語言能力是否符合該校修課要求、查詢是否有相對應系所及足夠的課程可供選讀、能否達到該校之每學期修課學分數要求、以及是否具備相關領域之背景知識，若未達標準，該校有權拒收,,45.5047577
599,女王大學,Queen's University,加拿大,Canada,https://oia.ntu.edu.tw/outgoing/view/semester/1/sn/599,否,一般組,GPA 達3.00分以上,大二/大三/大四學生,TOEFL iBT 88 (讀 20 聽 20 說 20 寫 20 接受 Home Edition) 或 IELTS 6.5 (聽 6.0 讀 6.0 寫 6.0 說 6.0),法律學院，課程難以選到政治、資訊、戲劇及音樂、經濟及生命科學,一學期1名,Fall Term: September - December；Winter Term: January - April,須在本校註冊並繳交全額學雜費，免繳該校學費，但該校雜費、住宿費、生活費、保險費、往返機票費等均須自行負擔,不保證住宿，詳情請參考此連結,交換學校一覽表所列之語言能力為該校之最低門檻要求，同學需自行確認語言能力是否符合該校修課要求、查詢是否有相對應系所及足夠的課程可供選讀、能否達到該校之每學期修課學分數要求、以及是否具備相關領域之背景知識，若未達標準，該校有權拒收,,44.2279934
6,滑鐵盧大學,University of Waterloo,加拿大,Canada,https://oia.ntu.edu.tw/outgoing/view/semester/1/sn/6,是,一般組,學士生 GPA 達2.70分以上；研究生 GPA 達3.00分以上,大二以上/碩一以上(不含博士生)學生,學士生 TOEFL iBT 90 (說 25 寫 25 接受 Home Edition) 或 IELTS 6.5 (聽 6.0 讀 6.0 寫 6.5 說 6.5)；研究生 TOEFL iBT 90 (說 25 寫 25 接受 Home Edition) 或 IELTS 7.0 (聽 6.0 讀 6.0 寫 6.5 說 6.5)；文學院/管理學院會計學研究所/電機資訊學院資料科學碩士學位學程/管理學院財務金融學研究所研究生 TOEFL iBT 100 (說 26 寫 26 不接受 Home Edition) 或 IELTS 7.5 (寫 7.0 說 7.0)；工學院/電機資訊學院電機工程學研究所研究生 TOEFL iBT 80 (讀 20 聽 18 說 20 寫 22 不接受 Home Edition) 或 IELTS 6.5 (寫 6.0 說 6.0)；電機資訊學院資訊工程學研究所/資訊網路與多媒體研究所研究生 TOEFL iBT 93 (說 22 寫 22 不接受 Home Edition) 或 IELTS 6.5 (寫 6.0 說 6.5),無,一學期4名,Fall Term: September - December；Winter Term: January - April,須在本校註冊並繳交全額學雜費，免繳該校學費，但住宿費、生活費、保險費、往返機票費等均須自行負擔,不保證住宿，住宿資訊請參考此連結,交換學校一覽表所列之語言能力為該校之最低門檻要求，同學需自行確認語言能力是否符合該校修課要求、查詢是否有相對應系所及足夠的課程可供選讀、能否達到該校之每學期修課學分數要求、以及是否具備相關領域之背景知識，若未達標準，該校有權拒收,,43.4701994
5,西門菲沙大學,Simon Fraser University (SFU),加拿大,Canada,https://oia.ntu.edu.tw/outgoing/view/semester/1/sn/5,是,一般組,無,大二以上/碩一以上(不含博士生)學生,學士生 TOEFL iBT 88 (讀 20 聽 20 說 20 寫 20 不接受 Home Edition) 或 IELTS 6.5 (聽 6.0 讀 6.0 寫 6.0 說 6.0)；研究生 TOEFL iBT 93 (讀 20 聽 20 說 20 寫 20 不接受 Home Edition) 或 IELTS 7.0 (聽 6.5 讀 6.5 寫 6.5 說 6.5),Restricted Subjects and Courses，詳情請見注意事項,一學期1名,Fall Term: September - December；Spring Term: January - April,須在本校註冊並繳交全額學雜費，免繳該校學費，但住宿費、生活費、保險費、往返機票費等均須自行負擔,不保證住宿，住宿資訊請參考此連結,交換學校一覽表所列之語言能力為該校之最低門檻要求，同學需自行確認語言能力是否符合該校修課要求、查詢是否有相對應系所及足夠的課程可供選讀、能否達到該校之每學期修課學分數要求、以及是否具備相關領域之背景知識，若未達標準，該校有權拒收,,49.2767096
3,渥太華大學,University of Ottawa,加拿大,Canada,https://oia.ntu.edu.tw/outgoing/view/semester/1/sn/3,否,一般組,GPA 達3.00分以上；法律學院學生TOEFL iBT 100 (寫 24 不接受 Home Edition) 或 IELTS 7.0 (寫 6.5),大二以上/碩一以上(不含博士生)學生,TOEFL iBT 86 (寫 22 不接受 Home Edition) 或 IELTS 6.5 (寫 6.5)；法律學院學生TOEFL iBT 100 (寫 24 不接受 Home Edition) 或 IELTS 7.0 (寫 6.5),醫學院、教育學院、管理學院、部分必修課程,全學年0名,Fall Semester: September - December；Spring Semester: January - April,須在本校註冊並繳交全額學雜費，免繳該校學費，但住宿費、生活費、保險費、往返機票費等均須自行負擔,不保證住宿，住宿資訊請參考此連結,交換學校一覽表所列之語言能力為該校之最低門檻要求，同學需自行確認語言能力是否符合該校修課要求、查詢是否有相對應系所及足夠的課程可供選讀、能否達到該校之每學期修課學分數要求、以及是否具備相關領域之背景知識，若未達標準，該校有權拒收,,45.4225271
4,多倫多大學,University of Toronto (U of T),加拿大,Canada,https://oia.ntu.edu.tw/outgoing/view/semester/1/sn/4,否,一般組,無,大二以上/碩一以上(不含博士生)學生,學士生 TOEFL iBT 89 (說 22 寫 22 不接受 Home Edition) 或 IELTS 6.5 (聽 6.0 讀 6.0 寫 6.0 說 6.0)；研究生 TOEFL iBT 93 (說 22 寫 22 不接受 Home Edition) 或 IELTS 7.0 (聽 6.5 讀 6.5 寫 6.5 說 6.5)；法律學院學生 TOEFL iBT 100 (讀 25 寫 25 不接受 Home Edition) 或 IELTS 7.0 (聽 6.5 讀 6.5 寫 6.5 說 6.5),無,一學期2名,Fall Term: September - December；Spring Term: January - April,須在本校註冊並繳交全額學雜費，免繳該校學費，但住宿費、生活費、保險費、往返機票費等均須自行負擔,不保證住宿，住宿資訊請參考此連結（ 各校區之 Housing Section ）,交換學校一覽表所列之語言能力為該校之最低門檻要求，同學需自行確認語言能力是否符合該校修課要求、查詢是否有相對應系所及足夠的課程可供選讀、能否達到該校之每學期修課學分數要求、以及是否具備相關領域之背景知識，若未達標準，該校有權拒收,,43.663462
2,維多利亞大學,University of Victoria (UVic),加拿大,Canada,https://oia.ntu.edu.tw/outgoing/view/semester/1/sn/2,是,一般組,無,大二以上/碩一以上(不含博士生)學生,TOEFL iBT 90 (讀 20 聽 20 說 20 寫 20 接受 Home Edition) 或 IELTS 6.5 (聽 6.0 讀 6.0 寫 6.0 說 6.0) 或 全民英檢中高級,管理學院、法律學院、工學院，部分教育、人類與社會發展、美術、工程,一學期2名,Fall Term: September - December；Spring Term: January - April,須在本校註冊並繳交全額學雜費，免繳該校學費，但該校雜費、住宿費、生活費、保險費、往返機票費等均須自行負擔,不保證住宿，住宿資訊請參考此連結,交換學校一覽表所列之語言能力為該校之最低門檻要求，同學需自行確認語言能力是否符合該校修課要求、查詢是否有相對應系所及足夠的課程可供選讀、能否達到該校之每學期修課學分數要求、以及是否具備相關領域之背景知識，若未達標準，該校有權拒收,,48.46206
1,加拿大英屬哥倫比亞大學（卑詩大學）,The University of British Columbia (UBC),加拿大,Canada,https://oia.ntu.edu.tw/outgoing/view/semester/1/sn/1,是,一般組,GPA 達2.80分以上,大二以上/碩一以上(不含博士生)學生,TOEFL iBT 90 (讀 22 聽 22 說 21 寫 21 接受 Home Edition) 或 IELTS 6.5 (聽 6.0 讀 6.0 寫 6.0 說 6.0),新聞研究所、醫學院、法律學院、工學院、管理學院會計學研究所、管理學院財務金融學研究所、管理學院國際企業學研究所、管理學院資訊管理學研究所、管理學院商學研究所、管理學院企業管理碩士專班、理學院心理學研究所、社會科學院政治學研究所、文學院人類學研究所、社會科學院經濟學研究所、聽力學及語言病理學系、護理系、藥學系、復健科學系、UBC Vantage College,一學期4名,Term 1: September - December；Term 2: January - April,須在本校註冊並繳交全額學雜費，免繳該校學費，但該校雜費、住宿費、生活費、保險費、往返機票費等均須自行負擔,不保證住宿，Vancouver校區住宿資訊請參閱此連結、Okanagan校區請參閱此連結,交換學校一覽表所列之語言能力為該校之最低門檻要求，同學需自行確認語言能力是否符合該校修課要求、查詢是否有相對應系所及足夠的課程可供選讀、能否達到該校之每學期修課學分數要求、以及是否具備相關領域之背景知識，若未達標準，該校有權拒收,,49.2484638
60,智利天主教大學,Pontificia Universidad Católica de Chile (UC Chile),智利,Chile,https://oia.ntu.edu.tw/outgoing/view/semester/1/sn/60,是,西語組,GPA 達3.70分以上,大二以上(僅限大學部)學生,"具西語檢定成績 B2(中高級) 級以上，DELE, SIELE",醫學院、公共衛生學院,全學年2名,First Semester: March - July；Second Semester: August - December,First Semester: March - July；Second Semester: August - December,須在本校註冊並繳交全額學雜費，免繳該校學費，但該校雜費、住宿費、生活費、保險費、往返機票費等均須自行負擔,不保證住宿,-33.4548376,-70.5943911
1283,哥倫比亞安地斯大學,Universidad de los Andes,哥倫比亞,Colombia,https://oia.ntu.edu.tw/outgoing/view/semester/1/sn/1283,是,西語組,GPA 達3.00分以上,大二以上/碩一以上(不含博士生)學生,具西語檢定成績 B2(中高級) 級以上,醫學院,全學年1名,Fall Semester: August - December；Spring Semester: January - June,須在本校註冊並繳交全額學雜費，免繳該校學費，但該校雜費、住宿費、生活費、保險費、往返機票費等均須自行負擔,不保證住宿，更多資訊請參考此連結,交換學校一覽表所列之語言能力為該校之最低門檻要求，同學需自行確認語言能力是否符合該校修課要求、查詢是否有相對應系所及足夠的課程可供選讀、能否達到該校之每學期修課學分數要求、以及是否具備相關領域之背景知識，若未達標準，該校有權拒收,,4.6014026
1125,蒙特雷科技大學,Tecnológico de Monterrey,墨西哥,Mexico,https://oia.ntu.edu.tw/outgoing/view/semester/1/sn/1125,是,西語組,GPA 達3.44分以上,大二以上(僅限大學部)學生,具西語檢定成績 B1(中級) 級以上,醫學院,全學年1名,Spring semester: February - June；Fall semester: August - December,須在本校註冊並繳交全額學雜費，免繳該校學費，但該校雜費、住宿費、生活費、保險費、往返機票費等均須自行負擔,不保證住宿，住宿資訊請參考此連結,交換學校一覽表所列之語言能力為該校之最低門檻要求，同學需自行確認語言能力是否符合該校修課要求、查詢是否有相對應系所及足夠的課程可供選讀、能否達到該校之每學期修課學分數要求、以及是否具備相關領域之背景知識，若未達標準，該校有權拒收,,20.6770061
903,墨西哥國立自治大學,Universidad Nacional Autónoma de México (UNAM),墨西哥,Mexico,https://oia.ntu.edu.tw/outgoing/view/semester/1/sn/903,是,西語組,GPA 達3.70分以上,大二以上(僅限大學部)學生,"具西語檢定成績 B2(中高級) 級以上，SIELE or DELE certificate, B2 at minimum",醫學院、生物資源暨農學院獸醫學系,全學年2名,Fall Semester: August - December；Spring Semester: January - June,須在本校註冊並繳交全額學雜費，免繳該校學費，但該校雜費、住宿費、生活費、保險費、往返機票費等均須自行負擔,不保證住宿，更多資訊請參考此連結。,,['交換學校一覽表所列之語言能力為該校之最低門檻要求，同學需自行確認語言能力是否符合該校修課要求、查詢是否有相對應系所及足夠的課程可供選讀、能否達到該校之每學期修課學分數要求、以及是否具備相關領域之背景知識，若未達標準，該校有權拒收'],19.321597
207,西北大學,Northwestern University,美國,United States,https://oia.ntu.edu.tw/outgoing/view/semester/1/sn/207,否,一般組,GPA 達3.30分以上,大二/大三學生,TOEFL iBT 90 (不接受 Home Edition) 或 IELTS 7.0,管理學院、法律學院、醫學院、音樂學院、整合行銷傳播學院，研究所課程(400-level),全學年2名,Fall Quarter: September - December；Winter Quarter: January - Early-March；Spring Quarter: Late-March - June,須在本校註冊並繳交全額學雜費，免繳該校學費，但該校雜費、住宿費、生活費、保險費、往返機票費等均須自行負擔,不保證住宿，更多資訊請見此連結,交換學校一覽表所列之語言能力為該校之最低門檻要求，同學需自行確認語言能力是否符合該校修課要求、查詢是否有相對應系所及足夠的課程可供選讀、能否達到該校之每學期修課學分數要求、以及是否具備相關領域之背景知識，若未達標準，該校有權拒收,,42.0557157
1282,德州大學奧斯汀分校,The University of Texas at Austin (UT Austin),美國,United States,https://oia.ntu.edu.tw/outgoing/view/semester/1/sn/1282,否,一般組,GPA 達3.30分以上,大二/大三學生,TOEFL iBT 90 (不接受 Home Edition) 或 IELTS 7.0,醫學院、管理學院、法律學院,全學年1名,Fall Semester: August - December；Spring Semester: January - May,須在本校註冊並繳交全額學雜費，免繳該校學費，但該校雜費、住宿費、生活費、保險費、往返機票費等均須自行負擔,不保證住宿，更多資訊請參考此連結。,交換學校一覽表所列之語言能力為該校之最低門檻要求，同學需自行確認語言能力是否符合該校修課要求、查詢是否有相對應系所及足夠的課程可供選讀、能否達到該校之每學期修課學分數要求、以及是否具備相關領域之背景知識，若未達標準，該校有權拒收,,30.2851494
420,康乃爾大學,Cornell University,美國,United States,https://oia.ntu.edu.tw/outgoing/view/semester/1/sn/420,否,一般組,GPA 達3.30分以上,大二/大三學生,TOEFL iBT 100 (不接受 Home Edition) 或 IELTS 7.5,管理學院、電機資訊學院、醫學院、生物資源暨農學院獸醫學系、法律學院,全學年1名,Fall Semester: August - December；Spring Semester: January - May,須在本校註冊並繳交全額學雜費，免繳該校學費，但該校雜費、住宿費、生活費、保險費、往返機票費等均須自行負擔,不保證住宿，詳情請參閱以下資訊,交換學校一覽表所列之語言能力為該校之最低門檻要求，同學需自行確認語言能力是否符合該校修課要求、查詢是否有相對應系所及足夠的課程可供選讀、能否達到該校之每學期修課學分數要求、以及是否具備相關領域之背景知識，若未達標準，該校有權拒收,,42.4529076
1202,北卡羅來納大學格林斯伯勒分校,UNC Greensboro (UNCG),美國,United States,https://oia.ntu.edu.tw/outgoing/view/semester/1/sn/1202,否,一般組,學士生 GPA 達2.75分以上；研究生 GPA 達2.75分以上,大二以上/碩二(不含博士生)學生,學士生 TOEFL iBT 80 (不接受 Home Edition) 或 IELTS 6.0；研究生 TOEFL iBT 79 (不接受 Home Edition) 或 IELTS 6.5,電機資訊學院電機工程學研究所、理學院心理學研究所、醫學院護理學系，部分人類學、傳播科學與疾病、數學、護理、文學、諮商與教育發展、初等教育、中等教育、言語病理學與聽力學，會計、英語、心理學、消費服裝及零售研究、政治學、資訊科學研究所課程,全學年1名,Fall Semester: August - December；Spring Semester: January - May,須在本校註冊並繳交全額學雜費，免繳該校學費，但住宿費、生活費、保險費、往返機票費等均須自行負擔,保證校內住宿，住宿資訊請參考此連結,交換學校一覽表所列之語言能力為該校之最低門檻要求，同學需自行確認語言能力是否符合該校修課要求、查詢是否有相對應系所及足夠的課程可供選讀、能否達到該校之每學期修課學分數要求、以及是否具備相關領域之背景知識，若未達標準，該校有權拒收,,36.0703549
980,斯克蘭頓大學,The University of Scranton,美國,United States,https://oia.ntu.edu.tw/outgoing/view/semester/1/sn/980,是,一般組,GPA 達3.70分以上,大二/大三學生,TOEFL iBT 80 (接受 Home Edition) 或 IELTS 6.5,文學院哲學系、醫學院,全學年0名,Fall Semester: August - December；Spring Semester: January - May,須在本校註冊並繳交全額學雜費，免繳該校學費，但住宿費、生活費、保險費、往返機票費等均須自行負擔,保證住宿，住宿資訊請參考此連結,交換學校一覽表所列之語言能力為該校之最低門檻要求，同學需自行確認語言能力是否符合該校修課要求、查詢是否有相對應系所及足夠的課程可供選讀、能否達到該校之每學期修課學分數要求、以及是否具備相關領域之背景知識，若未達標準，該校有權拒收,,41.4064465
827,奧瑞岡州立大學,Oregon State University (OSU),美國,United States,https://oia.ntu.edu.tw/outgoing/view/semester/1/sn/827,是,一般組,無,大二以上(僅限大學部)學生,TOEFL iBT 80 (讀 16 聽 16 說 16 寫 16 接受 Home Edition) 或 IELTS 6.5,MBA program, 設計學院,全學年1名,Fall Term: September - December；Winter Term: January - March；Spring Term: March - June,須在本校註冊並繳交全額學雜費，免繳該校學費，但住宿費、生活費、保險費、往返機票費等均須自行負擔,不保證住宿，住宿資訊請參考此連結,['交換學校一覽表所列之語言能力為該校之最低門檻要求，同學需自行確認語言能力是否符合該校修課要求、查詢是否有相對應系所及足夠的課程可供選讀、能否達到該校之每學期修課學分數要求、以及是否具備相關領域之背景知識，若未達標準，該校有權拒收'],44.563056
863,康乃狄克大學,University of Connecticut (UConn),美國,United States,https://oia.ntu.edu.tw/outgoing/view/semester/1/sn/863,否,一般組,GPA 達3.20分以上,大二以上(僅限大學部)學生,TOEFL iBT 79 (讀 19 聽 19 說 19 寫 19 不接受 Home Edition) 或 IELTS 6.5 (聽 6.5 讀 6.5 寫 6.5 說 6.5),醫學院、法律學院、社會科學院社會工作學系,全學年1名,Fall Semester: August - December；Spring Semester: January - May,須在本校註冊並繳交全額學雜費，免繳該校學費，但住宿費、生活費、保險費、往返機票費等均須自行負擔,保證住宿，住宿資訊請參考此連結,交換學校一覽表所列之語言能力為該校之最低門檻要求，同學需自行確認語言能力是否符合該校修課要求、查詢是否有相對應系所及足夠的課程可供選讀、能否達到該校之每學期修課學分數要求、以及是否具備相關領域之背景知識，若未達標準，該校有權拒收,,41.8111114
1000,喬治梅森大學,George Mason University (GMU),美國,United States,https://oia.ntu.edu.tw/outgoing/view/semester/1/sn/1000,是,一般組,學士生 GPA 達2.50分以上；研究生 GPA 達3.00分以上,大二以上/碩一以上(不含博士生)學生,學士生 TOEFL iBT 80 (讀 18 聽 18 說 18 寫 18 不接受 Home Edition) 或 IELTS 6.5 (聽 6.0 讀 6.0 寫 6.0 說 6.0)；研究生 TOEFL iBT 88 (讀 20 聽 20 說 20 寫 20 不接受 Home Edition) 或 IELTS 7.0 (聽 6.5 讀 6.5 寫 6.5 說 6.5),醫學院護理學系、法律學院、管理學院管理學院企業管理碩士專班,全學年0名,Fall Semester: August - December；Spring Semester: January - May,須在本校註冊並繳交全額學雜費，免繳該校學費，但住宿費、生活費、保險費、往返機票費等均須自行負擔,不保證住宿，詳細資訊請參考此連結,交換學校一覽表所列之語言能力為該校之最低門檻要求，同學需自行確認語言能力是否符合該校修課要求、查詢是否有相對應系所及足夠的課程可供選讀、能否達到該校之每學期修課學分數要求、以及是否具備相關領域之背景知識，若未達標準，該校有權拒收,,38.8313333
1078,匹茲堡大學,University of Pittsburgh,美國,United States,https://oia.ntu.edu.tw/outgoing/view/semester/1/sn/1078,否,一般組,GPA 達3.30分以上,大二/大三學生,TOEFL iBT 80 (不接受 Home Edition) 或 IELTS 6.5,醫學院、管理學院,全學年0名,Fall Term: August - December；Spring Term: January - April,須在本校註冊並繳交全額學雜費，免繳該校學費，但住宿費、生活費、保險費、往返機票費等均須自行負擔,不保證住宿，住宿資訊請參考此連結,交換學校一覽表所列之語言能力為該校之最低門檻要求，同學需自行確認語言能力是否符合該校修課要求、查詢是否有相對應系所及足夠的課程可供選讀、能否達到該校之每學期修課學分數要求、以及是否具備相關領域之背景知識，若未達標準，該校有權拒收,,40.444153
799,新澤西州立羅格斯大學,"Rutgers, The State University of New Jersey",美國,United States,https://oia.ntu.edu.tw/outgoing/view/semester/1/sn/799,否,一般組,無,大二/大三/大四學生,TOEFL iBT 79 (不接受 Home Edition) 或 IELTS 6.5,管理學院,全學年0名,Fall Semester: August - December；Spring Semester: January - May,須在本校註冊並繳交全額學雜費，免繳該校學費，但住宿費、生活費、保險費、往返機票費等均須自行負擔,保證校內住宿，詳細資訊請參考此連結。,交換學校一覽表所列之語言能力為該校之最低門檻要求，同學需自行確認語言能力是否符合該校修課要求、查詢是否有相對應系所及足夠的課程可供選讀、能否達到該校之每學期修課學分數要求、以及是否具備相關領域之背景知識，若未達標準，該校有權拒收,,40.5204169
872,南卡羅來納大學,University of South Carolina (U of SC),美國,United States,https://oia.ntu.edu.tw/outgoing/view/semester/1/sn/872,否,一般組,GPA 達2.75分以上,大二以上(僅限大學部)學生,TOEFL iBT 79 (不接受 Home Edition) 或 IELTS 7.0,醫學院、管理學院、法律學院，Capstone, Med school, Palmetto college, Honors, Law, Pharmacy,"[' Regional courses', '全學年1名', 'Fall Semester: August - December；Spring Semester: January - May', '須在本校註冊並繳交全額學雜費，免繳該校學費，但住宿費、生活費、保險費、往返機票費等均須自行負擔', '保證住宿，住宿資訊請參考此連結', '交換學校一覽表所列之語言能力為該校之最低門檻要求，同學需自行確認語言能力是否符合該校修課要求、查詢是否有相對應系所及足夠的課程可供選讀、能否達到該校之每學期修課學分數要求、以及是否具備相關領域之背景知識，若未達標準，該校有權拒收']",34.0030656
368,伊利諾大學香檳分校,University of Illinois at Urbana-Champaign (UIUC),美國,United States,https://oia.ntu.edu.tw/outgoing/view/semester/1/sn/368,是,一般組,GPA 達3.30分以上,大二/大三/大四/碩一/碩二(不含博士生)學生,TOEFL iBT 80 (不接受 Home Edition) 或 IELTS 6.0 (聽 6.0 讀 6.0 寫 6.0 說 6.0)；社會科學院社會工作學系學生需符合TOEFL iBT 103 (不接受 Home Edition) 或 IELTS 7.5 (聽 7.0 讀 7.0 寫 7.0 說 7.0)之成績標準,管理學院、工學院、電機資訊學院、法律學院、生物資源暨農學院獸醫學系、醫學院,全學年2名,Fall Semester: August - December；Spring Semester: January - May,須在本校註冊並繳交全額學雜費，免繳該校學費，但住宿費、生活費、保險費、往返機票費等均須自行負擔,不保證住宿，住宿相關資訊請參考此連結,交換學校一覽表所列之語言能力為該校之最低門檻要求，同學需自行確認語言能力是否符合該校修課要求、查詢是否有相對應系所及足夠的課程可供選讀、能否達到該校之每學期修課學分數要求、以及是否具備相關領域之背景知識，若未達標準，該校有權拒收,,40.0761545
612,北卡羅來納大學教堂山分校,The University of North Carolina at Chapel Hill (UNC-Chapel Hill),美國,United States,https://oia.ntu.edu.tw/outgoing/view/semester/1/sn/612,是,一般組,GPA 達3.00分以上,大二/大三/大四學生,TOEFL iBT 85 (不接受 Home Edition) 或 IELTS 6.0,醫學院、法律學院、社會科學院新聞研究所、電機資訊學院、文學院圖書資訊學系、文學院圖書資訊學研究所、管理學院、公共衛生學院、社會科學院國家發展研究所、社會科學院公共事務研究所、社會科學院社會工作學系,全學年2名,Fall Semester: August - December；Spring Semester: January - March/April,須在本校註冊並繳交全額學雜費，免繳該校學費，但住宿費、生活費、保險費、往返機票費等均須自行負擔,不保證住宿，住宿資訊請參考此連結,交換學校一覽表所列之語言能力為該校之最低門檻要求，同學需自行確認語言能力是否符合該校修課要求、查詢是否有相對應系所及足夠的課程可供選讀、能否達到該校之每學期修課學分數要求、以及是否具備相關領域之背景知識，若未達標準，該校有權拒收,,35.9050353
366,威斯康辛大學麥迪遜分校,University of Wisconsin-Madison (UW-Madison),美國,United States,https://oia.ntu.edu.tw/outgoing/view/semester/1/sn/366,是,一般組,無,大二以上/碩一以上/博一以上學生,TOEFL iBT 95 (不接受 Home Edition) 或 IELTS 6.5,醫學院、法律學院、生物資源暨農學院獸醫學系、生物資源暨農學院獸醫學研究所、管理學院,全學年2名,Fall Semester: September - December；Spring Semester: January - May,須在本校註冊並繳交全額學雜費，免繳該校學費，但住宿費、生活費、保險費、往返機票費等均須自行負擔,不保證住宿，住宿資訊請參考此連結,交換學校一覽表所列之語言能力為該校之最低門檻要求，同學需自行確認語言能力是否符合該校修課要求、查詢是否有相對應系所及足夠的課程可供選讀、能否達到該校之每學期修課學分數要求、以及是否具備相關領域之背景知識，若未達標準，該校有權拒收,,43.0802745
432,天普大學,Temple University,美國,United States,https://oia.ntu.edu.tw/outgoing/view/semester/1/sn/432,是,一般組,GPA 達3.20分以上,大二以上/碩一以上(不含博士生)學生,TOEFL iBT 79 (接受 Home Edition) 或 IELTS 6.0,醫學院、管理學院、法律學院、電機資訊學院、生物資源暨農學院獸醫學系、生物資源暨農學院獸醫學研究所、社會科學院新聞研究所,全學年2名,Fall Semester: August - December；Spring Semester: January - May,須在本校註冊並繳交全額學雜費，免繳該校學費，但住宿費、生活費、保險費、往返機票費等均須自行負擔,不保證住宿，住宿資訊請參考此連結,交換學校一覽表所列之語言能力為該校之最低門檻要求，同學需自行確認語言能力是否符合該校修課要求、查詢是否有相對應系所及足夠的課程可供選讀、能否達到該校之每學期修課學分數要求、以及是否具備相關領域之背景知識，若未達標準，該校有權拒收,,39.981188
364,猶他大學,The University of Utah (U of U),美國,United States,https://oia.ntu.edu.tw/outgoing/view/semester/1/sn/364,是,一般組,GPA 達2.60分以上,大二以上(僅限大學部)學生,TOEFL iBT 80 (不接受 Home Edition) 或 IELTS 6.5,醫學院、法律學院、護理學院、藥學系、牙醫學院,全學年2名,Fall Semester: August - December；Spring Semester: January - April,須在本校註冊並繳交全額學雜費，免繳該校學費，但住宿費、生活費、保險費、往返機票費等均須自行負擔,保證校內住宿，住宿資訊請參考此連結,交換學校一覽表所列之語言能力為該校之最低門檻要求，同學需自行確認語言能力是否符合該校修課要求、查詢是否有相對應系所及足夠的課程可供選讀、能否達到該校之每學期修課學分數要求、以及是否具備相關領域之背景知識，若未達標準，該校有權拒收,,40.7628137
365,夏威夷太平洋大學,Hawai‘i Pacific University (HPU),美國,United States,https://oia.ntu.edu.tw/outgoing/view/semester/1/sn/365,否,一般組,GPA 達2.75分以上,大二以上(僅限大學部)學生,TOEFL iBT 79 (不接受 Home Edition) 或 IELTS 6.0,Capstone courses (4000 and 7000 level), Honors Classes (HON), 8 week classes (Section 8A or 8B),大學生不開放選修碩士班課程,全學年0名,Fall term: August - December；Spring term: January - May,"['須在本校註冊並繳交全額學雜費，免繳該校學費，但住宿費、生活費、保險費、往返機票費等均須自行負擔', '不保證住宿，住宿資訊請參考此連結', '交換學校一覽表所列之語言能力為該校之最低門檻要求，同學需自行確認語言能力是否符合該校修課要求、查詢是否有相對應系所及足夠的課程可供選讀、能否達到該校之每學期修課學分數要求、以及是否具備相關領域之背景知識，若未達標準，該校有權拒收']",21.3795227
369,夏威夷大學希羅分校,University of Hawai‘i at Hilo (UH Hilo),美國,United States,https://oia.ntu.edu.tw/outgoing/view/semester/1/sn/369,是,一般組,GPA 達3.00分以上,大二以上(僅限大學部)學生,TOEFL iBT 79 (不接受 Home Edition) 或 IELTS 6.0,無,全學年0名,Fall Semester: September- December；Spring Semester: January - May,須在本校註冊並繳交全額學雜費，免繳該校學費，但該校雜費、住宿費、生活費、保險費、往返機票費等均須自行負擔,不保證住宿，住宿資訊請參考此連結,交換學校一覽表所列之語言能力為該校之最低門檻要求，同學需自行確認語言能力是否符合該校修課要求、查詢是否有相對應系所及足夠的課程可供選讀、能否達到該校之每學期修課學分數要求、以及是否具備相關領域之背景知識，若未達標準，該校有權拒收,,19.7013865
17,紐約州立大學阿爾伯尼分校,State University of New York at Albany,美國,United States,https://oia.ntu.edu.tw/outgoing/view/semester/1/sn/17,否,一般組,GPA 達3.00分以上,大二以上/碩一以上(不含博士生)學生,TOEFL iBT 79 (不接受 Home Edition) 或 IELTS 6.0,商學院、榮譽學院,全學年0名,Fall Semester: August - December；Spring Semester: February - May,須在本校註冊並繳交全額學雜費，免繳該校學費，但住宿費、生活費、保險費、往返機票費等均須自行負擔,不保證住宿，住宿資訊請參考此連結,交換學校一覽表所列之語言能力為該校之最低門檻要求，同學需自行確認語言能力是否符合該校修課要求、查詢是否有相對應系所及足夠的課程可供選讀、能否達到該校之每學期修課學分數要求、以及是否具備相關領域之背景知識，若未達標準，該校有權拒收,,42.6639622
18,亞利桑那州立大學,Arizona State University (ASU),美國,United States,https://oia.ntu.edu.tw/outgoing/view/semester/1/sn/18,是,一般組,無,大二以上/碩一以上(不含博士生)學生,TOEFL iBT 79 (不接受 Home Edition) 或 IELTS 6.0 或 全民英檢中高級,無特別限制,全學年0名,Fall Semester: August - December；Spring Semester: January - May,須在本校註冊並繳交全額學雜費，免繳該校學費，但住宿費、生活費、保險費、往返機票費等均須自行負擔,不保證住宿，住宿資訊請參考此連結,交換學校一覽表所列之語言能力為該校之最低門檻要求，同學需自行確認語言能力是否符合該校修課要求、查詢是否有相對應系所及足夠的課程可供選讀、能否達到該校之每學期修課學分數要求、以及是否具備相關領域之背景知識，若未達標準，該校有權拒收,,33.4213174
19,伊利諾大學芝加哥分校,University of Illinois at Chicago (UIC),美國,United States,https://oia.ntu.edu.tw/outgoing/view/semester/1/sn/19,否,一般組,無,大二/大三/碩一以上(不含博士生)學生,學士生 TOEFL iBT 80 (不接受 Home Edition) 或 IELTS 6.5 (聽 6.0 讀 6.0 寫 6.0 說 6.0)；研究生 TOEFL iBT 80 (讀 19 聽 17 說 20 寫 21 不接受 Home Edition) 或 IELTS 6.5 (聽 6.0 讀 6.0 寫 6.0 說 6.0),社會學系、化學系、心理學系、法律學院、生命科學院、生物產業傳播暨發展學系、電機資訊學院,全學年0名,Fall Semester: August - December；Spring Semester: January - May,須在本校註冊並繳交全額學雜費，免繳該校學費，但住宿費、生活費、保險費、往返機票費等均須自行負擔,不保證住宿，住宿資訊請參考此連結、此連結及此連結,交換學校一覽表所列之語言能力為該校之最低門檻要求，同學需自行確認語言能力是否符合該校修課要求、查詢是否有相對應系所及足夠的課程可供選讀、能否達到該校之每學期修課學分數要求、以及是否具備相關領域之背景知識，若未達標準，該校有權拒收,,41.8689223
16,馬里蘭大學,University of Maryland (UMD),美國,United States,https://oia.ntu.edu.tw/outgoing/view/semester/1/sn/16,否,一般組,GPA 達3.38分以上,大二以上(僅限大學部)學生,TOEFL iBT 90 (讀 22 聽 22 說 22 寫 22 不接受 Home Edition) 或 IELTS 6.5 (聽 6.5 讀 6.5 寫 6.5 說 6.5),工學院、管理學院,全學年2名,Fall Semester: August - December；Spring Semester: January - May,須在本校註冊並繳交全額學雜費，免繳該校學費，但住宿費、生活費、保險費、往返機票費等均須自行負擔,保證住宿，更多資訊請見此連結,交換學校一覽表所列之語言能力為該校之最低門檻要求，同學需自行確認語言能力是否符合該校修課要求、查詢是否有相對應系所及足夠的課程可供選讀、能否達到該校之每學期修課學分數要求、以及是否具備相關領域之背景知識，若未達標準，該校有權拒收,,38.9904124
15,奧瑞岡大學,University of Oregon (UO),美國,United States,https://oia.ntu.edu.tw/outgoing/view/semester/1/sn/15,是,一般組,無,大二以上/碩一以上(不含博士生)學生,學士生 TOEFL iBT 79 (不接受 Home Edition) 或 IELTS 6.0；研究生 TOEFL iBT 88 (不接受 Home Edition) 或 IELTS 7.0,法律學院、管理學院會計學研究所、管理學院財務金融學研究所、管理學院國際企業學研究所、管理學院資訊管理學研究所、管理學院商學研究所、管理學院管理學院企業管理碩士專班,全學年1名,Fall Term: September - December；Winter Term: January - March；Spring Term: April - June,須在本校註冊並繳交全額學雜費，免繳該校學費，但該校雜費、住宿費、生活費、保險費、往返機票費等均須自行負擔,不保證住宿，學生須自行申請，住宿資訊請參考此連結,交換學校一覽表所列之語言能力為該校之最低門檻要求，同學需自行確認語言能力是否符合該校修課要求、查詢是否有相對應系所及足夠的課程可供選讀、能否達到該校之每學期修課學分數要求、以及是否具備相關領域之背景知識，若未達標準，該校有權拒收,,44.0444197
13,北卡羅來納州立大學,NC State University (NCSU),美國,United States,https://oia.ntu.edu.tw/outgoing/view/semester/1/sn/13,是,一般組,學士生 TOEFL iBT 80 (讀 18 聽 18 說 18 寫 18 不接受 Home Edition) 或 IELTS 6.5 (聽 6.0 讀 6.0 寫 6.0 說 6.0)；研究生 TOEFL iBT 80 (讀 18 聽 18 說 18 寫 18 不接受 Home Edition) 或 IELTS 6.5 (聽 6.5 讀 6.5 寫 6.5 說 6.5),生物資源暨農學院獸醫學系、生物資源暨農學院獸醫學研究所、醫學院醫學工程學研究所、工學院醫學工程學研究所,全學年1名,Fall Term: August - December；Spring Term: January - May,須在本校註冊並繳交全額學雜費，免繳該校學費，但住宿費、生活費、保險費、往返機票費等均須自行負擔,不保證住宿，住宿資訊請參考此連結,交換學校一覽表所列之語言能力為該校之最低門檻要求，同學需自行確認語言能力是否符合該校修課要求、查詢是否有相對應系所及足夠的課程可供選讀、能否達到該校之每學期修課學分數要求、以及是否具備相關領域之背景知識，若未達標準，該校有權拒收,,,,35.7397972
14,夏威夷大學瑪諾亞分校,University of Hawai‘i at Mānoa (UH Mānoa),美國,United States,https://oia.ntu.edu.tw/outgoing/view/semester/1/sn/14,是,一般組,學士生 GPA 達2.70分以上，管理學院之學生前學年 GPA 達3.30分以上,大二以上/碩一以上/博一以上學生,學士生 TOEFL iBT 80 (接受 Home Edition) 或 IELTS 6.5 或 全民英檢中高級；研究生 TOEFL iBT 80 (接受 Home Edition) 或 IELTS 6.5,法律學院、醫學院,全學年2名,Fall Semester: August - December；Spring Semester: January - May,須在本校註冊並繳交全額學雜費，免繳該校學費，但該校雜費、住宿費、生活費、保險費、往返機票費等均須自行負擔,不保證住宿，校內住宿資訊請參考此連結、校外住宿資訊請參考此連結,交換學校一覽表所列之語言能力為該校之最低門檻要求，同學需自行確認語言能力是否符合該校修課要求、查詢是否有相對應系所及足夠的課程可供選讀、能否達到該校之每學期修課學分數要求、以及是否具備相關領域之背景知識，若未達標準，該校有權拒收,,21.2982795
10,喬治亞大學,University of Georgia (UGA),美國,United States,https://oia.ntu.edu.tw/outgoing/view/semester/1/sn/10,是,一般組,GPA 達3.30分以上,大二以上/碩一以上(不含博士生)學生,TOEFL iBT 80 (讀 20 聽 20 說 20 寫 20 接受 Home Edition) 或 IELTS 6.5 (聽 6.0 讀 6.0 寫 6.0 說 6.0),醫學院藥學系、醫學院藥學研究所、生物資源暨農學院獸醫學系、生物資源暨農學院獸醫學研究所、法律學院,全學年2名,Fall Semester: August - December；Spring Semester: January - May,須在本校註冊並繳交全額學雜費，免繳該校學費，但住宿費、生活費、保險費、往返機票費等均須自行負擔,不保證住宿，住宿資訊請參考此連結,交換學校一覽表所列之語言能力為該校之最低門檻要求，同學需自行確認語言能力是否符合該校修課要求、查詢是否有相對應系所及足夠的課程可供選讀、能否達到該校之每學期修課學分數要求、以及是否具備相關領域之背景知識，若未達標準，該校有權拒收,,33.9404278
11,奧克拉荷瑪大學,The University of Oklahoma (OU),美國,United States,https://oia.ntu.edu.tw/outgoing/view/semester/1/sn/11,是,一般組,無,大二以上/碩一以上(不含博士生)學生,學士生 TOEFL iBT 79 (不接受 Home Edition) 或 IELTS 6.0；研究生 TOEFL iBT 79 (不接受 Home Edition) 或 IELTS 6.5；法律學院學生TOEFL iBT 90 (不接受 Home Edition) 或 IELTS 7.0,醫學院、會計學研究所、財務金融學研究所、國際企業學研究所、資訊管理學研究所、商學研究所、企業管理碩士專班、經濟學研究所,全學年1名,Fall Semester: August - December；Spring Semester: January - May,須在本校註冊並繳交全額學雜費，免繳該校學費，但住宿費、生活費、保險費、往返機票費等均須自行負擔,不保證住宿，住宿資訊請參考下方說明,交換學校一覽表所列之語言能力為該校之最低門檻要求，同學需自行確認語言能力是否符合該校修課要求、查詢是否有相對應系所及足夠的課程可供選讀、能否達到該校之每學期修課學分數要求、以及是否具備相關領域之背景知識，若未達標準，該校有權拒收,,35.1959878
12,加州州立大學,The California State University (CSUIP),美國,United States,https://oia.ntu.edu.tw/outgoing/view/semester/1/sn/12,是,一般組,GPA 達3.30分以上,大二以上(僅限大學部)學生,TOEFL iBT 80 (不接受 Home Edition) 或 IELTS 6.0,無特別限制，請參考注意事項中的 Impacted (Closed) Subject Areas,全學年4名,各校區學年行事曆請參考 CSU Academic Calendar,須在本校註冊並繳交全額學雜費，免繳該校學費，但住宿費、生活費、保險費、往返機票費等均須自行負擔,不保證住宿，住宿資訊請參考此連結,交換學校一覽表所列之語言能力為該校之最低門檻要求，同學需自行確認語言能力是否符合該校各校區修課要求、查詢是否有相對應系所及足夠的課程可供選讀、能否達到該校之每學期修課學分數要求、以及是否具備相關領域之背景知識，若未達標準，該校有權拒收,,34.066406336107384
7,華盛頓大學,University of Washington (UW),美國,United States,https://oia.ntu.edu.tw/outgoing/view/semester/1/sn/7,否,一般組,GPA 達3.30分以上,大二以上(僅限大學部)學生,TOEFL iBT 83 (不接受 Home Edition) 或 IELTS 7.0,管理學院,全學年2名,Autumn Quarter: September - December；Winter Quarter: January - March；Spring Quarter: March - June,須在本校註冊並繳交全額學雜費，免繳該校學費，但住宿費、生活費、保險費、往返機票費等均須自行負擔,不保證住宿，住宿資訊請參考此連結,交換學校一覽表所列之語言能力為該校之最低門檻要求，同學需自行確認語言能力是否符合該校修課要求、查詢是否有相對應系所及足夠的課程可供選讀、能否達到該校之每學期修課學分數要求、以及是否具備相關領域之背景知識，若未達標準，該校有權拒收,,47.6554303
9,加州大學,University of California (UCEAP),美國,United States,https://oia.ntu.edu.tw/outgoing/view/semester/1/sn/9,否,一般組,GPA 達3.30分以上,大二/大三學生,TOEFL iBT 90 (不接受 Home Edition) 或 IELTS 7.0,醫學院、法律學院、生物資源暨農學院獸醫學系，MBA, 設計, 醫學、護理、獸醫學系研究所,全學年15名,Three quarters (UC Davis, UC Irvine,"[' UC Los Angeles', ' UC Riverside', ' UC Santa Cruz', ' UC Santa Barbara and UC San Diego) or Two semesters (UC Berkeley and UC Merced)', '須在本校註冊並繳交全額學雜費，免繳該校學費，但住宿費、生活費、保險費、往返機票費等均須自行負擔', '不保證住宿。Campus-specific住宿資訊請參閱此連結，General資訊請參閱此連結', '交換學校一覽表所列之語言能力為該校之最低門檻要求，同學需自行確認語言能力是否符合該校修課要求、查詢是否有相對應系所及足夠的課程可供選讀、能否達到該校之每學期修課學分數要求、以及是否具備相關領域之背景知識，若未達標準，該校有權拒收']",33.6491782
1299,紐澤西理工學院,New Jersey Institute of Technology (NJIT),美國,United States,https://oia.ntu.edu.tw/outgoing/view/semester/1/sn/1299,無,無,無,無,無,無,無,無,無,無,無,,40.7421254
1164,香港恒生大學,The Hang Seng University of Hong Kong,香港,Hong Kong,https://oia.ntu.edu.tw/outgoing/view/semester/1/sn/1164,是,一般組,GPA 達3.00分以上,大二以上(僅限大學部)學生,TOEFL iBT 79 (不接受 Home Edition) 或 IELTS 6.0,無,全學年2名,第一學期：9月- 12月；第二學期：1月- 5月,須在本校註冊並繳交全額學雜費，免繳該校學費，但該校雜費、住宿費、生活費、保險費、往返機票費等均須自行負擔,保障校內住宿，相關資訊請參考此連結。,交換學校一覽表所列之語言能力等規定為該校之最低門檻，同學需自行查證最新資訊，確認語言能力及成績是否符合該校要求、查詢是否有足夠的課程可供選讀、能否達到該校之每學期修課學分數要求、以及是否具備相關領域之背景知識等，若未達標準，該校有權拒收。本表所提供之資訊如有與交換學校／國家／地區最新公告不符之處，申請學生應以交換學校／國家／地區之最新公告為準。,,22.3794996
1062,嶺南大學,Lingnan University,香港,Hong Kong,https://oia.ntu.edu.tw/outgoing/view/semester/1/sn/1062,是,一般組,GPA 達3.00分以上,大二/大三學生,TOEFL iBT 79 (不接受 Home Edition) 或 IELTS 6.0,"課程代碼開頭為""CCC""、""LUE""及""GLA""的課程",全學年2名,該校年曆請參考此連結,須在本校註冊並繳交全額學雜費，免繳該校學費，但該校雜費、住宿費、生活費、保險費、往返機票費等均須自行負擔,保障校內住宿，相關資訊請參考此連結。,交換學校一覽表所列之語言能力等規定為該校之最低門檻，同學需自行查證最新資訊，確認語言能力及成績是否符合該校要求、查詢是否有足夠的課程可供選讀、能否達到該校之每學期修課學分數要求、以及是否具備相關領域之背景知識等，若未達標準，該校有權拒收。本表所提供之資訊如有與交換學校／國家／地區最新公告不符之處，申請學生應以交換學校／國家／地區之最新公告為準。,,22.4123588
169,香港大學,The University of Hong Kong,香港,Hong Kong,https://oia.ntu.edu.tw/outgoing/view/semester/1/sn/169,是,一般組,GPA 達3.00分以上,大二以上(僅限大學部)學生,TOEFL iBT 93 (不接受 Home Edition) 或 IELTS 6.5；法律學院學生TOEFL iBT 97 (不接受 Home Edition) 或 IELTS 7.0 (聽 6.5 讀 6.5 寫 6.5 說 6.5),醫學院、公共衛生學院、牙醫學院、運動與健康學程、所有學院之畢業專題課程,全學年3名,第一學期：9月-12月；第二學期：1月-5月,須在本校註冊並繳交全額學雜費，免繳該校學費，但該校雜費、住宿費、生活費、保險費、往返機票費等均須自行負擔,不保證住宿，請自行參考姊妹校提供之住宿資訊。,交換學校一覽表所列之語言能力等規定為該校之最低門檻，同學需自行查證最新資訊，確認語言能力及成績是否符合該校要求、查詢是否有足夠的課程可供選讀、能否達到該校之每學期修課學分數要求、以及是否具備相關領域之背景知識等，若未達標準，該校有權拒收。本表所提供之資訊如有與交換學校／國家／地區最新公告不符之處，申請學生應以交換學校／國家／地區之最新公告為準。,,22.2826975
439,香港理工大學,The Hong Kong Polytechnic University,香港,Hong Kong,https://oia.ntu.edu.tw/outgoing/view/semester/1/sn/439,是,一般組,GPA 達2.90分以上,大二/大三學生,TOEFL iBT 80 (不接受 Home Edition) 或 IELTS 6.0,無,全學年2名,該校年曆請參考此網頁,須在本校註冊並繳交全額學雜費，免繳該校學費，但該校雜費、住宿費、生活費、保險費、往返機票費等均須自行負擔,保證校內住宿，相關資訊請參考此網頁。,交換學校一覽表所列之語言能力等規定為該校之最低門檻，同學需自行查證最新資訊，確認語言能力及成績是否符合該校要求、查詢是否有足夠的課程可供選讀、能否達到該校之每學期修課學分數要求、以及是否具備相關領域之背景知識等，若未達標準，該校有權拒收。本表所提供之資訊如有與交換學校／國家／地區最新公告不符之處，申請學生應以交換學校／國家／地區之最新公告為準。,,22.3044867
22,香港城市大學,City University of Hong Kong,香港,Hong Kong,https://oia.ntu.edu.tw/outgoing/view/semester/1/sn/22,是,一般組,無,大二/大三/大四學生,IELTS 6.5,生物資源暨農學院獸醫學系,全學年3名,該校年曆請參考此網頁,須在本校註冊並繳交全額學雜費，免繳該校學費，但該校雜費、住宿費、生活費、保險費、往返機票費等均須自行負擔,不保證住宿，請自行參考姊妹校提供之住宿資訊。,交換學校一覽表所列之語言能力等規定為該校之最低門檻，同學需自行查證最新資訊，確認語言能力及成績是否符合該校要求、查詢是否有足夠的課程可供選讀、能否達到該校之每學期修課學分數要求、以及是否具備相關領域之背景知識等，若未達標準，該校有權拒收。本表所提供之資訊如有與交換學校／國家／地區最新公告不符之處，申請學生應以交換學校／國家／地區之最新公告為準。,,22.3400205
21,香港中文大學,The Chinese University of Hong Kong (CUHK),香港,Hong Kong,https://oia.ntu.edu.tw/outgoing/view/semester/1/sn/21,是,一般組,GPA 達3.00分以上,大二/大三學生,TOEFL iBT 80 (不接受 Home Edition) 或 IELTS 6.0,醫學院,全學年3名,該校年曆，請參考此連結。,須在本校註冊並繳交全額學雜費，免繳該校學費，但該校雜費、住宿費、生活費、保險費、往返機票費等均須自行負擔,保障校內住宿，相關資訊請參考此連結。,交換學校一覽表所列之語言能力等規定為該校之最低門檻，同學需自行查證最新資訊，確認語言能力及成績是否符合該校要求、查詢是否有足夠的課程可供選讀、能否達到該校之每學期修課學分數要求、以及是否具備相關領域之背景知識等，若未達標準，該校有權拒收。本表所提供之資訊如有與交換學校／國家／地區最新公告不符之處，申請學生應以交換學校／國家／地區之最新公告為準。,,22.4201838
1292,印度理工學院印多爾分校,Indian Institute of Technology Indore,印度,India,https://oia.ntu.edu.tw/outgoing/view/semester/1/sn/1292,是,一般組,GPA 達3.00分以上,碩一以上/博一以上學生,TOEFL iBT 79 (不接受 Home Edition) 或 IELTS 6.0,無,一學期2名,該校年曆請見此連結,須在本校註冊並繳交全額學雜費，免繳該校學費，但該校雜費、住宿費、生活費、保險費、往返機票費等均須自行負擔,保證校內住宿,交換學校一覽表所列之語言能力等規定為該校之最低門檻，同學需自行確認最新資訊，如語言能力及成績是否符合該校要求、查詢是否有足夠的課程可供選讀、能否達到該校之每學期修課學分數要求、以及是否具備相關領域之背景知識等，若未達標準，該校有權拒收。本表所提供之資訊如有與交換學校／國家／地區最新公告不符之處，申請學生應以交換學校／國家／地區之最新公告為準。,,22.5269276
1297,印度理工學院海得拉巴分校,Indian Institute of Technology Hyderabad,印度,India,https://oia.ntu.edu.tw/outgoing/view/semester/1/sn/1297,是,一般組,GPA 達4.00分以上,大二/碩一/碩二/博一以上學生,IELTS 8.0,無,一學期3名,該校年曆，請參考此連結。,須在本校註冊並繳交全額學雜費，免繳該校學費，但該校雜費、住宿費、生活費、保險費、往返機票費等均須自行負擔,保證校內住宿。,交換學校一覽表所列之語言能力等規定為該校之最低門檻，同學需自行確認最新資訊，如語言能力及成績是否符合該校要求、查詢是否有足夠的課程可供選讀、能否達到該校之每學期修課學分數要求、以及是否具備相關領域之背景知識等，若未達標準，該校有權拒收。本表所提供之資訊如有與交換學校／國家／地區最新公告不符之處，申請學生應以交換學校／國家／地區之最新公告為準。,,17.5922751
1288,印度理工學院孟買分校,Indian Institute of Technology Bombay,印度,India,https://oia.ntu.edu.tw/outgoing/view/semester/1/sn/1288,是,一般組,無,大二以上/碩一以上/博一以上學生,TOEFL iBT 95 (寫 20 不接受 Home Edition) 或 IELTS 6.5 (聽 6.0 讀 6.0 寫 6.0 說 6.0),無,全學年1名,Semester 1：July-November；Semester 2：January-April,須在本校註冊並繳交全額學雜費，免繳該校學費，但該校雜費、住宿費、生活費、保險費、往返機票費等均須自行負擔,保證校內住宿,交換學校一覽表所列之語言能力等規定為該校之最低門檻，同學需自行確認最新資訊，如語言能力及成績是否符合該校要求、查詢是否有足夠的課程可供選讀、能否達到該校之每學期修課學分數要求、以及是否具備相關領域之背景知識等，若未達標準，該校有權拒收。本表所提供之資訊如有與交換學校／國家／地區最新公告不符之處，申請學生應以交換學校／國家／地區之最新公告為準。,,19.1326186
1268,貝內特大學,Bennett University,印度,India,https://oia.ntu.edu.tw/outgoing/view/semester/1/sn/1268,是,一般組,GPA 達3.30分以上,大三學生,TOEFL iBT 79 (不接受 Home Edition) 或 IELTS 6.0,無,一學期1名,該校年曆，請參考此連結,須在本校註冊並繳交全額學雜費，免繳該校學費，但該校雜費、住宿費、生活費、保險費、往返機票費等均須自行負擔,不保證住宿，相關資訊請參考此連結,交換學校一覽表所列之語言能力為該校之最低門檻要求，同學需自行確認語言能力是否符合該校修課要求、查詢是否有足夠的課程可供選讀、能否達到該校之每學期修課學分數要求、以及是否具備相關領域之背景知識，若未達標準，該校有權拒收。,,28.4506108
986,耶路撒冷希伯來大學,Hebrew University of Jerusalem,以色列,Israel,https://oia.ntu.edu.tw/outgoing/view/semester/1/sn/986,是,無,無,無,無,無,無,無,無,無,無,,31.7918555
941,臺拉維夫大學,Tel Aviv University,以色列,Israel,https://oia.ntu.edu.tw/outgoing/view/semester/1/sn/941,是,一般組,GPA 達2.70分以上,大二以上/碩一以上/博一以上學生,TOEFL iBT 79 (不接受 Home Edition) 或 IELTS 6.0,無,全學年0名,Term 1 (Winter Semester): October to January；Term 2 (Spring semester): March to July,須在本校註冊並繳交全額學雜費，免繳該校學費，但該校雜費、住宿費、生活費、保險費、往返機票費等均須自行負擔,不保證住宿，住宿資訊請參考此連結。,交換學校一覽表所列之語言能力為該校之最低門檻要求，同學需自行確認語言能力是否符合該校修課要求、查詢是否有足夠的課程可供選讀、能否達到該校之每學期修課學分數要求、以及是否具備相關領域之背景知識，若未達標準，該校有權拒收。,,32.1123577
384,以色列理工學院,Technion - Israel Institute of Technology,以色列,Israel,https://oia.ntu.edu.tw/outgoing/view/semester/1/sn/384,是,一般組,GPA 達3.30分以上,大二以上/碩一以上(不含博士生)學生,TOEFL iBT 80 (不接受 Home Edition) 或 IELTS 7.0,醫學院,全學年0名,Term 1 (Winter Semester): October to January；Term 2 (Spring semester): March to July,須在本校註冊並繳交全額學雜費，免繳該校學費，但該校雜費、住宿費、生活費、保險費、往返機票費等均須自行負擔,不保證住宿，住宿資訊請參考此連結。,交換學校一覽表所列之語言能力為該校之最低門檻要求，同學需自行確認語言能力是否符合該校修課要求、查詢是否有足夠的課程可供選讀、能否達到該校之每學期修課學分數要求、以及是否具備相關領域之背景知識，若未達標準，該校有權拒收。,,32.7768128
1293,熊本大學,Kumamoto University,日本,Japan,https://oia.ntu.edu.tw/outgoing/view/semester/1/sn/1293,是,日語組,GPA 達3.30分以上,大二/大三學生,具日文檢定成績 2 級以上,醫學院、生物資源暨農學院獸醫學系,全學年1名,Spring Semester: April – beginning of August；Fall Semester: end of September – mid February,須在本校註冊並繳交全額學雜費，免繳該校學費，但該校雜費、住宿費、生活費、保險費、往返機票費等均須自行負擔,保證住宿，更多資訊請見此連結。,交換學校一覽表所列之語言能力為該校之最低門檻要求，同學需自行確認語言能力是否符合該校修課要求、查詢是否有足夠的課程可供選讀、能否達到該校之每學期修課學分數要求、以及是否具備相關領域之背景知識，若未達標準，該校有權拒收,,32.8164178
978,兵庫縣立大學,University of Hyogo,日本,Japan,https://oia.ntu.edu.tw/outgoing/view/semester/1/sn/978,是,日語組,GPA 達3.00分以上,大二/大三學生,具日文檢定成績 1 級以上,人類科學與環境學院食物科學與營養系,全學年1名,First semester: April to September；Second semester: October to March,須在本校註冊並繳交全額學雜費，免繳該校學費，但該校雜費、住宿費、生活費、保險費、往返機票費等均須自行負擔,保證住宿，但不保證校內住宿，住宿資訊請參考此連結。,交換學校一覽表所列之語言能力為該校之最低門檻要求，同學需自行確認語言能力是否符合該校修課要求、查詢是否有足夠的課程可供選讀、能否達到該校之每學期修課學分數要求、以及是否具備相關領域之背景知識，若未達標準，該校有權拒收,,34.9295623
1198,秋田大學,Akita University,日本,Japan,https://oia.ntu.edu.tw/outgoing/view/semester/1/sn/1198,是,日語組,GPA 達2.70分以上,大二以上/碩一以上/博一以上學生,具日文檢定成績 2 級以上,醫學院,全學年0名,Fall Semester: October - February；Spring Semester: April - August,須在本校註冊並繳交全額學雜費，免繳該校學費，但該校雜費、住宿費、生活費、保險費、往返機票費等均須自行負擔,不保證住宿，住宿資訊請參考此連結。,交換學校一覽表所列之語言能力為該校之最低門檻要求，同學需自行確認語言能力是否符合該校修課要求、查詢是否有足夠的課程可供選讀、能否達到該校之每學期修課學分數要求、以及是否具備相關領域之背景知識，若未達標準，該校有權拒收,,39.7277525
1187,近畿大學,Kindai University,日本,Japan,https://oia.ntu.edu.tw/outgoing/view/semester/1/sn/1187,是,日語組/一般組,GPA 達2.80分以上,大二以上(僅限大學部)學生,日語組：具日文檢定成績 2 級以上；一般組：TOEFL iBT 79 (不接受 Home Edition) 或 IELTS 6.0,醫學院藥學系、文學院,日語組全學年1名；一般組全學年1名,Spring Semester: April - August；Fall Semester: September - February,須在本校註冊並繳交全額學雜費，免繳該校學費，但該校雜費、住宿費、生活費、保險費、往返機票費等均須自行負擔,保證住宿，請參考此連結,交換學校之交換入學審查相當嚴格，歷屆交換生有被該校拒絕入學申請之紀錄，請欲選擇交換至該校的同學務必查看確認該校有相對應的主修課程可供選讀。,,34.6517298
1009,一橋大學,Hitotsubashi University,日本,Japan,https://oia.ntu.edu.tw/outgoing/view/semester/1/sn/1009,是,日語組/一般組,GPA 達3.00分以上,大二以上/碩一以上(不含博士生)學生,日語組：具日文檢定成績 2 級以上；一般組：TOEFL iBT 79 (不接受 Home Edition) 或 IELTS 6.0,社會科學院、管理學院企業管理碩士專班、法律學院,日語組全學年1名，日語組(限社會科學院)全學年1名，一般組(限社會科學院)全學年1名,Spring - Summer Semester: Spring Quarter: April - May, Summer Quarter: June - August；Autumn - Winter Semester: Autumn Quarter: September - October, Winter Quarter: November - December,須在本校註冊並繳交全額學雜費，免繳該校學費，但該校雜費、住宿費、生活費、保險費、往返機票費等均須自行負擔,"['保證住宿，住宿資訊請參考此連結。', '交換學校一覽表所列之語言能力為該校之最低門檻要求，同學需自行確認語言能力是否符合該校修課要求、查詢是否有足夠的課程可供選讀、能否達到該校之每學期修課學分數要求、以及是否具備相關領域之背景知識，若未達標準，該校有權拒收']",35.6937953
927,廣島大學,Hiroshima University,日本,Japan,https://oia.ntu.edu.tw/outgoing/view/semester/1/sn/927,是,日語組/一般組,無,大二以上/碩一以上(不含博士生)學生,日語組：具日文檢定成績 2 級以上；一般組：TOEFL iBT 79 (不接受 Home Edition) 或 IELTS 6.0,醫學院、法律學院,日語組全學年0名；一般組全學年0名,Fall Semester: October - February；Spring Semester: April - August,須在本校註冊並繳交全額學雜費，免繳該校學費，但該校雜費、住宿費、生活費、保險費、往返機票費等均須自行負擔,住宿資訊請參考此連結。,交換學校一覽表所列之語言能力為該校之最低門檻要求，同學需自行確認語言能力是否符合該校修課要求、查詢是否有足夠的課程可供選讀、能否達到該校之每學期修課學分數要求、以及是否具備相關領域之背景知識，若未達標準，該校有權拒收,,34.4019766
1004,名古屋外國語大學,Nagoya University of Foreign Studies (NUFS),日本,Japan,https://oia.ntu.edu.tw/outgoing/view/semester/1/sn/1004,是,日語組/一般組,GPA 達3.00分以上,大二以上/碩一以上/博一以上學生,日語組：學士生具日文檢定成績 2 級以上，研究生具日文檢定成績 1 級以上；一般組：TOEFL iBT 79 (不接受 Home Edition) 或 IELTS 6.0,無,日語組全學年1名；一般組全學年1名,Fall Semester: September - December；Spring Semester: April - July,須在本校註冊並繳交全額學雜費，免繳該校學費，但該校雜費、住宿費、生活費、保險費、往返機票費等均須自行負擔,保證住宿，請參考住宿資訊。,交換學校一覽表所列之語言能力為該校之最低門檻要求，同學需自行確認語言能力是否符合該校修課要求、查詢是否有足夠的課程可供選讀、能否達到該校之每學期修課學分數要求、以及是否具備相關領域之背景知識，若未達標準，該校有權拒收,,
809,立命館大學,Ritsumeikan University,日本,Japan,https://oia.ntu.edu.tw/outgoing/view/semester/1/sn/809,是,日語組,GPA 達3.00分以上,大二以上/碩一以上(不含博士生)學生,具日文檢定成績 1 級以上,無,全學年1名,Spring Semester: April - September；Fall Semester: September - March,須在本校註冊並繳交全額學雜費，免繳該校學費，但該校雜費、住宿費、生活費、保險費、往返機票費等均須自行負擔,不保證住宿，住宿資訊請參考此連結。,交換學校一覽表所列之語言能力為該校之最低門檻要求，同學需自行確認語言能力是否符合該校修課要求、查詢是否有足夠的課程可供選讀、能否達到該校之每學期修課學分數要求、以及是否具備相關領域之背景知識，若未達標準，該校有權拒收,,35.034404
816,關西學院大學,Kwansei Gakuin University,日本,Japan,https://oia.ntu.edu.tw/outgoing/view/semester/1/sn/816,是,日語組/一般組,無,大二以上/碩一以上(不含博士生)學生,日語組：具日文檢定成績 1 級以上；一般組：TOEFL iBT 79 (不接受 Home Edition) 或 IELTS 6.0,無,日語組全學年1名；一般組全學年1名,Fall Semester: Late September - Late January；Spring Semester: Mid-March - Early August,須在本校註冊並繳交全額學雜費，免繳該校學費，但該校雜費、住宿費、生活費、保險費、往返機票費等均須自行負擔,不保證住宿，住宿資訊請參考此連結。,交換學校一覽表所列之語言能力為該校之最低門檻要求，同學需自行確認語言能力是否符合該校修課要求、查詢是否有足夠的課程可供選讀、能否達到該校之每學期修課學分數要求、以及是否具備相關領域之背景知識，若未達標準，該校有權拒收,,34.768813
955,日本大學,Nihon University,日本,Japan,https://oia.ntu.edu.tw/outgoing/view/semester/1/sn/955,是,日語組,GPA 達3.30分以上,大二以上/碩一以上/博一以上學生,具日文檢定成績 2 級以上,醫學院、牙醫學院、松戶牙醫學院、藥學系、獸醫學系、社會文化學研究所、國際政治經濟研究所、文化傳播學研究所、人類科學研究所、社會文化學博士學程、法律學系、體育科學院,一學期1名,Fall semester: September - February；Spring semester: April - July,須在本校註冊並繳交全額學雜費，免繳該校學費，但該校雜費、住宿費、生活費、保險費、往返機票費等均須自行負擔,不保證住宿。,交換學校一覽表所列之語言能力為該校之最低門檻要求，同學需自行確認語言能力是否符合該校修課要求、查詢是否有足夠的課程可供選讀、能否達到該校之每學期修課學分數要求、以及是否具備相關領域之背景知識，若未達標準，該校有權拒收,,35.6971554
394,東京科學大學（原東京工業大學）,Institute of Science Tokyo (Previously Tokyo Institute of Technology),日本,Japan,https://oia.ntu.edu.tw/outgoing/view/semester/1/sn/394,否,日語組/一般組,無,大二以上/碩一以上/博一以上學生,日語組：具日文檢定成績 2 級以上；一般組：TOEFL iBT 79 (接受 Home Edition) 或 IELTS 6.0,無特別限制，請參考注意事項,日語組全學年0名；一般組全學年0名,該校年曆請參考此連結,須在本校註冊並繳交全額學雜費，免繳該校學費，但該校雜費、住宿費、生活費、保險費、往返機票費等均須自行負擔,不保證住宿，住宿資訊，請參考此連結。,交換學校一覽表所列之語言能力為該校之最低門檻要求，同學需自行確認語言能力是否符合該校修課要求、查詢是否有足夠的課程可供選讀、能否達到該校之每學期修課學分數要求、以及是否具備相關領域之背景知識，若未達標準，該校有權拒收,,
798,長崎大學,Nagasaki University,日本,Japan,https://oia.ntu.edu.tw/outgoing/view/semester/1/sn/798,是,日語組/一般組,GPA 達3.00分以上,大二以上/碩一以上(不含博士生)學生,日語組：具日文檢定成績 1 級以上；一般組：TOEFL iBT 79 (不接受 Home Edition) 或 IELTS 6.0,醫學院、護理學院、牙醫學系、藥學系、傳播學系,日語組全學年1名；一般組全學年1名,Fall Semester: September - March；Spring Semester: April - September,須須在本校註冊並繳交全額學雜費，免繳該校學費，但該校雜費、住宿費、生活費、保險費、往返機票費等均須自行負擔,不保證住宿，住宿資訊請參考此連結,交換學校一覽表所列之語言能力為該校之最低門檻要求，同學需自行確認語言能力是否符合該校修課要求、查詢是否有足夠的課程可供選讀、能否達到該校之每學期修課學分數要求、以及是否具備相關領域之背景知識，若未達標準，該校有權拒收,,32.7861999
817,橫濱國立大學,Yokohama National University (YNU),日本,Japan,https://oia.ntu.edu.tw/outgoing/view/semester/1/sn/817,是,日語組/一般組,GPA 達3.70分以上,大二以上(僅限大學部)學生,日語組：具日文檢定成績 2 級以上；一般組：TOEFL iBT 80 (不接受 Home Edition) 或 IELTS 6.0,無,日語組一學期0名；一般組一學期0名,Fall Semester: October - March；Spring Semester: April - August,須在本校註冊並繳交全額學雜費，免繳該校學費，但該校雜費、住宿費、生活費、保險費、往返機票費等均須自行負擔,保證住宿，住宿資訊請參考此連結,交換學校一覽表所列之語言能力等規定為該校之最低門檻，同學需自行確認最新資訊，如語言能力及成績是否符合該校要求、查詢是否有足夠的課程可供選讀、能否達到該校之每學期修課學分數要求、以及是否具備相關領域之背景知識等，若未達標準，該校有權拒收,,35.4737978
824,金澤大學,Kanazawa University,日本,Japan,https://oia.ntu.edu.tw/outgoing/view/semester/1/sn/824,是,日語組/一般組,GPA 達3.00分以上,大二以上/碩一以上/博一以上學生,日語組：具日文檢定成績 2 級以上；一般組：TOEFL iBT 79 (不接受 Home Edition) 或 IELTS 6.0,無,日語組一學期0名；一般組一學期0名,Fall Semester: October - March；Spring Semester: April - August,須在本校註冊並繳交全額學雜費，免繳該校學費，但該校雜費、住宿費、生活費、保險費、往返機票費等均須自行負擔,不保證住宿，住宿資訊請參考此連結,交換學校一覽表所列之語言能力為該校之最低門檻要求，同學需自行確認語言能力是否符合該校修課要求、查詢是否有足夠的課程可供選讀、能否達到該校之每學期修課學分數要求、以及是否具備相關領域之背景知識，若未達標準，該校有權拒收,,36.6575095
800,神奈川大學,Kanagawa University (KU),日本,Japan,https://oia.ntu.edu.tw/outgoing/view/semester/1/sn/800,是,日語組/一般組,日語組無；一般組GPA 達2.44分以上,大二以上/碩一以上/博一以上學生,日語組：具日文檢定成績 2 級以上；一般組：TOEFL iBT 79 (接受 Home Edition) 或 IELTS 6.0 或 全民英檢中高級,無,日語組全學年0名；一般組全學年0名,Spring Semester: April- July；Fall Semester: September- January,須在本校註冊並繳交全額學雜費，免繳該校學費，但該校雜費、住宿費、生活費、保險費、往返機票費等均須自行負擔,不保證住宿，住宿資訊請參考此連結。,交換學校一覽表所列之語言能力為該校之最低門檻要求，同學需自行確認語言能力是否符合該校修課要求、查詢是否有足夠的課程可供選讀、能否達到該校之每學期修課學分數要求、以及是否具備相關領域之背景知識，若未達標準，該校有權拒收,,35.5914478
108,大阪大學,Osaka University,日本,Japan,https://oia.ntu.edu.tw/outgoing/view/semester/1/sn/108,否,日語組/一般組,GPA 達3.30分以上,大二以上/碩一以上/博一以上學生,日語組：具日文檢定成績 1 級以上；一般組：TOEFL iBT 80 (接受 Home Edition) 或 IELTS 6.0,無,日語組全學年0名；一般組全學年0名,Fall Semester: October - March；Spring Semester: April - September,須在本校註冊並繳交全額學雜費，免繳該校學費，但該校雜費、住宿費、生活費、保險費、往返機票費等均須自行負擔,不保證住宿，住宿資訊請參考此連結。,交換學校一覽表所列之語言能力為該校之最低門檻要求，同學需自行確認語言能力是否符合該校修課要求、查詢是否有足夠的課程可供選讀、能否達到該校之每學期修課學分數要求、以及是否具備相關領域之背景知識，若未達標準，該校有權拒收。,,34.5111992
376,青山學院大學,Aoyama Gakuin University,日本,Japan,https://oia.ntu.edu.tw/outgoing/view/semester/1/sn/376,是,日語組,GPA 達3.00分以上,大二以上/碩二(不含博士生)學生,具日文檢定成績 2 級以上,體育課程、教師證照課程、日文學生外語課程、教育學院部分課程,一學期1名,Fall Semester: September - February；Spring Semester: April - August,須在本校註冊並繳交全額學雜費，免繳該校學費，但該校雜費、住宿費、生活費、保險費、往返機票費等均須自行負擔,不保證住宿，住宿資訊請參考此連結。,交換學校一覽表所列之語言能力為該校之最低門檻要求，同學需自行確認語言能力是否符合該校修課要求、查詢是否有足夠的課程可供選讀、能否達到該校之每學期修課學分數要求、以及是否具備相關領域之背景知識，若未達標準，該校有權拒收,,35.6605744
377,同志社大學,Doshisha University,日本,Japan,https://oia.ntu.edu.tw/outgoing/view/semester/1/sn/377,是,日語組/一般組,無,大二以上/碩一以上/博一以上學生,日語組：具日文檢定成績 2 級以上；一般組：TOEFL iBT 79 (不接受 Home Edition) 或 IELTS 6.0,法律學院、管理學院,日語組全學年1名；一般組全學年1名,Fall Semester: September - February；Spring Semester: April - September,須在本校註冊並繳交全額學雜費，免繳該校學費，但該校雜費、住宿費、生活費、保險費、往返機票費等均須自行負擔,不保證住宿。依據宿舍不同，每月約34000~77000日圓。,交換學校一覽表所列之語言能力為該校之最低門檻要求，同學需自行確認語言能力是否符合該校修課要求、查詢是否有足夠的課程可供選讀、能否達到該校之每學期修課學分數要求、以及是否具備相關領域之背景知識，若未達標準，該校有權拒收,,35.0304815
607,上智大學,Sophia University,日本,Japan,https://oia.ntu.edu.tw/outgoing/view/semester/1/sn/607,是,日語組/一般組,GPA 達3.30分以上,大二以上/碩一以上(不含博士生)學生,日語組：具日文檢定成績 1 級以上；一般組：TOEFL iBT 79 (不接受 Home Edition) 或 IELTS 6.0,無,日語組全學年1名；一般組全學年1名,Spring Term: April - July；Autumn Term: September - January,須在本校註冊並繳交全額學雜費，免繳該校學費，但住宿費、生活費、保險費、往返機票費等均須自行負擔,不保證住宿，住宿資訊請參考此連結,交換學校一覽表所列之語言能力為該校之最低門檻要求，同學需自行確認語言能力是否符合該校修課要求、查詢是否有足夠的課程可供選讀、能否達到該校之每學期修課學分數要求、以及是否具備相關領域之背景知識，若未達標準，該校有權拒收,,35.68395
103,名古屋大學,Nagoya University,日本,Japan,https://oia.ntu.edu.tw/outgoing/view/semester/1/sn/103,否,日語組,GPA 達3.50分以上,大二以上/碩一以上/博一以上學生,具日文檢定成績 1 級以上,法律學院,全學年1名,Fall Semester: October - February；Spring Semester: April - August,須在本校註冊並繳交全額學雜費，免繳該校學費，但該校雜費、住宿費、生活費、保險費、往返機票費等均須自行負擔,保證住宿，但不保證校內住宿，住宿資訊請參考此連結。,交換學校一覽表所列之語言能力為該校之最低門檻要求，同學需自行確認語言能力是否符合該校修課要求、查詢是否有足夠的課程可供選讀、能否達到該校之每學期修課學分數要求、以及是否具備相關領域之背景知識，若未達標準，該校有權拒收,,35.1533086
109,神戶大學,Kobe University,日本,Japan,https://oia.ntu.edu.tw/outgoing/view/semester/1/sn/109,是,日語組,GPA 達3.70分以上,大二以上/碩一以上/博一以上學生,具日文檢定成績 1 級以上,海洋學院、海事科學學院、醫學院、跨文化研究學院,全學年1名,Fall Semester: October - February；Spring Semester: April - August,須在本校註冊並繳交全額學雜費，免繳該校學費，但該校雜費、住宿費、生活費、保險費、往返機票費等均須自行負擔,不保證住宿，住宿資訊請參考此連結。,交換學校一覽表所列之語言能力為該校之最低門檻要求，同學需自行確認語言能力是否符合該校修課要求、查詢是否有足夠的課程可供選讀、能否達到該校之每學期修課學分數要求、以及是否具備相關領域之背景知識，若未達標準，該校有權拒收,,34.663757
38,岡山大學,Okayama University,日本,Japan,https://oia.ntu.edu.tw/outgoing/view/semester/1/sn/38,是,日語組,GPA 達2.50分以上,大二以上(僅限大學部)學生,TOEFL iBT 79 (不接受 Home Edition) 或 IELTS 6.0 或 全民英檢中高級；具日文檢定成績 2 級以上,無,全學年1名,Fall Semester: October - February；Spring Semester: April - August,須在本校註冊並繳交全額學雜費，免繳該校學費，但該校雜費、住宿費、生活費、保險費、往返機票費等均須自行負擔,保證住宿，住宿資訊請參考此連結,交換學校一覽表所列之語言能力為該校之最低門檻要求，同學需自行確認語言能力是否符合該校修課要求、查詢是否有足夠的課程可供選讀、能否達到該校之每學期修課學分數要求、以及是否具備相關領域之背景知識，若未達標準，該校有權拒收,,34.6889496
107,筑波大學,University of Tsukuba,日本,Japan,https://oia.ntu.edu.tw/outgoing/view/semester/1/sn/107,是,日語組/一般組,GPA 達3.00分以上,大二以上/碩一以上/博一以上學生,日語組：具兩年內日文檢定成績 2 級以上；一般組：TOEFL iBT 79 (不接受 Home Edition) 或 IELTS 6.0,無,日語組全學年2名；一般組全學年2名,Spring Semester: April - August；Fall Semester: October - February,須在本校註冊並繳交全額學雜費，免繳該校學費，但該校雜費、住宿費、生活費、保險費、往返機票費等均須自行負擔,保證住宿，住宿資訊請參考此連結。,交換學校一覽表所列之語言能力為該校之最低門檻要求，同學需自行確認語言能力是否符合該校修課要求、查詢是否有足夠的課程可供選讀、能否達到該校之每學期修課學分數要求、以及是否具備相關領域之背景知識，若未達標準，該校有權拒收,,36.1070526
34,東京大學,The University of Tokyo (UTokyo),日本,Japan,https://oia.ntu.edu.tw/outgoing/view/semester/1/sn/34,否,日語組/一般組,GPA 達3.30分以上,大二以上/碩一以上/博一以上學生,日語組：具日文檢定成績 1 級以上；一般組：TOEFL iBT 90 (不接受 Home Edition) 或 IELTS 6.5,無,日語組全學年1名；一般組全學年1名,Fall Semester: October to March；Spring Semester: April to August/September,須在本校註冊並繳交全額學雜費，免繳該校學費，但住宿費、生活費、保險費、往返機票費等均須自行負擔,不保證住宿，住宿資訊，請參考此連結。,交換學校一覽表所列之語言能力為該校之最低門檻要求，同學需自行確認語言能力是否符合該校修課要求、查詢是否有足夠的課程可供選讀、能否達到該校之每學期修課學分數要求、以及是否具備相關領域之背景知識，若未達標準，該校有權拒收,,35.7134629
35,國際教養大學,Akita International University (AIU),日本,Japan,https://oia.ntu.edu.tw/outgoing/view/semester/1/sn/35,是,一般組,GPA 達2.70分以上,大二以上(僅限大學部)學生,TOEFL iBT 79 (不接受 Home Edition) 或 IELTS 6.0,English for Academic Purposes, Study Abroad preparation courses, Teacher's License Program,全學年2名,Fall Semester: September - December；Spring Semester: April - July,須在本校註冊並繳交全額學雜費，免繳該校學費，但該校雜費、住宿費、生活費、保險費、往返機票費等均須自行負擔,"['保證住宿，請參考住宿資訊', '交換學校一覽表所列之語言能力為該校之最低門檻要求，同學需自行確認語言能力是否符合該校修課要求、查詢是否有足夠的課程可供選讀、能否達到該校之每學期修課學分數要求、以及是否具備相關領域之背景知識，若未達標準，該校有權拒收']",39.6262624
36,北海道大學,Hokkaido University,日本,Japan,https://oia.ntu.edu.tw/outgoing/view/semester/1/sn/36,否,日語組/一般組,GPA 達3.30分以上,大二/大三學生,日語組：具日文檢定成績 1 級以上；一般組：TOEFL iBT 90 (不接受 Home Edition) 或 IELTS 6.5,醫學院、獸醫學院、牙醫學院、藥學系,日語組全學年1名；一般組全學年1名,Fall semester: October - March；Spring semester: April - September,須在本校註冊並繳交全額學雜費，免繳該校學費，但該校雜費、住宿費、生活費、保險費、往返機票費等均須自行負擔,不保證住宿，住宿資訊請參考此連結。,交換學校一覽表所列之語言能力為該校之最低門檻要求，同學需自行確認語言能力是否符合該校修課要求、查詢是否有足夠的課程可供選讀、能否達到該校之每學期修課學分數要求、以及是否具備相關領域之背景知識，若未達標準，該校有權拒收,,43.0790078
37,京都大學,Kyoto University,日本,Japan,https://oia.ntu.edu.tw/outgoing/view/semester/1/sn/37,否,日語組/一般組,GPA 達3.30分以上,日語組：大二以上/碩一以上/博一以上學生；一般組：大二以上(僅限大學部)學生,日語組：具日文檢定成績 1 級以上；一般組：TOEFL iBT 79 (接受 Home Edition) 或 IELTS 6.5,醫學院,日語組全學年1名；一般組全學年1名,Fall Semester: September - February；Spring Semester: April - August,須在本校註冊並繳交全額學雜費，免繳該校學費，但該校雜費、住宿費、生活費、保險費、往返機票費等均須自行負擔,不保證住宿，住宿資訊請參考此連結。,交換學校一覽表所列之語言能力為該校之最低門檻要求，同學需自行確認語言能力是否符合該校修課要求、查詢是否有足夠的課程可供選讀、能否達到該校之每學期修課學分數要求、以及是否具備相關領域之背景知識，若未達標準，該校有權拒收,,35.0229299
32,關西大學,Kansai University,日本,Japan,https://oia.ntu.edu.tw/outgoing/view/semester/1/sn/32,是,日語組/一般組,無,大二以上/碩一以上/博一以上學生,日語組：具日文檢定成績 2 級以上；一般組：TOEFL iBT 79 (不接受 Home Edition) 或 IELTS 6.0,無,日語組全學年1名；一般組全學年1名,Spring Semester: April - September；Fall Semester: September - March,須在本校註冊並繳交全額學雜費，免繳該校學費，但該校雜費、住宿費、生活費、保險費、往返機票費等均須自行負擔,不保證住宿，住宿資訊請參考此連結。,交換學校一覽表所列之語言能力為該校之最低門檻要求，同學需自行確認語言能力是否符合該校修課要求、查詢是否有足夠的課程可供選讀、能否達到該校之每學期修課學分數要求、以及是否具備相關領域之背景知識，若未達標準，該校有權拒收,,34.7727934
33,琉球大學,University of the Ryukyus,日本,Japan,https://oia.ntu.edu.tw/outgoing/view/semester/1/sn/33,是,日語組/一般組,無,大二以上/碩一以上/博一以上學生,日語組：具日文檢定成績 2 級以上；一般組：TOEFL iBT 79 (不接受 Home Edition) 或 IELTS 6.0,醫學院,日語組全學年1名；一般組全學年1名,該校年曆請參考此連結,須在本校註冊並繳交全額學雜費，免繳該校學費，但該校雜費、住宿費、生活費、保險費、往返機票費等均須自行負擔,保證住宿，住宿資訊請參考此連結,交換學校一覽表所列之語言能力為該校之最低門檻要求，同學需自行確認語言能力是否符合該校修課要求、查詢是否有足夠的課程可供選讀、能否達到該校之每學期修課學分數要求、以及是否具備相關領域之背景知識，若未達標準，該校有權拒收,,26.2493768
31,東京學藝大學,Tokyo Gakugei University (TGU),日本,Japan,https://oia.ntu.edu.tw/outgoing/view/semester/1/sn/31,是,日語組/一般組,無,大二以上/碩一以上(不含博士生)學生,日語組：具日文檢定成績 2 級以上；一般組：TOEFL iBT 79 (不接受 Home Edition) 或 IELTS 6.0,無,日語組全學年1名；一般組全學年1名,Fall semester: October - March；Spring semester: April - September,須在本校註冊並繳交全額學雜費，免繳該校學費，但該校雜費、住宿費、生活費、保險費、往返機票費等均須自行負擔,保證住宿（非校內），住宿資訊請參考此連結。,交換學校一覽表所列之語言能力為該校之最低門檻要求，同學需自行確認語言能力是否符合該校修課要求、查詢是否有足夠的課程可供選讀、能否達到該校之每學期修課學分數要求、以及是否具備相關領域之背景知識，若未達標準，該校有權拒收,,35.7062778
30,九州大學,Kyushu University,日本,Japan,https://oia.ntu.edu.tw/outgoing/view/semester/1/sn/30,否,日語組/一般組,GPA 達3.70分以上,大二以上/碩一以上/博一以上學生,日語組：具日文檢定成績 1 級以上；一般組：TOEFL iBT 79 (接受 Home Edition) 或 IELTS 6.0,醫學院、管理學院,日語組全學年1名；一般組全學年1名,Spring Semester: April - September；Fall Semester: October - March,須在本校註冊並繳交全額學雜費，免繳該校學費，但該校雜費、住宿費、生活費、保險費、往返機票費等均須自行負擔,保證住宿，住宿資訊請參考此連結。,交換學校一覽表所列之語言能力為該校之最低門檻要求，同學需自行確認語言能力是否符合該校修課要求、查詢是否有足夠的課程可供選讀、能否達到該校之每學期修課學分數要求、以及是否具備相關領域之背景知識，若未達標準，該校有權拒收,,33.6707768
28,慶應義塾大學,Keio University,日本,Japan,https://oia.ntu.edu.tw/outgoing/view/semester/1/sn/28,否,日語組/一般組,GPA 達3.70分以上,大二以上/碩一以上/博一以上學生,日語組：具日文檢定成績 1 級以上；一般組：TOEFL iBT 79 (接受 Home Edition) 或 IELTS 6.0,體育課程、師資培訓課程、醫學院、外語課程、商學院,日語組全學年1名；一般組全學年1名,Fall Semester: September - February；Spring Semester: March - July,須在本校註冊並繳交全額學雜費，免繳該校學費，但該校雜費、住宿費、生活費、保險費、往返機票費等均須自行負擔,不保證住宿，住宿資訊請參考此連結。,交換學校一覽表所列之語言能力為該校之最低門檻要求，同學需自行確認語言能力是否符合該校修課要求、查詢是否有足夠的課程可供選讀、能否達到該校之每學期修課學分數要求、以及是否具備相關領域之背景知識，若未達標準，該校有權拒收,,35.5538163
29,東北大學,Tohoku University,日本,Japan,https://oia.ntu.edu.tw/outgoing/view/semester/1/sn/29,否,日語組/一般組,GPA 達3.30分以上,日語組：大二/大三學生；一般組：大二/大三/碩一以上(不含博士生)學生,日語組：具日文檢定成績 1 級以上；一般組：TOEFL iBT 79 (不接受 Home Edition) 或 IELTS 6.0,無,日語組全學年1名；一般組全學年1名,Fall Semester: October - March；Spring Semester: April - September,須在本校註冊並繳交全額學雜費，免繳該校學費，但該校雜費、住宿費、生活費、保險費、往返機票費等均須自行負擔,保證住宿，住宿資訊請參考此連結。,交換學校一覽表所列之語言能力為該校之最低門檻要求，同學需自行確認語言能力是否符合該校修課要求、查詢是否有足夠的課程可供選讀、能否達到該校之每學期修課學分數要求、以及是否具備相關領域之背景知識，若未達標準，該校有權拒收,,38.2603556
26,御茶水女子大學,Ochanomizu University,日本,Japan,https://oia.ntu.edu.tw/outgoing/view/semester/1/sn/26,是,日語組,無,大二以上/碩一以上/博一以上學生,具日文檢定成績 2 級以上,部分語言課程,全學年1名,Fall Semester: October - March；Spring Semester: April - September,須在本校註冊並繳交全額學雜費，免繳該校學費，但該校雜費、住宿費、生活費、保險費、往返機票費等均須自行負擔,保證住宿，住宿資訊請參考此連結,交換學校一覽表所列之語言能力為該校之最低門檻要求，同學需自行確認語言能力是否符合該校修課要求、查詢是否有足夠的課程可供選讀、能否達到該校之每學期修課學分數要求、以及是否具備相關領域之背景知識，若未達標準，該校有權拒收,,35.7187419
27,東京外國語大學,Tokyo University of Foreign Studies (TUFS),日本,Japan,https://oia.ntu.edu.tw/outgoing/view/semester/1/sn/27,是,日語組/一般組,無,大二以上/碩一以上(不含博士生)學生,日語組：具日文檢定成績 1 級以上；一般組：TOEFL iBT 79 (接受 Home Edition) 或 IELTS 6.0 或 全民英檢中高級,博士班課程、碩士班和平與衝突研究課程,日語組全學年1名；一般組全學年1名,Fall Quarter: October - January；Spring Quarter: April - July,須在本校註冊並繳交全額學雜費，免繳該校學費，但該校雜費、住宿費、生活費、保險費、往返機票費等均須自行負擔,不保證住宿，請參考住宿資訊。,交換學校一覽表所列之語言能力為該校之最低門檻要求，同學需自行確認語言能力是否符合該校修課要求、查詢是否有足夠的課程可供選讀、能否達到該校之每學期修課學分數要求、以及是否具備相關領域之背景知識，若未達標準，該校有權拒收,,35.6741728
23,明治大學,Meiji University,日本,Japan,https://oia.ntu.edu.tw/outgoing/view/semester/1/sn/23,是,日語組,無,大二以上/碩一以上(不含博士生)學生,具日文檢定成績 1 級以上,無,全學年1名,Fall Semester: September - February；Spring Semester: March - July,須在本校註冊並繳交全額學雜費，免繳該校學費，但該校雜費、住宿費、生活費、保險費、往返機票費等均須自行負擔,不保證住宿，住宿資訊請參考此連結,交換學校一覽表所列之語言能力為該校之最低門檻要求，同學需自行確認語言能力是否符合該校修課要求、查詢是否有足夠的課程可供選讀、能否達到該校之每學期修課學分數要求、以及是否具備相關領域之背景知識，若未達標準，該校有權拒收,,35.6975029
24,早稻田大學,Waseda University,日本,Japan,https://oia.ntu.edu.tw/outgoing/view/semester/1/sn/24,否,日語組/一般組,日語組：GPA 達3.70分以上；一般組：GPA 達3.30分以上,大二以上/碩一以上/博一以上學生,日語組：具日文檢定成績 1 級以上；一般組：TOEFL iBT 95 (接受 Home Edition) 或 IELTS 7.0,法律學院,日語組一學期1名；一般組全學年1名,Fall Semester: September - February；Spring Semester: April - July,須在本校註冊並繳交全額學雜費，免繳該校學費，但該校雜費、住宿費、生活費、保險費、往返機票費等均須自行負擔,不保證住宿，住宿資訊請參考此連結。,交換學校一覽表所列之語言能力為該校之最低門檻要求，同學需自行確認語言能力是否符合該校修課要求、查詢是否有足夠的課程可供選讀、能否達到該校之每學期修課學分數要求、以及是否具備相關領域之背景知識，若未達標準，該校有權拒收,,35.7091798
25,創價大學,Soka University,日本,Japan,https://oia.ntu.edu.tw/outgoing/view/semester/1/sn/25,是,日語組,無,大二/大三學生,具日文檢定成績 2 級以上,醫學院護理學系,全學年1名,Fall Semester: September - January；Spring Semester: April - July,須在本校註冊並繳交全額學雜費，免繳該校學費，但該校雜費、住宿費、生活費、保險費、往返機票費等均須自行負擔,保證住宿，住宿資訊請參考此連結。,交換學校一覽表所列之語言能力為該校之最低門檻要求，同學需自行確認語言能力是否符合該校修課要求、查詢是否有足夠的課程可供選讀、能否達到該校之每學期修課學分數要求、以及是否具備相關領域之背景知識，若未達標準，該校有權拒收,,35.6899879
1296,國立慶北大學,Kyungpook National University,南韓,South Korea,https://oia.ntu.edu.tw/outgoing/view/semester/1/sn/1296,是,韓語組,GPA 達3.30分以上,大二以上/碩一以上(不含博士生)學生,TOEFL iBT 88 (不接受 Home Edition) 或 IELTS 6.5；或具韓語檢定(TOPIK)成績 5 級以上,醫學院、法律學院,全學年2名,Fall Semester: September - December；Spring Semester: March - June,須在本校註冊並繳交全額學雜費，免繳該校學費，但該校雜費、住宿費、生活費、保險費、往返機票費等均須自行負擔,不保證住宿，住宿資訊請參考以下網頁,交換學校一覽表所列之語言能力等規定為該校之最低門檻，同學需自行確認最新資訊，如語言能力及成績是否符合該校要求、查詢是否有足夠的課程可供選讀、能否達到該校之每學期修課學分數要求、以及是否具備相關領域之背景知識等，若未達標準，該校有權拒收。,,35.8905697
821,慶熙大學,Kyung Hee University,南韓,South Korea,https://oia.ntu.edu.tw/outgoing/view/semester/1/sn/821,是,韓語組,GPA 達3.30分以上,大二/大三學生,TOEFL iBT 82 (不接受 Home Edition) 或 IELTS 6.5；或具韓語檢定(TOPIK)成績 5 級以上,醫學院、韓醫學系、藥學系、牙醫學系、護理學系、法律學院、體育學系、舞蹈學系、音樂學系,全學年1名,Fall: 2024.09.01 - 2024.12.23；Spring: 2025.03.02 - 2025.06.23,須在本校註冊並繳交全額學雜費，免繳該校學費，但該校雜費、住宿費、生活費、保險費、往返機票費等均須自行負擔,不保證住宿，住宿資訊請參考以下網頁,交換學校一覽表所列之語言能力等規定為該校之最低門檻，同學需自行確認最新資訊，如語言能力及成績是否符合該校要求、查詢是否有足夠的課程可供選讀、能否達到該校之每學期修課學分數要求、以及是否具備相關領域之背景知識等，若未達標準，該校有權拒收。,,37.5971213
188,韓國科學技術院,Korea Advanced Institute of Science and Technology (KAIST),南韓,South Korea,https://oia.ntu.edu.tw/outgoing/view/semester/1/sn/188,是,韓語組,GPA 達3.00分以上,大二以上/碩一以上(不含博士生)學生,TOEFL iBT 80 (不接受 Home Edition) 或 IELTS 6.5 或 全民英檢中高級,醫學科學與工程研究所、首爾校區科系,一學期1名,Fall Semester: August - December；Spring Semester: March - June,須在本校註冊並繳交全額學雜費，免繳該校學費，但該校雜費、住宿費、生活費、保險費、往返機票費等均須自行負擔,保證住宿，住宿資訊請參考此連結,交換學校一覽表所列之語言能力等規定為該校之最低門檻，同學需自行確認最新資訊，如語言能力及成績是否符合該校要求、查詢是否有足夠的課程可供選讀、能否達到該校之每學期修課學分數要求、以及是否具備相關領域之背景知識等，若未達標準，該校有權拒收。,,36.3698812
310,延世大學,Yonsei University,南韓,South Korea,https://oia.ntu.edu.tw/outgoing/view/semester/1/sn/310,是,韓語組,GPA 達3.00分以上,大二/大三/大四學生,TOEFL iBT 79 (接受 Home Edition) 或 IELTS 6.5；或具韓語檢定(TOPIK)成績 4 級以上；或具韓語檢定(KLAT)成績 4 級以上,醫學院、牙醫學系、藥學系、護理學系、音樂學系、MBA、法律學院,一學期1名,Fall Semester: September - December；Spring Semester: March - June,須在本校註冊並繳交全額學雜費，免繳該校學費，但該校雜費、住宿費、生活費、保險費、往返機票費等均須自行負擔,不保證住宿，請參考住宿資訊。,交換學校一覽表所列之語言能力等規定為該校之最低門檻，同學需自行確認最新資訊，如語言能力及成績是否符合該校要求、查詢是否有足夠的課程可供選讀、能否達到該校之每學期修課學分數要求、以及是否具備相關領域之背景知識等，若未達標準，該校有權拒收。,,37.5678071
961,高麗大學,Korea University,南韓,South Korea,https://oia.ntu.edu.tw/outgoing/view/semester/1/sn/961,是,韓語組,GPA 達2.70分以上,大二/大三/大四學生,TOEFL iBT 79 (不接受 Home Edition) 或 IELTS 6.0；或具韓語檢定(TOPIK)成績 4 級以上,醫學系、護理學系、藥學系、法律系、師範教育、資訊安全學系、藝術與設計學系、商業研究所課程及世宗校區所有課程,一學期1名,Fall semester: September - December；Spring semester: March - June,須在本校註冊並繳交全額學雜費，免繳該校學費，但該校雜費、住宿費、生活費、保險費、往返機票費等均須自行負擔,不保證住宿，住宿資訊請參考此連結。,交換學校一覽表所列之語言能力等規定為該校之最低門檻，同學需自行確認最新資訊，如語言能力及成績是否符合該校要求、查詢是否有足夠的課程可供選讀、能否達到該校之每學期修課學分數要求、以及是否具備相關領域之背景知識等，若未達標準，該校有權拒收。,,36.6108894
433,國立釜山大學,Pusan National University,南韓,South Korea,https://oia.ntu.edu.tw/outgoing/view/semester/1/sn/433,是,韓語組,無,大二/大三/碩二以上(不含博士生)學生,TOEFL iBT 79 (接受 Home Edition) 或 IELTS 6.0 或 全民英檢中高級；或具韓語檢定(TOPIK)成績 3 級以上,牙醫學系、醫學系、韓醫學系、護理學系、法律學院,全學年1名,該校年曆請參考此連結,須在本校註冊並繳交全額學雜費，免繳該校學費，但該校雜費、住宿費、生活費、保險費、往返機票費等均須自行負擔,保證住宿。,交換學校一覽表所列之語言能力等規定為該校之最低門檻，同學需自行確認最新資訊，如語言能力及成績是否符合該校要求、查詢是否有足夠的課程可供選讀、能否達到該校之每學期修課學分數要求、以及是否具備相關領域之背景知識等，若未達標準，該校有權拒收。,,35.2343498
362,成均館大學,Sungkyunkwan University,南韓,South Korea,https://oia.ntu.edu.tw/outgoing/view/semester/1/sn/362,是,韓語組,GPA 達2.70分以上,大二以上/碩一以上(不含博士生)學生,TOEFL iBT 80 (不接受 Home Edition) 或 IELTS 6.0；或具韓語檢定(TOPIK)成績 3 級以上,醫學院、藥學系、藝術學院、全球領導學程、法律學系,全學年0名,2024 Spring Semester: March 1 st ~ June 21st 2024；2024 Fall Semester: September 1 st ~ December 20th 2024,須在本校註冊並繳交全額學雜費，免繳該校學費，但該校雜費、住宿費、生活費、保險費、往返機票費等均須自行負擔,不保證住宿，住宿資訊請參考此連結,交換學校一覽表所列之語言能力等規定為該校之最低門檻，同學需自行確認最新資訊，如語言能力及成績是否符合該校要求、查詢是否有足夠的課程可供選讀、能否達到該校之每學期修課學分數要求、以及是否具備相關領域之背景知識等，若未達標準，該校有權拒收。,,37.3003187
361,梨花女子大學,Ewha Womans University,南韓,South Korea,https://oia.ntu.edu.tw/outgoing/view/semester/1/sn/361,是,韓語組,GPA 達3.30分以上,大二以上/碩一以上(不含博士生)學生,TOEFL iBT 79 (不接受 Home Edition) 或 IELTS 6.0；或具韓語檢定(TOPIK)成績 3 級以上,護理學系、醫學系、藥學系,全學年2名,Fall Semester: September - December；Spring Semester: March - June,須在本校註冊並繳交全額學雜費，免繳該校學費，但該校雜費、住宿費、生活費、保險費、往返機票費等均須自行負擔,不保證住宿，住宿資訊請參考此連結。,交換學校一覽表所列之語言能力等規定為該校之最低門檻，同學需自行確認最新資訊，如語言能力及成績是否符合該校要求、查詢是否有足夠的課程可供選讀、能否達到該校之每學期修課學分數要求、以及是否具備相關領域之背景知識等，若未達標準，該校有權拒收。,,37.5643371
378,漢陽大學,Hanyang University,南韓,South Korea,https://oia.ntu.edu.tw/outgoing/view/semester/1/sn/378,是,韓語組,GPA 達2.70分以上,大二以上(僅限大學部)學生,TOEFL iBT 79 (不接受 Home Edition) 或 IELTS 6.0；或具韓語檢定(TOPIK)成績 3 級以上,醫學院、工業融合學院、數據科學系、護理學院、藥學院、應用音樂學系、舞蹈與表演藝術學系、會計與稅務學系、精算學系、智能ICT融合系、綜合工程學系、材料融合工程學系、機器人與融合學系、建築IT融合工程學系,一學期1名,Fall Semester: September - December；Spring Semester: March - June,須在本校註冊並繳交全額學雜費，免繳該校學費，但該校雜費、住宿費、生活費、保險費、往返機票費等均須自行負擔,不保證住宿，住宿資訊請參考此連結。,交換學校一覽表所列之語言能力等規定為該校之最低門檻，同學需自行確認最新資訊，如語言能力及成績是否符合該校要求、查詢是否有足夠的課程可供選讀、能否達到該校之每學期修課學分數要求、以及是否具備相關領域之背景知識等，若未達標準，該校有權拒收。,,37.5557274
40,順天國立大學,Sunchon National University,南韓,South Korea,https://oia.ntu.edu.tw/outgoing/view/semester/1/sn/40,是,韓語組,無,大二/大三/大四/碩二以上(不含博士生)學生,TOEFL iBT 79 (不接受 Home Edition) 或 IELTS 6.0 或 全民英檢高級；或具韓語檢定(TOPIK)成績 3 級以上；或具韓語檢定(KLAT)成績 3 級以上,醫學院,全學年2名,Fall Semester: September - January；Spring Semester: March - June,須在本校註冊並繳交全額學雜費，免繳該校學費，但該校雜費、住宿費、生活費、保險費、往返機票費等均須自行負擔,保證住宿，住宿資訊請參考此連結。,交換學校一覽表所列之語言能力等規定為該校之最低門檻，同學需自行確認最新資訊，如語言能力及成績是否符合該校要求、查詢是否有足夠的課程可供選讀、能否達到該校之每學期修課學分數要求、以及是否具備相關領域之背景知識等，若未達標準，該校有權拒收。,,34.9681989
41,浦項工科大學,Pohang University of Science and Technology (POSTECH),南韓,South Korea,https://oia.ntu.edu.tw/outgoing/view/semester/1/sn/41,是,韓語組,GPA 達3.00分以上,大二以上/碩一以上/博一以上學生,TOEFL iBT 79 (接受 Home Edition) 或 IELTS 6.0；或具韓語檢定(TOPIK)成績 3 級以上；或具韓語檢定(KLAT)成績 3 級以上,人文社會科學系、半導體工程學系,一學期1名,該校年曆請參考此連結,須在本校註冊並繳交全額學雜費，免繳該校學費，但該校雜費、住宿費、生活費、保險費、往返機票費等均須自行負擔,保證住宿，住宿資訊請參考此連結。,交換學校一覽表所列之語言能力等規定為該校之最低門檻，同學需自行確認最新資訊，如語言能力及成績是否符合該校要求、查詢是否有足夠的課程可供選讀、能否達到該校之每學期修課學分數要求、以及是否具備相關領域之背景知識等，若未達標準，該校有權拒收。,,36.0180795
39,首爾國立大學,Seoul National University,南韓,South Korea,https://oia.ntu.edu.tw/outgoing/view/semester/1/sn/39,是,韓語組,學士生 GPA 達3.00分以上；研究生 GPA 達3.30分以上,大二以上/碩一以上/博一以上學生,學士生 TOEFL iBT 88 (接受 Home Edition) 或 IELTS 6.0；研究生 TOEFL iBT 88 (接受 Home Edition) 或 IELTS 6.0；或學士生/研究生具韓語檢定(TOPIK)成績 5 級以上,醫學系、藥學系、牙醫學系、護理學系、音樂學院、美術學院、MBA,一學期1名,Fall Semester: September - December；Spring Semester: March - June,須在本校註冊並繳交全額學雜費，免繳該校學費，但該校雜費、住宿費、生活費、保險費、往返機票費等均須自行負擔,不保證住宿，請參考住宿資訊。,交換學校一覽表所列之語言能力等規定為該校之最低門檻，同學需自行確認最新資訊，如語言能力及成績是否符合該校要求、查詢是否有足夠的課程可供選讀、能否達到該校之每學期修課學分數要求、以及是否具備相關領域之背景知識等，若未達標準，該校有權拒收。,,37.4668979
1001,澳門大學,University of Macau,澳門,Macau,https://oia.ntu.edu.tw/outgoing/view/semester/1/sn/1001,是,一般組,無,大二/大三學生,TOEFL iBT 79 (不接受 Home Edition) 或 IELTS 6.0,通識教育課程、實習和畢業專題課程、法律學院,全學年1名,該校年曆請參考此連結,須在本校註冊並繳交全額學雜費，免繳該校學費，但該校雜費、住宿費、生活費、保險費、往返機票費等均須自行負擔,保證住宿，請自行參考姊妹校提供之住宿資訊。,交換學校一覽表所列之語言能力為該校之最低門檻要求，同學需自行確認語言能力是否符合該校修課要求、查詢是否有足夠的課程可供選讀、能否達到該校之每學期修課學分數要求、以及是否具備相關領域之背景知識，若未達標準，該校有權拒收。,,22.1283648
912,武漢理工大學,Wuhan University of Technology,中國,China,https://oia.ntu.edu.tw/outgoing/view/semester/1/sn/912,是,中語組,GPA 達3.00分以上,大二/碩一(不含博士生)學生,無,無,全學年0名,第一學期：9月入學；第二學期：2月入學,須在本校註冊並繳交全額學雜費，免繳該校學費，但該校雜費、住宿費、生活費、保險費、往返機票費等均須自行負擔,該校將替同學安排校內宿舍床位,請留意，該校表示因無法評估未來疫情之影響，即使提供交換名額予本校，仍有可能會臨時取消交換學生計畫。,,30.608988
922,北京航空航天大學,Beihang University,中國,China,https://oia.ntu.edu.tw/outgoing/view/semester/1/sn/922,是,中語組,無,大二以上/碩一以上(不含博士生)學生,無,無,全學年0名,該校校曆請參考此連結,須在本校註冊並繳交全額學雜費，免繳該校學費，但該校雜費、住宿費、生活費、保險費、往返機票費等均須自行負擔,保證住宿，由姊妹校安排。,請留意，該校表示因無法評估未來疫情之影響，即使提供交換名額予本校，仍有可能會臨時取消交換學生計畫。,,39.9809427
831,貴州大學,Guizhou University,中國,China,https://oia.ntu.edu.tw/outgoing/view/semester/1/sn/831,是,中語組,GPA 達3.00分以上,大二/大三/碩一/碩二/博一/博二學生,無,無,一學期0名,秋季学期2024.09-2025.01；春季学期2025.03-2025.07,須在本校註冊並繳交全額學雜費，免繳該校學費，但該校雜費、住宿費、生活費、保險費、往返機票費等均須自行負擔,保證住宿，由校方安排，住宿相關資訊，請參考此連結。,請留意，該校表示因無法評估未來疫情之影響，即使提供交換名額予本校，仍有可能會臨時取消交換學生計畫。,,26.4495922
894,華中科技大學,Huazhong University of Science and Technology,中國,China,https://oia.ntu.edu.tw/outgoing/view/semester/1/sn/894,是,中語組,GPA 達3.30分以上,大二/大三/大四/碩一/碩二(不含博士生)學生,無,無,一學期2名,第一學期：8月到1月；第二學期：2月到7月,須在本校註冊並繳交全額學雜費，免繳該校學費，但該校雜費、住宿費、生活費、保險費、往返機票費等均須自行負擔,校內住宿，本科宿舍為標準四人間配備,請留意，該校表示因無法評估未來疫情之影響，即使提供交換名額予本校，仍有可能會臨時取消交換學生計畫。另，陸港澳地區調升為橙色旅遊警示，請欲選擇至該校交換的同學留意。,,30.5202172
901,東南大學,Southeast University,中國,China,https://oia.ntu.edu.tw/outgoing/view/semester/1/sn/901,是,中語組,無,大二/碩一/碩二(不含博士生)學生,無,建築學院僅接受建築學、城市規劃、城市設計、景觀建築等建築相關學系學生，且累積成績排名須為專業前50%,一學期0名,第一學期：9月至農曆年前；第二學期：2月中至6月中,須在本校註冊並繳交全額學雜費，免繳該校學費，但該校雜費、住宿費、生活費、保險費、往返機票費等均須自行負擔,學生可入住東南大學學生公寓，分佈於三個校區，規格不同，雙人間(專為海外學生準備)每學期2400-4500元/床不等；四人間(學生宿舍)每學期900-1200元/床不等,請留意，該校表示因無法評估未來疫情之影響，即使提供交換名額予本校，仍有可能會臨時取消交換學生計畫。另，陸港澳地區調升為橙色旅遊警示，請欲選擇至該校交換的同學留意。,,32.0576478
593,武漢大學,Wuhan University,中國,China,https://oia.ntu.edu.tw/outgoing/view/semester/1/sn/593,是,中語組,GPA 達3.30分以上,大二/大三/碩一/碩二(不含博士生)學生,無,小語種專業(如阿拉伯語等),一學期0名,第一學期：9月至次年1月；第二學期：2月至7月,須在本校註冊並繳交全額學雜費，免繳該校學費，但該校雜費、住宿費、生活費、保險費、往返機票費等均須自行負擔,保證住宿，由校方安排校内住宿。一学期费用1000元（人民币）左右,請留意，該校表示因無法評估未來疫情之影響，即使提供交換名額予本校，仍有可能會臨時取消交換學生計畫。另，陸港澳地區調升為橙色旅遊警示，請欲選擇至該校交換的同學留意。,,30.5373581
792,內蒙古大學,Inner Mongolia University,中國,China,https://oia.ntu.edu.tw/outgoing/view/semester/1/sn/792,是,中語組,無,大二以上/碩一以上(不含博士生)學生,無,一學期0名,第一學期：三月至七月；第二學期：九月至一月,須在本校註冊並繳交全額學雜費，免繳該校學費，但該校雜費、住宿費、生活費、保險費、往返機票費等均須自行負擔,保證提供宿舍，於申請時一併提出住宿申請，到校後由校方直接分配,請留意，該校表示因無法評估未來疫情之影響，即使提供交換名額予本校，仍有可能會臨時取消交換學生計畫。另，陸港澳地區調升為橙色旅遊警示，請欲選擇至該校交換的同學留意。,,,40.7564203
793,北京師範大學,Beijing Normal University,中國,China,https://oia.ntu.edu.tw/outgoing/view/semester/1/sn/793,是,中語組,GPA 達3.30分以上,大二/碩一/碩二/博一/博二學生,無,瀚德學院、漢語文化學院,全學年5名,該校年曆請參考北京师范大学校历,須在本校註冊並繳交全額學雜費，免繳該校學費，但該校雜費、住宿費、生活費、保險費、往返機票費等均須自行負擔,由校方安排，更多資訊請參考宿舍介绍,請留意，該校表示因無法評估未來疫情之影響，即使提供交換名額予本校，仍有可能會臨時取消交換學生計畫。另，陸港澳地區調升為橙色旅遊警示，請欲選擇至該校交換的同學留意。,,39.959763
795,四川大學,Sichuan University,中國,China,https://oia.ntu.edu.tw/outgoing/view/semester/1/sn/795,是,中語組,GPA 達3.00分以上,大二/碩一/碩二(不含博士生)學生,無,無,一學期0名,該校年曆請參考此連結,須在本校註冊並繳交全額學雜費，免繳該校學費，但該校雜費、住宿費、生活費、保險費、往返機票費等均須自行負擔,保證住宿，由校方安排。,請留意，該校表示因無法評估未來疫情之影響，即使提供交換名額予本校，仍有可能會臨時取消交換學生計畫。另，陸港澳地區調升為橙色旅遊警示，請欲選擇至該校交換的同學留意。,,30.5601863
797,天津大學,Tianjin University,中國,China,https://oia.ntu.edu.tw/outgoing/view/semester/1/sn/797,是,中語組,無,大二以上(僅限大學部)學生,無,無,一學期0名,第一學期：8月至1月；第二學期：2月至8月,須在本校註冊並繳交全額學雜費，免繳該校學費，但該校雜費、住宿費、生活費、保險費、往返機票費等均須自行負擔,不保證住宿，可向校方申請。,請留意，該校表示因無法評估未來疫情之影響，即使提供交換名額予本校，仍有可能會臨時取消交換學生計畫。另，陸港澳地區調升為橙色旅遊警示，請欲選擇至該校交換的同學留意。,,39.1072533
801,重慶大學,Chongqing University,中國,China,https://oia.ntu.edu.tw/outgoing/view/semester/1/sn/801,是,中語組,無,大二以上/碩一以上/博一以上學生,無,無,全學年3名,第一學期：9月至1月；第二學期：2月至7月,須在本校註冊並繳交全額學雜費，免繳該校學費，但該校雜費、住宿費、生活費、保險費、往返機票費等均須自行負擔,由校方安排，請參考住宿及生活设施,請留意，該校表示因無法評估未來疫情之影響，即使提供交換名額予本校，仍有可能會臨時取消交換學生計畫。另，陸港澳地區調升為橙色旅遊警示，請欲選擇至該校交換的同學留意。,,29.5699864
819,蘭州大學,Lanzhou University,中國,China,https://oia.ntu.edu.tw/outgoing/view/semester/1/sn/819,是,中語組,GPA 達3.00分以上,大二/碩一/碩二(不含博士生)學生,無,藝術學院、萃英學院、外國語學院、外國語文學系及研究所、戲劇學系及研究所、藝術史研究所、音樂學研究所,一學期0名,秋季學期：9月至1月；春季學期：2月至7月,須在本校註冊並繳交全額學雜費，免繳該校學費，但該校雜費、住宿費、生活費、保險費、往返機票費等均須自行負擔,保證住宿，由校方安排。,請留意，該校表示因無法評估未來疫情之影響，即使提供交換名額予本校，仍有可能會臨時取消交換學生計畫。另，陸港澳地區調升為橙色旅遊警示，請欲選擇至該校交換的同學留意。,,36.0504988
416,西安交通大學,Xi'an Jiaotong University,中國,China,https://oia.ntu.edu.tw/outgoing/view/semester/1/sn/416,是,中語組,GPA 達3.00分以上,大二學生,無,外國語專業課程、實驗課程、小學期課程、醫學專業,一學期0名,該校年曆請參考此連結,須在本校註冊並繳交全額學雜費，免繳該校學費，但該校雜費、住宿費、生活費、保險費、往返機票費等均須自行負擔,保證住宿，由校方安排。,請留意，該校表示因無法評估未來疫情之影響，即使提供交換名額予本校，仍有可能會臨時取消交換學生計畫。另，陸港澳地區調升為橙色旅遊警示，請欲選擇至該校交換的同學留意。,,31.2757194
422,哈爾濱工業大學,Harbin Institute of Technology,中國,China,https://oia.ntu.edu.tw/outgoing/view/semester/1/sn/422,是,中語組,無,大二以上/碩一以上/博一以上學生,無,無,一學期0名,秋季學期：9月-1月；春季學期：2月中-6月,須在本校註冊並繳交全額學雜費，免繳該校學費，但該校雜費、住宿費、生活費、保險費、往返機票費等均須自行負擔,保障住宿，由校方統一安排,請留意，該校表示因無法評估未來疫情之影響，即使提供交換名額予本校，仍有可能會臨時取消交換學生計畫。另，陸港澳地區調升為橙色旅遊警示，請欲選擇至該校交換的同學留意。,,45.741589
596,大連理工大學,Dalian University of Technology,中國,China,https://oia.ntu.edu.tw/outgoing/view/semester/1/sn/596,是,中語組,無,大二以上/碩一以上(不含博士生)學生,無,無,一學期0名,該校校曆請參考此連結,須在本校註冊並繳交全額學雜費，免繳該校學費，但該校雜費、住宿費、生活費、保險費、往返機票費等均須自行負擔,保證住宿，由校方安排。,請留意，該校表示因無法評估未來疫情之影響，即使提供交換名額予本校，仍有可能會臨時取消交換學生計畫。另，陸港澳地區調升為橙色旅遊警示，請欲選擇至該校交換的同學留意。,,38.8812564
47,廈門大學,Xiamen University,中國,China,https://oia.ntu.edu.tw/outgoing/view/semester/1/sn/47,是,中語組,無,大二/大三/碩一以上(不含博士生)學生,無,無,全學年5名,第1學期：9月中旬至1月中旬；第2學期：2月中旬至6月中旬,須在本校註冊並繳交全額學雜費，免繳該校學費，但該校雜費、住宿費、生活費、保險費、往返機票費等均須自行負擔,由校方安排,請留意，該校表示因無法評估未來疫情之影響，即使提供交換名額予本校，仍有可能會臨時取消交換學生計畫。另，陸港澳地區調升為橙色旅遊警示，請欲選擇至該校交換的同學留意。,,24.4399419
48,上海交通大學,Shanghai Jiao Tong University,中國,China,https://oia.ntu.edu.tw/outgoing/view/semester/1/sn/48,是,中語組,GPA 達3.30分以上,大二/大三/碩一/碩二(不含博士生)學生,無,醫學院、高級金融學院、醫學院、智慧能源創新學院等,一學期1名,該校年曆請參考教学校历,須在本校註冊並繳交全額學雜費，免繳該校學費，但該校雜費、住宿費、生活費、保險費、往返機票費等均須自行負擔,港澳臺生統一由該校安排入住閔行校區，住宿費約為人民幣600元 / 學期。,請留意，該校表示因無法評估未來疫情之影響，即使提供交換名額予本校，仍有可能會臨時取消交換學生計畫。另，陸港澳地區調升為橙色旅遊警示，請欲選擇至該校交換的同學留意。,,31.2008912
49,山東大學,Shandong University,中國,China,https://oia.ntu.edu.tw/outgoing/view/semester/1/sn/49,是,中語組,GPA 達2.70分以上,大二以上/碩一以上(不含博士生)學生,無,醫學類課程,一學期0名,Fall: 2023.09-2024.01；Spring: 2024.02-2024.07,須在本校註冊並繳交全額學雜費，免繳該校學費，但該校雜費、住宿費、生活費、保險費、往返機票費等均須自行負擔,保證住宿，開學前線上申請。,請留意，該校表示因無法評估未來疫情之影響，即使提供交換名額予本校，仍有可能會臨時取消交換學生計畫。另，陸港澳地區調升為橙色旅遊警示，請欲選擇至該校交換的同學留意。,,36.3655393
50,南京大學,Nanjing University,中國,China,https://oia.ntu.edu.tw/outgoing/view/semester/1/sn/50,是,中語組,GPA 達3.30分以上,大二/大三/碩一以上/博一以上學生,無,無,全學年5名,第一學期：9月 至 1月；第二學期：2月 至 6月,須在本校註冊並繳交全額學雜費，免繳該校學費，但該校雜費、住宿費、生活費、保險費、往返機票費等均須自行負擔,由校方安排。每間宿舍2-4人，根據當年入住情況安排。,請留意，該校表示因無法評估未來疫情之影響，即使提供交換名額予本校，仍有可能會臨時取消交換學生計畫。另，陸港澳地區調升為橙色旅遊警示，請欲選擇至該校交換的同學留意。,,32.0565957
51,清華大學,Tsinghua University,中國,China,https://oia.ntu.edu.tw/outgoing/view/semester/1/sn/51,是,中語組,GPA 達3.44分以上,大二/大三學生,無,經營學院MBA / EMBA課程、蘇世民學院、醫學院臨床醫學課程、部分學院高收費封閉式課程,一學期1名,秋季學期：8月至1月；春季學期：2月至6月,須在本校註冊並繳交全額學雜費，免繳該校學費，但該校雜費、住宿費、生活費、保險費、往返機票費等均須自行負擔,校内交换生统一住在校内本地学生的公寓楼中，一般为四人间。,請留意，該校表示因無法評估未來疫情之影響，即使提供交換名額予本校，仍有可能會臨時取消交換學生計畫。另，陸港澳地區調升為橙色旅遊警示，請欲選擇至該校交換的同學留意。,,40.0022905
52,浙江大學,Zhejiang Univeristy,中國,China,https://oia.ntu.edu.tw/outgoing/view/semester/1/sn/52,是,中語組,無,大二學生,無,醫學專業,一學期0名,第一學期：約9月~1月；第二學期：約2月~6月,須在本校註冊並繳交全額學雜費，免繳該校學費，但該校雜費、住宿費、生活費、保險費、往返機票費等均須自行負擔,住宿費 1280 元/年或 1600 元/年(根據宿舍情況安排), 4 人間,['請留意，該校表示因無法評估未來疫情之影響，即使提供交換名額予本校，仍有可能會臨時取消交換學生計畫。另，陸港澳地區調升為橙色旅遊警示，請欲選擇至該校交換的同學留意。'],
53,中國科學技術大學,University of Science and Technology of China,中國,China,https://oia.ntu.edu.tw/outgoing/view/semester/1/sn/53,是,中語組,GPA 達3.30分以上,大二/大三學生,無,無,全學年2名,第一學期：9月至1月；第二學期：2月至7月,須在本校註冊並繳交全額學雜費，免繳該校學費，但該校雜費、住宿費、生活費、保險費、往返機票費等均須自行負擔,盡力安排學生校內住宿,請留意，該校表示因無法評估未來疫情之影響，即使提供交換名額予本校，仍有可能會臨時取消交換學生計畫。另，陸港澳地區調升為橙色旅遊警示，請欲選擇至該校交換的同學留意。,,31.839072
54,復旦大學,Fudan University,中國,China,https://oia.ntu.edu.tw/outgoing/view/semester/1/sn/54,是,中語組,GPA 達3.30分以上,大二/大三/碩一/碩二(不含博士生)學生,無,管理學院、社會科學院經濟學研究所、外文學院小語種專業(不接受大三以上交換生)、標記有“专业学位”的專業、泛海國際金融學院(每學期至多接收 5 名本科交換生),一學期3名,第一學期：8月至1月；第二學期：2月至6月,須在本校註冊並繳交全額學雜費，免繳該校學費，但該校雜費、住宿費、生活費、保險費、往返機票費等均須自行負擔,港澳台高校交流生住宿标准：預估 800 元/学期,請留意，該校表示因無法評估未來疫情之影響，即使提供交換名額予本校，仍有可能會臨時取消交換學生計畫。另，陸港澳地區調升為橙色旅遊警示，請欲選擇至該校交換的同學留意。,,31.3011748
55,北京大學,Peking University,中國,China,https://oia.ntu.edu.tw/outgoing/view/semester/1/sn/55,是,中語組,GPA 達3.30分以上,大二/大三/碩一/碩二(不含博士生)學生,無,醫學部、光華管理學院,一學期5名,該校年曆：北京大学校历,須在本校註冊並繳交全額學雜費，免繳該校學費，但該校雜費、住宿費、生活費、保險費、往返機票費等均須自行負擔,住宿由校方安排。港澳台交換學生將被安排到校內學生宿舍（四人一間）,請留意，該校表示因無法評估未來疫情之影響，即使提供交換名額予本校，仍有可能會臨時取消交換學生計畫。另，陸港澳地區調升為橙色旅遊警示，請欲選擇至該校交換的同學留意。,,40.1733653
56,中國人民大學,Renmin University of China,中國,China,https://oia.ntu.edu.tw/outgoing/view/semester/1/sn/56,是,中語組,無,大二/大三學生,無,無,一學期0名,秋季學期：9月至1月；春季學期：2月至6月,須在本校註冊並繳交全額學雜費，免繳該校學費，但該校雜費、住宿費、生活費、保險費、往返機票費等均須自行負擔,保證住宿，由校方安排。提供普通學生宿舍,請留意，該校表示因無法評估未來疫情之影響，即使提供交換名額予本校，仍有可能會臨時取消交換學生計畫。另，陸港澳地區調升為橙色旅遊警示，請欲選擇至該校交換的同學留意。,,39.9695397
57,吉林大學,Jilin University,中國,China,https://oia.ntu.edu.tw/outgoing/view/semester/1/sn/57,是,中語組,無,大二以上/碩一以上(不含博士生)學生,無,無,一學期0名,第一學期：9月至次年1月；第二學期：3月至7月,須在本校註冊並繳交全額學雜費，免繳該校學費，但該校雜費、住宿費、生活費、保險費、往返機票費等均須自行負擔,保證住宿，由校方統一安排,請留意，該校表示因無法評估未來疫情之影響，即使提供交換名額予本校，仍有可能會臨時取消交換學生計畫。另，陸港澳地區調升為橙色旅遊警示，請欲選擇至該校交換的同學留意。,,43.8801188
106,南開大學,Nankai University,中國,China,https://oia.ntu.edu.tw/outgoing/view/semester/1/sn/106,是,中語組,GPA 達3.30分以上,大二/大三/碩一以上(不含博士生)學生,無,體育課、漢語言文化學院、文學院東方藝術系和藝術設計系課程、外國語學院相關專業部分課程,一學期2名,第一學期：8月至1月；第二學期：2月至6月,須在本校註冊並繳交全額學雜費，免繳該校學費，但該校雜費、住宿費、生活費、保險費、往返機票費等均須自行負擔,由校方安排，根據學院所在校區就近安排,請留意，該校表示因無法評估未來疫情之影響，即使提供交換名額予本校，仍有可能會臨時取消交換學生計畫。另，陸港澳地區調升為橙色旅遊警示，請欲選擇至該校交換的同學留意。,,39.1018827
1179,拉曼大學,Universiti Tunku Abdul Rahman,馬來西亞,Malaysia,https://oia.ntu.edu.tw/outgoing/view/semester/1/sn/1179,是,一般組,GPA 達2.50分以上,大二以上/碩一以上/博一以上學生,TOEFL iBT 79 (不接受 Home Edition) 或 IELTS 6.0 或 全民英檢中高級,醫學院醫學系,全學年2名,January Trimester: 10 February 2025 – 8 June 2025；June Trimester: 23 June 2025 – 19 October2025；October Trimester: 3 November 2025 – 9 January 2026,須在本校註冊並繳交全額學雜費，免繳該校學費，但該校雜費、住宿費、生活費、保險費、往返機票費等均須自行負擔,保證校外住宿，住宿資訊請參考以下連結：Kampar Campus：Danish House,交換學校一覽表所列之語言能力為該校之最低門檻要求，同學需自行確認語言能力是否符合該校修課要求、查詢是否有足夠的課程可供選讀、能否達到該校之每學期修課學分數要求、以及是否具備相關領域之背景知識，若未達標準，該校有權拒收。,,4.3386145
1160,馬來西亞諾丁漢大學,The University of Nottingham Malaysia,馬來西亞,Malaysia,https://oia.ntu.edu.tw/outgoing/view/semester/1/sn/1160,是,一般組,GPA 達3.00分以上,大二學生,IELTS 6.0,無,全學年1名,Autumn Semester: September to January；Spring Semester: February to May,須在本校註冊並繳交全額學雜費，免繳該校學費，但該校雜費、住宿費、生活費、保險費、往返機票費等均須自行負擔,不保證住宿，請參考住宿資訊。,交換學校一覽表所列之語言能力為該校之最低門檻要求，同學需自行確認語言能力是否符合該校修課要求、查詢是否有足夠的課程可供選讀、能否達到該校之每學期修課學分數要求、以及是否具備相關領域之背景知識，若未達標準，該校有權拒收。,,2.9438432
556,馬來亞大學,University of Malaya,馬來西亞,Malaysia,https://oia.ntu.edu.tw/outgoing/view/semester/1/sn/556,是,一般組,GPA 達3.20分以上,大二/大三/碩一/碩二(不含博士生)學生,TOEFL iBT 80 (不接受 Home Edition) 或 IELTS 6.0 或 全民英檢中高級,無,全學年1名,Semester 1: October to February；Semester 2: March to July,須在本校註冊並繳交全額學雜費，免繳該校學費，但該校雜費、住宿費、生活費、保險費、往返機票費等均須自行負擔,不保證住宿，請參考住宿資訊。,交換學校一覽表所列之語言能力為該校之最低門檻要求，同學需自行確認語言能力是否符合該校修課要求、查詢是否有足夠的課程可供選讀、能否達到該校之每學期修課學分數要求、以及是否具備相關領域之背景知識，若未達標準，該校有權拒收。,,3.1257602
802,馬來西亞理工大學(UTM),University of Technology Malaysia,馬來西亞,Malaysia,https://oia.ntu.edu.tw/outgoing/view/semester/1/sn/802,是,一般組,GPA 達3.70分以上,大二/大三/碩一(不含博士生)學生,TOEFL iBT 79 (不接受 Home Edition) 或 IELTS 6.0 或 全民英檢中高級,文學院、管理學院工商管理學系、管理學院會計學系、管理學院財務金融學系、管理學院國際企業學系、管理學院資訊管理學系、管理學院會計學研究所,全學年1名,Semester I (September – January)；Semester II (February – June),須在本校註冊並繳交全額學雜費，免繳該校學費，但該校雜費、住宿費、生活費、保險費、往返機票費等均須自行負擔,不提供住宿，Students must arrange for housing on their own with Housing Office support,交換學校一覽表所列之語言能力為該校之最低門檻要求，同學需自行確認語言能力是否符合該校修課要求、查詢是否有足夠的課程可供選讀、能否達到該校之每學期修課學分數要求、以及是否具備相關領域之背景知識，若未達標準，該校有權拒收。,,1.5585223
605,馬來西亞理科大學(USM),Universiti Sains Malaysia,馬來西亞,Malaysia,https://oia.ntu.edu.tw/outgoing/view/semester/1/sn/605,是,一般組,無,大二/大三/碩一/碩二/博一以上學生,TOEFL iBT 80 (接受 Home Edition) 或 IELTS 6.0,醫學院,全學年1名,Fall Semester: October - February；Spring Semester: March - August,須在本校註冊並繳交全額學雜費，免繳該校學費，但該校雜費、住宿費、生活費、保險費、往返機票費等均須自行負擔,不保證校內住宿，請參考此連結,交換學校一覽表所列之語言能力為該校之最低門檻要求，同學需自行確認語言能力是否符合該校修課要求、查詢是否有足夠的課程可供選讀、能否達到該校之每學期修課學分數要求、以及是否具備相關領域之背景知識，若未達標準，該校有權拒收。,,5.3574323
42,蒙古國立大學,National University of Mongolia,蒙古,Mongolia,https://oia.ntu.edu.tw/outgoing/view/semester/1/sn/42,是,一般組,GPA 達3.00分以上,大二以上/碩一以上/博一以上學生,TOEFL iBT 80 (不接受 Home Edition) 或 IELTS 6.0 或 全民英檢中高級；同時需具中高級以上蒙古語能力,無,全學年1名,第一學期 : 九月至一月；第二學期 : 二月至七月,須在本校註冊並繳交全額學雜費，免繳該校學費，但該校雜費、住宿費、生活費、保險費、往返機票費等均須自行負擔,保證校內住宿，請參考此連結。,交換學校一覽表所列之語言能力為該校之最低門檻要求，同學需自行確認語言能力是否符合該校修課要求、查詢是否有足夠的課程可供選讀、能否達到該校之每學期修課學分數要求、以及是否具備相關領域之背景知識，若未達標準，該校有權拒收。,,47.9230199
892,聖彼得堡國立大學,Saint Petersburg State University,俄羅斯,Russia,https://oia.ntu.edu.tw/outgoing/view/semester/1/sn/892,是,一般組,GPA 達3.30分以上,大二以上/碩一以上(不含博士生)學生,TOEFL iBT 92 (不接受 Home Edition) 或 IELTS 6.5；或具俄語檢定(TORFL)成績 第一級TРКИ-1 級以上,無,全學年0名,Fall Semester: September - January；Spring Semester: February - June,須在本校註冊並繳交全額學雜費，免繳該校學費，但該校雜費、住宿費、生活費、保險費、往返機票費等均須自行負擔,保證住宿,交換學校一覽表所列之語言能力為該校之最低門檻要求，同學需自行確認語言能力是否符合該校修課要求、查詢是否有足夠的課程可供選讀、能否達到該校之每學期修課學分數要求、以及是否具備相關領域之背景知識，若未達標準，該校有權拒收。,,59.9406782
891,莫斯科國立大學,Lomonosov Moscow State University,俄羅斯,Russia,https://oia.ntu.edu.tw/outgoing/view/semester/1/sn/891,是,一般組,GPA 達3.44分以上,碩一以上(不含博士生)學生,TOEFL iBT 79 (接受 Home Edition) 或 IELTS 6.0 或 全民英檢高級；或具俄語檢定(TORFL)成績 第一級TРКИ-1 級以上,無,全學年0名,Fall semester Study period: September 1 — January 24；Spring semester Study period: February 7 — June 24,須在本校註冊並繳交全額學雜費，免繳該校學費，但該校雜費、住宿費、生活費、保險費、往返機票費等均須自行負擔,保證住宿，住宿資訊請參閱此連結。,交換學校一覽表所列之語言能力為該校之最低門檻要求，同學需自行確認語言能力是否符合該校修課要求、查詢是否有足夠的課程可供選讀、能否達到該校之每學期修課學分數要求、以及是否具備相關領域之背景知識，若未達標準，該校有權拒收。,,55.7055406
1135,新加坡科技與設計大學,Singapore University of Technology and Design,新加坡,Singapore,https://oia.ntu.edu.tw/outgoing/view/semester/1/sn/1135,是,一般組,無,大二以上(僅限大學部)學生,TOEFL iBT 79 (不接受 Home Edition) 或 IELTS 6.0 或 全民英檢中高級,建築與永續設計學系,全學年3名,該校年曆請參考此連結,須在本校註冊並繳交全額學雜費，免繳該校學費，但該校雜費、住宿費、生活費、保險費、往返機票費等均須自行負擔,不保證住宿，住宿資訊請參考此連結。,交換學校一覽表所列之語言能力為該校之最低門檻要求，同學需自行確認語言能力是否符合該校修課要求、查詢是否有足夠的課程可供選讀、能否達到該校之每學期修課學分數要求、以及是否具備相關領域之背景知識，若未達標準，該校有權拒收。,,1.3413227
45,新加坡管理大學,Singapore Management University,新加坡,Singapore,https://oia.ntu.edu.tw/outgoing/view/semester/1/sn/45,是,一般組,無,大二/大三/大四學生,TOEFL iBT 93 (讀 22 寫 22 不接受 Home Edition) 或 IELTS 7.0 (讀 7.0 寫 6.5),無,全學年8名,Term 1: August - December；Term 2: January - April,須在本校註冊並繳交全額學雜費，免繳該校學費，但該校雜費、住宿費、生活費、保險費、往返機票費等均須自行負擔,不提供住宿，Students must arrange for housing on their own without Housing Office support,交換學校一覽表所列之語言能力為該校之最低門檻要求，同學需自行確認語言能力是否符合該校修課要求、查詢是否有足夠的課程可供選讀、能否達到該校之每學期修課學分數要求、以及是否具備相關領域之背景知識，若未達標準，該校有權拒收。,,1.296168
43,南洋理工大學,Nanyang Technological University,新加坡,Singapore,https://oia.ntu.edu.tw/outgoing/view/semester/1/sn/43,是,一般組,GPA 達2.83分以上，各科目成績需B grade and above,大二以上/碩一以上(不含博士生)學生,TOEFL iBT 90 (不接受 Home Edition) 或 IELTS 6.0 (寫 6.0),電機資訊學院電機工程學系、電機資訊學院電機工程學研究所,一般組全學年4名； School of Electrical and Electronic Engineering一般組全學年2名,Semester 1 (Fall): August to December；Semester2 (Spring): January to May,須在本校註冊並繳交全額學雜費，免繳該校學費，但該校雜費、住宿費、生活費、保險費、往返機票費等均須自行負擔,不保證住宿，住宿資訊請參考此連結。,交換學校一覽表所列之語言能力為該校之最低門檻要求，同學需自行確認語言能力是否符合該校修課要求、查詢是否有足夠的課程可供選讀、能否達到該校之每學期修課學分數要求、以及是否具備相關領域之背景知識，若未達標準，該校有權拒收。,,1.3484104
44,新加坡國立大學,National University of Singapore (NUS),新加坡,Singapore,https://oia.ntu.edu.tw/outgoing/view/semester/1/sn/44,是,一般組,GPA 達3.00分以上,大二以上(僅限大學部)學生,TOEFL iBT 79 (不接受 Home Edition) 或 IELTS 6.0,管理學院、醫學院、公共衛生學院、法律學院、護理學系、牙醫學系,全學年5名,Semester 1: August to December；Semester 2: January to May,須在本校註冊並繳交全額學雜費，免繳該校學費，但該校雜費、住宿費、生活費、保險費、往返機票費等均須自行負擔,不保證住宿，住宿資訊請參考此連結。,交換學校一覽表所列之語言能力為該校之最低門檻要求，同學需自行確認語言能力是否符合該校修課要求、查詢是否有足夠的課程可供選讀、能否達到該校之每學期修課學分數要求、以及是否具備相關領域之背景知識，若未達標準，該校有權拒收。,,1.2962018
984,馬希竇大學,Mahidol University,泰國,Thailand,https://oia.ntu.edu.tw/outgoing/view/semester/1/sn/984,是,一般組,GPA 達3.00分以上,大二/大三/碩一以上/博一以上學生,TOEFL iBT 79 (說 15 寫 17 不接受 Home Edition) 或 IELTS 6.0,無,全學年2名,Fall Semester 1st Semester: mid of August - mid of December；Spring Semester 2nd Semester: mid of January - end of May,須在本校註冊並繳交全額學雜費，免繳該校學費，但該校雜費、住宿費、生活費、保險費、往返機票費等均須自行負擔,Students must arrange for housing on their own with Housing Office support，住宿資訊請參考以下連結：Accomodation,交換學校一覽表所列之語言能力為該校之最低門檻要求，同學需自行確認語言能力是否符合該校修課要求、查詢是否有足夠的課程可供選讀、能否達到該校之每學期修課學分數要求、以及是否具備相關領域之背景知識，若未達標準，該校有權拒收。,,13.794652
794,國立法政大學,Thammasat University,泰國,Thailand,https://oia.ntu.edu.tw/outgoing/view/semester/1/sn/794,是,一般組,GPA 達3.00分以上,大二/大三/碩一(不含博士生)學生,TOEFL iBT 80 (不接受 Home Edition) 或 IELTS 6.5,文學院人類學系、文學院人類學研究所、社會科學院社會學系、社會科學院社會學研究所、理學院、醫學院、公共衛生學院、牙醫學系、護理學院,全學年3名,1st semester: August - December；2nd semester: January - May,須在本校註冊並繳交全額學雜費，免繳該校學費，但該校雜費、住宿費、生活費、保險費、往返機票費等均須自行負擔,不保證住宿，住宿資訊請參考此連結。,交換學校一覽表所列之語言能力為該校之最低門檻要求，同學需自行確認語言能力是否符合該校修課要求、查詢是否有足夠的課程可供選讀、能否達到該校之每學期修課學分數要求、以及是否具備相關領域之背景知識，若未達標準，該校有權拒收。,,18.3173369
390,朱拉隆功大學,Chulalongkorn University,泰國,Thailand,https://oia.ntu.edu.tw/outgoing/view/semester/1/sn/390,是,一般組,GPA 達3.00分以上,大二/碩一/碩二(不含博士生)學生,TOEFL iBT 79 (不接受 Home Edition) 或 IELTS 6.0 (聽 5.5 讀 5.5 寫 5.5 說 5.5),教育學院、電機工程學系,全學年2名,該校年曆請參考此連結,須在本校註冊並繳交全額學雜費，免繳該校學費，但該校雜費、住宿費、生活費、保險費、往返機票費等均須自行負擔,不保證住宿，住宿資訊請參考此連結。,交換學校一覽表所列之語言能力為該校之最低門檻要求，同學需自行確認語言能力是否符合該校修課要求、查詢是否有足夠的課程可供選讀、能否達到該校之每學期修課學分數要求、以及是否具備相關領域之背景知識，若未達標準，該校有權拒收。,,13.7431114
46,亞洲理工學院,Asian Institute of Technology,泰國,Thailand,https://oia.ntu.edu.tw/outgoing/view/semester/1/sn/46,是,一般組,無,碩一以上(不含博士生)學生,TOEFL iBT 80 (寫 23 不接受 Home Edition) 或 IELTS 6.0 (寫 6.0),無,一學期2名,Fall Semester: July - December；Spring Semester: January - May,須在本校註冊並繳交全額學雜費，免繳該校學費，但該校雜費、住宿費、生活費、保險費、往返機票費等均須自行負擔,保證住宿，住宿資訊請參考此連結,交換學校一覽表所列之語言能力為該校之最低門檻要求，同學需自行確認語言能力是否符合該校修課要求、查詢是否有足夠的課程可供選讀、能否達到該校之每學期修課學分數要求、以及是否具備相關領域之背景知識，若未達標準，該校有權拒收。,,14.0803261
1216,薩邦哲大學,Sabanci University,土耳其,Turkey,https://oia.ntu.edu.tw/outgoing/view/semester/1/sn/1216,是,一般組,GPA 達2.50分以上,大二/大三/碩一(不含博士生)學生,TOEFL iBT 80 (接受 Home Edition) 或 IELTS 6.0 或 全民英檢中高級,無,全學年1名,Fall Semester: September - January；Spring Semester: February - May,須在本校註冊並繳交全額學雜費，免繳該校學費，但該校雜費、住宿費、生活費、保險費、往返機票費等均須自行負擔,保證住宿，住宿資訊請參考此連結。,交換學校一覽表所列之語言能力等規定為該校之最低門檻，同學需自行確認最新資訊，如語言能力及成績是否符合該校要求、查詢是否有足夠的課程可供選讀、能否達到該校之每學期修課學分數要求、以及是否具備相關領域之背景知識等，若未達標準，該校有權拒收。,,40.8927159
1189,海峽大學,Bogazici University,土耳其,Turkey,https://oia.ntu.edu.tw/outgoing/view/semester/1/sn/1189,是,一般組,學士生 GPA 達2.70分以上；研究生 GPA 達3.30分以上,大一以上/碩一以上/博一以上學生,學士生 TOEFL iBT 79 (寫 22 不接受 Home Edition) 或 IELTS 6.5；研究生 TOEFL iBT 79 (寫 22 不接受 Home Edition) 或 IELTS 6.5,理學院心理學研究所、社會科學院經濟學研究所、社會科學院社會學研究所、管理學院財務金融學研究所、管理學院資訊管理學研究所,全學年1名,Fall semester: September to January；Spring semester: February to June,須在本校註冊並繳交全額學雜費，免繳該校學費，但該校雜費、住宿費、生活費、保險費、往返機票費等均須自行負擔,Students must arrange for housing on their own without Housing Office support.,交換學校一覽表所列之語言能力等規定為該校之最低門檻，同學需自行確認最新資訊，如語言能力及成績是否符合該校要求、查詢是否有足夠的課程可供選讀、能否達到該校之每學期修課學分數要求、以及是否具備相關領域之背景知識等，若未達標準，該校有權拒收。,,41.0832733
1183,畢爾肯大學,Bilkent University,土耳其,Turkey,https://oia.ntu.edu.tw/outgoing/view/semester/1/sn/1183,是,一般組,GPA 達2.70分以上,大二/碩一(不含博士生)學生,TOEFL iBT 87 (不接受 Home Edition) 或 IELTS 6.5 (聽 5.5 讀 5.5 寫 5.5 說 5.5) 或 全民英檢中高級,無,全學年2名,Fall semester: September to January；Spring semester: January to May,須在本校註冊並繳交全額學雜費，免繳該校學費，但該校雜費、住宿費、生活費、保險費、往返機票費等均須自行負擔,保證校內住宿，住宿資訊請參考此連結。,交換學校一覽表所列之語言能力等規定為該校之最低門檻，同學需自行確認最新資訊，如語言能力及成績是否符合該校要求、查詢是否有足夠的課程可供選讀、能否達到該校之每學期修課學分數要求、以及是否具備相關領域之背景知識等，若未達標準，該校有權拒收。,,39.870469
1079,中東科技大學,Middle East Technical University (METU),土耳其,Turkey,https://oia.ntu.edu.tw/outgoing/view/semester/1/sn/1079,是,一般組,GPA 達3.30分以上,大二/大三/碩一以上/博一以上學生,TOEFL iBT 79 (不接受 Home Edition) 或 IELTS 6.0 或 全民英檢中高級,音樂與美術、土耳其語文與歷史、媒體研究,全學年2名,該校年曆請參考此連結,須在本校註冊並繳交全額學雜費，免繳該校學費，但該校雜費、住宿費、生活費、保險費、往返機票費等均須自行負擔,不保證住宿，住宿資訊請參考此連結,交換學校一覽表所列之語言能力等規定為該校之最低門檻，同學需自行確認最新資訊，如語言能力及成績是否符合該校要求、查詢是否有足夠的課程可供選讀、能否達到該校之每學期修課學分數要求、以及是否具備相關領域之背景知識等，若未達標準，該校有權拒收。,,39.8755074
890,柯克大學,Koç University,土耳其,Turkey,https://oia.ntu.edu.tw/outgoing/view/semester/1/sn/890,是,一般組,學士生 GPA 達2.50分以上；研究生 GPA 達2.70分以上,大二/大三/碩一/博一以上學生,學士生 TOEFL iBT 80 (不接受 Home Edition) 或 IELTS 6.5；研究生 TOEFL iBT 80 (不接受 Home Edition) 或 IELTS 6.5,醫學院學士後護理學系、醫學院護理學系、醫學院護理學研究所,全學年1名,Fall Semester: October - January；Spring Semester: February - June,須在本校註冊並繳交全額學雜費，免繳該校學費，但該校雜費、住宿費、生活費、保險費、往返機票費等均須自行負擔,不保證住宿，住宿資訊請參考此連結。,交換學校一覽表所列之語言能力等規定為該校之最低門檻，同學需自行確認最新資訊，如語言能力及成績是否符合該校要求、查詢是否有足夠的課程可供選讀、能否達到該校之每學期修課學分數要求、以及是否具備相關領域之背景知識等，若未達標準，該校有權拒收。,,41.203159
998,維也納大學,University of Vienna,奧地利,Austria,https://oia.ntu.edu.tw/outgoing/view/semester/1/sn/998,否,德語組,無,大二以上/碩一以上(不含博士生)學生,TOEFL iBT 80 (接受 Home Edition) 或 IELTS 6.0 或 全民英檢中高級；或具德語檢定成績 B2(中高級) 級以上,聯合碩士學程、研究中心學程,全學年2名,Academic Calendar,須在本校註冊並繳交全額學雜費，免繳該校學費，但該校雜費、住宿費、生活費、保險費、往返機票費等均須自行負擔,The University of Vienna does not have its own student halls of residence. Students are therefore responsible for organising accommodation for their stay in Vienna themselves.,交換學校一覽表所列之語言能力為該校之最低門檻要求，同學需自行確認語言能力是否符合該校修課要求、查詢是否有相對應的系所及足夠的課程可供選讀、能否達到該校之每學期修課學分數要求、以及是否具備相關領域之背景知識，若未達標準，該校有權拒收。,,48.2131469
171,林茲大學,Johannes Kepler University of Linz,奧地利,Austria,https://oia.ntu.edu.tw/outgoing/view/semester/1/sn/171,是,德語組,無,大二以上/碩一以上(不含博士生)學生,TOEFL iBT 85 (接受 Home Edition) 或 IELTS 6.0 或 全民英檢中高級；或具德語檢定成績 B2(中高級) 級以上,無,全學年3名,Winter Semester: 1st week of October-January 31st；Summer Semester: 1st week of March-June 30th,須在本校註冊並繳交全額學雜費，免繳該校學費，但該校雜費、住宿費、生活費、保險費、往返機票費等均須自行負擔,The International Office arranges accommodation at the various student dormitories, most of them within walking distance from campus. For more information visit the website.,['交換學校一覽表所列之語言能力為該校之最低門檻要求，同學需自行確認語言能力是否符合該校修課要求、查詢是否有相對應的系所及足夠的課程可供選讀、能否達到該校之每學期修課學分數要求、以及是否具備相關領域之背景知識，若未達標準，該校有權拒收。'],
1302,蒙斯大學,University of Mons,比利時,Belgium,https://oia.ntu.edu.tw/outgoing/view/semester/1/sn/1302,是,法語組,無,大二/碩一/碩二(不含博士生)學生,TOEFL iBT 80 (不接受 Home Edition) 或 IELTS 6.0；或具法語檢定成績 B1(中級) 級以上,醫學院、公共衛生學院、法律學院,全學年3名,Academic Calendar,須在本校註冊並繳交全額學雜費，免繳該校學費，但該校雜費、住宿費、生活費、保險費、往返機票費等均須自行負擔,無,交換學校一覽表所列之語言能力為該校之最低門檻要求，同學需自行確認語言能力是否符合該校修課要求、查詢是否有相對應的系所及足夠的課程可供選讀、能否達到該校之每學期修課學分數要求、以及是否具備相關領域之背景知識，若未達標準，該校有權拒收。,,45.5027702
1103,托馬斯莫爾應用科技大學,Thomas More University of Applied Sciences,比利時,Belgium,https://oia.ntu.edu.tw/outgoing/view/semester/1/sn/1103,是,一般組,無,大二以上/碩一以上/博一以上學生,TOEFL iBT 79 (接受 Home Edition) 或 IELTS 6.0 或 全民英檢中高級,無,全學年1名,Fall semester typically starts the third week of September and ends around the end of January. Spring semester typically starts the second or third week of February and ends 30 June.,須在本校註冊並繳交全額學雜費，免繳該校學費，但該校雜費、住宿費、生活費、保險費、往返機票費等均須自行負擔,Students must arrange for housing on their own. Thomas More will assist in the process. Check this webpage for more information.,交換學校一覽表所列之語言能力為該校之最低門檻要求，同學需自行確認語言能力是否符合該校修課要求、查詢是否有相對應的系所及足夠的課程可供選讀、能否達到該校之每學期修課學分數要求、以及是否具備相關領域之背景知識，若未達標準，該校有權拒收。,,
59,布魯塞爾自由大學,Université Libre de Bruxelles,比利時,Belgium,https://oia.ntu.edu.tw/outgoing/view/semester/1/sn/59,否,法語組,無,大二以上/碩一以上(不含博士生)學生,具法語檢定成績 B1(中級) 級以上,管理學院、醫學院、公共衛生學院、翻譯與口譯學院,全學年1名,Semester 1: September to January；Semester 2: February to June,須在本校註冊並繳交全額學雜費，免繳該校學費，但該校雜費、住宿費、生活費、保險費、往返機票費等均須自行負擔,ULB offers a wide choice of accommodation in its own halls of residence and private halls of residence, either on one of its three campuses (Solbosch,"[' La Plaine', ' Erasme) or off-campus (with over 2', '400 rooms or flats). The Housing Office will help you to find a suitable accommodation and advise you on many aspects of student housing.', '交換學校一覽表所列之語言能力為該校之最低門檻要求，同學需自行確認語言能力是否符合該校修課要求、查詢是否有相對應的系所及足夠的課程可供選讀、能否達到該校之每學期修課學分數要求、以及是否具備相關領域之背景知識，若未達標準，該校有權拒收。']",50.8134718
921,查理士大學,Charles University,捷克,Czech Republic,https://oia.ntu.edu.tw/outgoing/view/semester/1/sn/921,否,一般組,無,大二/大三/碩一/碩二/博一以上學生,TOEFL iBT 79 (不接受 Home Edition) 或 IELTS 6.0,無,全學年1名,Academic Calendar,須在本校註冊並繳交全額學雜費，免繳該校學費，但該校雜費、住宿費、生活費、保險費、往返機票費等均須自行負擔,Not guaranteed, but students can apply for housing. Accommodation of exchange students in student dormitories is arranged by the receiving faculties.,['交換學校一覽表所列之語言能力為該校之最低門檻要求，同學需自行確認語言能力是否符合該校修課要求、查詢是否有相對應的系所及足夠的課程可供選讀、能否達到該校之每學期修課學分數要求、以及是否具備相關領域之背景知識，若未達標準，該校有權拒收。'],50.0888947
387,馬薩里克大學,Masaryk University,捷克,Czech Republic,https://oia.ntu.edu.tw/outgoing/view/semester/1/sn/387,否,一般組,GPA 達2.70分以上,大二以上/碩一以上/博一以上學生,TOEFL iBT 79 (不接受 Home Edition) 或 IELTS 6.0 或 全民英檢中高級,無,全學年1名,Academic Calendar,須在本校註冊並繳交全額學雜費，免繳該校學費，但該校雜費、住宿費、生活費、保險費、往返機票費等均須自行負擔,Not guaranteed but students can apply for housing. More information check this webpage.,交換學校一覽表所列之語言能力為該校之最低門檻要求，同學需自行確認語言能力是否符合該校修課要求、查詢是否有相對應的系所及足夠的課程可供選讀、能否達到該校之每學期修課學分數要求、以及是否具備相關領域之背景知識，若未達標準，該校有權拒收。,,49.2099967
1194,奧胡斯大學,Aarhus University,丹麥,Denmark,https://oia.ntu.edu.tw/outgoing/view/semester/1/sn/1194,是,一般組,無,大二以上/碩一以上(不含博士生)學生,TOEFL iBT 83 (接受 Home Edition) 或 IELTS 6.5,醫學院、牙醫學系,全學年1名,Academic Calendar,須在本校註冊並繳交全額學雜費，免繳該校學費，但該校雜費、住宿費、生活費、保險費、往返機票費等均須自行負擔,Overseas students are given priority but we cannot guarantee housing. Therefore, you should also look for other housing options. More information here.,['交換學校一覽表所列之語言能力為該校之最低門檻要求，同學需自行確認語言能力是否符合該校修課要求、查詢是否有相對應的系所及足夠的課程可供選讀、能否達到該校之每學期修課學分數要求、以及是否具備相關領域之背景知識，若未達標準，該校有權拒收。'],56.1670905
61,哥本哈根大學,University of Copenhagen,丹麥,Denmark,https://oia.ntu.edu.tw/outgoing/view/semester/1/sn/61,否,一般組,無,大二以上/碩一以上(不含博士生)學生,TOEFL iBT 80 (接受 Home Edition) 或 IELTS 6.0,醫學院、公共衛生學院,全學年3名,Fall semester start - 1 September to 31 January；Spring semester start - 1 February to 30 June,須在本校註冊並繳交全額學雜費，免繳該校學費，但該校雜費、住宿費、生活費、保險費、往返機票費等均須自行負擔,Not guaranteed, but students can apply for housing. For housing information,"[' please check this website.', '交換學校一覽表所列之語言能力為該校之最低門檻要求，同學需自行確認語言能力是否符合該校修課要求、查詢是否有相對應的系所及足夠的課程可供選讀、能否達到該校之每學期修課學分數要求、以及是否具備相關領域之背景知識，若未達標準，該校有權拒收。']",55.6801502
898,拉瑞爾應用科技大學,Laurea University of Applied Sciences,芬蘭,Finland,https://oia.ntu.edu.tw/outgoing/view/semester/1/sn/898,是,一般組,無,大二以上(僅限大學部)學生,TOEFL iBT 79 (不接受 Home Edition) 或 IELTS 6.0 或 全民英檢中高級,無,Service Business Management一學期1名；Social Services一學期1名,Academic Calendar,須在本校註冊並繳交全額學雜費，免繳該校學費，但該校雜費、住宿費、生活費、保險費、往返機票費等均須自行負擔,Not guaranteed but students can apply for housing. We have the list recommend student housing companies for students to apply themselves. Check here for more information.,交換學校一覽表所列之語言能力為該校之最低門檻要求，同學需自行確認語言能力是否符合該校修課要求、查詢是否有相對應的系所及足夠的課程可供選讀、能否達到該校之每學期修課學分數要求、以及是否具備相關領域之背景知識，若未達標準，該校有權拒收。,,60.2228169
62,赫爾辛基大學,University of Helsinki,芬蘭,Finland,https://oia.ntu.edu.tw/outgoing/view/semester/1/sn/62,否,一般組,無,大二以上/碩一以上(不含博士生)學生,TOEFL iBT 79 (接受 Home Edition) 或 IELTS 6.0 或 全民英檢中高級,管理學院、工學院、醫學院護理學系、醫學院護理學研究所、醫學院牙醫學系、醫學院臨床牙醫學研究所,全學年3名,Academic Calendar,須在本校註冊並繳交全額學雜費，免繳該校學費，但該校雜費、住宿費、生活費、保險費、往返機票費等均須自行負擔,Not guaranteed, but students can apply for housing. More information here.,['交換學校一覽表所列之語言能力為該校之最低門檻要求，同學需自行確認語言能力是否符合該校修課要求、查詢是否有相對應的系所及足夠的課程可供選讀、能否達到該校之每學期修課學分數要求、以及是否具備相關領域之背景知識，若未達標準，該校有權拒收。'],60.2267221
1301,巴黎高等師範學院,Ecole Normale Superieure Paris,法國,France,https://oia.ntu.edu.tw/outgoing/view/semester/1/sn/1301,是,無,無,無,無,無,無,Fall Semester Humanities: September 15th to December 20th；Sciences: September 15th to January 24th,須在本校註冊並繳交全額學雜費，免繳該校學費，但該校雜費、住宿費、生活費、保險費、往返機票費等均須自行負擔,On-campus housing is guaranteed.,交換學校一覽表所列之語言能力為該校之最低門檻要求，同學需自行確認語言能力是否符合該校修課要求、查詢是否有相對應的系所及足夠的課程可供選讀、能否達到該校之每學期修課學分數要求、以及是否具備相關領域之背景知識，若未達標準，該校有權拒收。,,48.8417072
1106,波爾多大學,University of Bordeaux,法國,France,https://oia.ntu.edu.tw/outgoing/view/semester/1/sn/1106,是,法語組,GPA 達2.70分以上,大二以上/碩一以上(不含博士生)學生,TOEFL iBT 79 (接受 Home Edition) 或 IELTS 6.0 或 全民英檢中高級；或具法語檢定成績 B1(中級) 級以上,醫學院、公共衛生學院、牙醫學系,全學年3名,Fall Semester : September – January；Spring Semester : February – June,須在本校註冊並繳交全額學雜費，免繳該校學費，但該校雜費、住宿費、生活費、保險費、往返機票費等均須自行負擔,Not guaranteed but students can apply for housing. More information here (p.37).,交換學校一覽表所列之語言能力為該校之最低門檻要求，同學需自行確認語言能力是否符合該校修課要求、查詢是否有相對應的系所及足夠的課程可供選讀、能否達到該校之每學期修課學分數要求、以及是否具備相關領域之背景知識，若未達標準，該校有權拒收。,,
1105,奧爾良大學,University of Orleans,法國,France,https://oia.ntu.edu.tw/outgoing/view/semester/1/sn/1105,是,法語組,無,大二以上/碩一以上(不含博士生)學生,TOEFL iBT 90 (不接受 Home Edition) 或 IELTS 6.5；或具法語檢定成績 B2(中高級) 級以上,無,全學年2名,Semester 1 (Fall semester): Early September - Late December / Early January；Semester 2 (Spring semester): Early January - May / June,須在本校註冊並繳交全額學雜費，免繳該校學費，但該校雜費、住宿費、生活費、保險費、往返機票費等均須自行負擔,Not guaranteed but students can apply for housing. More information here. (P.12),交換學校一覽表所列之語言能力為該校之最低門檻要求，同學需自行確認語言能力是否符合該校修課要求、查詢是否有相對應的系所及足夠的課程可供選讀、能否達到該校之每學期修課學分數要求、以及是否具備相關領域之背景知識，若未達標準，該校有權拒收。,,33.2107144
1014,巴黎高等農業學院,AgroParisTech,法國,France,https://oia.ntu.edu.tw/outgoing/view/semester/1/sn/1014,是,法語組,無,大四/大五/碩一以上/博一以上學生,具法語檢定成績 B1(中級) 級以上,無,全學年1名,1st semester: Start of September – Start of February；2nd semester: Start of February – June,須在本校註冊並繳交全額學雜費，免繳該校學費，但該校雜費、住宿費、生活費、保險費、往返機票費等均須自行負擔,Not guaranteed but students can apply for housing. Student Housing,交換學校一覽表所列之語言能力為該校之最低門檻要求，同學需自行確認語言能力是否符合該校修課要求、查詢是否有相對應的系所及足夠的課程可供選讀、能否達到該校之每學期修課學分數要求、以及是否具備相關領域之背景知識，若未達標準，該校有權拒收。,,48.7138102
104,巴黎薩克雷大學,University of Paris-Saclay,法國,France,https://oia.ntu.edu.tw/outgoing/view/semester/1/sn/104,否,法語組,GPA 達3.00分以上,大四/大五/碩一以上(不含博士生)學生,TOEFL iBT 90 (不接受 Home Edition) 或 IELTS 6.5 或 全民英檢中高級；或具法語檢定成績 B2(中高級) 級以上,文學院,全學年3名,Autumn Semester: September - January；Spring Semester: January - June,須在本校註冊並繳交全額學雜費，免繳該校學費，但該校雜費、住宿費、生活費、保險費、往返機票費等均須自行負擔,Not guaranteed but students can apply for housing. More information here.,交換學校一覽表所列之語言能力為該校之最低門檻要求，同學需自行確認語言能力是否符合該校修課要求、查詢是否有相對應的系所及足夠的課程可供選讀、能否達到該校之每學期修課學分數要求、以及是否具備相關領域之背景知識，若未達標準，該校有權拒收。,,
917,巴黎高等礦業學院,MINES ParisTech,法國,France,https://oia.ntu.edu.tw/outgoing/view/semester/1/sn/917,是,法語組,GPA 達3.00分以上,碩一/碩二(不含博士生)學生,TOEFL iBT 90 (不接受 Home Edition) 或 IELTS 6.5；或具法語檢定成績 B2(中高級) 級以上,無,一學期3名,Fall semester: Early September to end of January/mid-February (depending on program)；Spring semester: mid-February to May,須在本校註冊並繳交全額學雜費，免繳該校學費，但該校雜費、住宿費、生活費、保險費、往返機票費等均須自行負擔,"Non-degree exchange students and visitors can apply for a room at the ""Cité internationale"" or Crous residency through PSL housing service", but we cannot guarantee a spot.,['交換學校一覽表所列之語言能力為該校之最低門檻要求，同學需自行確認語言能力是否符合該校修課要求、查詢是否有相對應的系所及足夠的課程可供選讀、能否達到該校之每學期修課學分數要求、以及是否具備相關領域之背景知識，若未達標準，該校有權拒收。'],48.6117414
818,雷恩第一大學（原翰尼第一大學）,University of Rennes 1,法國,France,https://oia.ntu.edu.tw/outgoing/view/semester/1/sn/818,是,法語組,無,大二以上/碩一以上(不含博士生)學生,TOEFL iBT 90 (不接受 Home Edition) 或 IELTS 6.5；或具法語檢定成績 B2(中高級) 級以上,無,全學年2名,Academic Calendar,須在本校註冊並繳交全額學雜費，免繳該校學費，但該校雜費、住宿費、生活費、保險費、往返機票費等均須自行負擔,Not guaranteed, but students can apply for housing. More information here.,['交換學校一覽表所列之語言能力為該校之最低門檻要求，同學需自行確認語言能力是否符合該校修課要求、查詢是否有相對應的系所及足夠的課程可供選讀、能否達到該校之每學期修課學分數要求、以及是否具備相關領域之背景知識，若未達標準，該校有權拒收。'],
788,巴黎第十三大學（北巴黎大學）,Sorbonne Paris North University,法國,France,https://oia.ntu.edu.tw/outgoing/view/semester/1/sn/788,否,法語組,GPA 達2.70分以上,大二以上/碩一以上/博一以上學生,學士生具法語檢定成績 B1(中級) 級以上；研究生具法語檢定成績 B2(中高級) 級以上,無,全學年3名,Fall 01/09/2025 - 31/01/2026；Spring 01/02/2026 - 30/06/2026,須在本校註冊並繳交全額學雜費，免繳該校學費，但該校雜費、住宿費、生活費、保險費、往返機票費等均須自行負擔,Not guaranteed, but students can apply for housing. More information see this page.,['交換學校一覽表所列之語言能力為該校之最低門檻要求，同學需自行確認語言能力是否符合該校修課要求、查詢是否有相對應的系所及足夠的課程可供選讀、能否達到該校之每學期修課學分數要求、以及是否具備相關領域之背景知識，若未達標準，該校有權拒收。'],
305,巴黎薩克雷高等師範學校,École normale supérieure Paris-Saclay,法國,France,https://oia.ntu.edu.tw/outgoing/view/semester/1/sn/305,無,法語組,無,大三/大四/大五/碩一以上/博一以上學生,TOEFL iBT 95 (接受 Home Edition) 或 IELTS 6.5；或具法語檢定成績 B2(中高級) 級以上,無,全學年0名,Fall semester: Start of september - End of december/End of January. Spring semester: Start of February - End of June,須在本校註冊並繳交全額學雜費，免繳該校學費，但該校雜費、住宿費、生活費、保險費、往返機票費等均須自行負擔,We save spots for our exchange students in our quota for on and off campus housing so the housing is almost guaranteed but students have to apply for it on due time. More information here.,交換學校一覽表所列之語言能力為該校之最低門檻要求，同學需自行確認語言能力是否符合該校修課要求、查詢是否有相對應的系所及足夠的課程可供選讀、能否達到該校之每學期修課學分數要求、以及是否具備相關領域之背景知識，若未達標準，該校有權拒收。,,48.7128733
392,里爾天主教大學,Lille Catholic University,法國,France,https://oia.ntu.edu.tw/outgoing/view/semester/1/sn/392,是,法語組,GPA 達2.75分以上,大二以上/碩一以上(不含博士生)學生,TOEFL iBT 92 (接受 Home Edition) 或 IELTS 6.5 或 全民英檢中高級；或具法語檢定成績 B2(中高級) 級以上,醫學院、法律學院法律學研究所、法律學院科際整合法律學研究所,全學年3名,Semester 1 or Fall Semester: it starts from end of August or early September and ends in December；Semester 2 or Spring Semester: it starts from early January and ends between April and end of May,須在本校註冊並繳交全額學雜費，免繳該校學費，但該校雜費、住宿費、生活費、保險費、往返機票費等均須自行負擔,Not guaranteed, but students can apply for housing. More information here.,['交換學校一覽表所列之語言能力為該校之最低門檻要求，同學需自行確認語言能力是否符合該校修課要求、查詢是否有相對應的系所及足夠的課程可供選讀、能否達到該校之每學期修課學分數要求、以及是否具備相關領域之背景知識，若未達標準，該校有權拒收。'],
597,巴黎中央理工學院-電力高等學院,CentraleSupelec,法國,France,https://oia.ntu.edu.tw/outgoing/view/semester/1/sn/597,是,法語組,無,大三/大四/大五/碩一/碩二(不含博士生)學生,TOEFL iBT 85 (接受 Home Edition) 或 IELTS 6.0 或 全民英檢中高級；或具法語檢定成績 B1(中級) 級以上,無,全學年2名,Fall semester: end of August 2026 - end of January 2027；Spring semester: end of January 2027 - end of June 2027,須在本校註冊並繳交全額學雜費，免繳該校學費，但該校雜費、住宿費、生活費、保險費、往返機票費等均須自行負擔,On-campus housing guaranteed. Please visit this website.,交換學校一覽表所列之語言能力為該校之最低門檻要求，同學需自行確認語言能力是否符合該校修課要求、查詢是否有相對應的系所及足夠的課程可供選讀、能否達到該校之每學期修課學分數要求、以及是否具備相關領域之背景知識，若未達標準，該校有權拒收。,,49.1030194
601,巴黎西大學農泰爾拉德芳斯（巴黎第十大學）,University of Paris Ouest - Nanterre La Défense,法國,France,https://oia.ntu.edu.tw/outgoing/view/semester/1/sn/601,是,法語組,GPA 達3.30分以上,大二/大三學生,具法語檢定成績 B1(中級) 級以上,無,全學年4名,Academic Calendar,須在本校註冊並繳交全額學雜費，免繳該校學費，但該校雜費、住宿費、生活費、保險費、往返機票費等均須自行負擔,No guaranteed but students can apply for housing. More information here.,交換學校一覽表所列之語言能力為該校之最低門檻要求，同學需自行確認語言能力是否符合該校修課要求、查詢是否有相對應的系所及足夠的課程可供選讀、能否達到該校之每學期修課學分數要求、以及是否具備相關領域之背景知識，若未達標準，該校有權拒收。,,
101,法國女性高等綜合理工學院,EPF - Graduate School of Engineering,法國,France,https://oia.ntu.edu.tw/outgoing/view/semester/1/sn/101,是,法語組,無,大三/大四/碩一以上(不含博士生)學生,TOEFL iBT 79 (不接受 Home Edition) 或 IELTS 6.0 或 全民英檢中高級；或具法語檢定成績 B1(中級) 級以上,無,全學年4名,Fall semester: Early September to Late January；Spring semester: Late January to Late of June,須在本校註冊並繳交全額學雜費，免繳該校學費，但該校雜費、住宿費、生活費、保險費、往返機票費等均須自行負擔,EPF has agreements with student residences and provides assistance with the accommodation search and booking, however accommodation is not guaranteed.,['交換學校一覽表所列之語言能力為該校之最低門檻要求，同學需自行確認語言能力是否符合該校修課要求、查詢是否有相對應的系所及足夠的課程可供選讀、能否達到該校之每學期修課學分數要求、以及是否具備相關領域之背景知識，若未達標準，該校有權拒收。'],
67,特魯瓦科技大學,University of Technology of Troyes (UTT),法國,France,https://oia.ntu.edu.tw/outgoing/view/semester/1/sn/67,是,法語組,無,大二以上/碩一以上(不含博士生)學生,TOEFL iBT 79 (接受 Home Edition) 或 IELTS 6.0 或 全民英檢中高級；或具法語檢定成績 B1(中級) 級以上,無,全學年1名,Academic Calendar,須在本校註冊並繳交全額學雜費，免繳該校學費，但該校雜費、住宿費、生活費、保險費、往返機票費等均須自行負擔,Not guaranteed, but students can apply for housing. Please check this webpage for more information.,['交換學校一覽表所列之語言能力為該校之最低門檻要求，同學需自行確認語言能力是否符合該校修課要求、查詢是否有相對應的系所及足夠的課程可供選讀、能否達到該校之每學期修課學分數要求、以及是否具備相關領域之背景知識，若未達標準，該校有權拒收。'],48.269078
68,索邦大學（原皮耶及瑪麗居禮大學 ),Sorbonne University ( University Pierre and Marie CURIE ),法國,France,https://oia.ntu.edu.tw/outgoing/view/semester/1/sn/68,是,法語組,GPA 達3.00分以上,大二以上/碩一以上/博一以上學生,具法語檢定成績 B2(中高級) 級以上；或TOEFL iBT 80 (不接受 Home Edition) 或 IELTS 6.0,無,Faculty of Lettres全學年2名；Faculty of Science & Engineering全學年6名,Faculty of Lettres；Faculty of Science and Engineering,須在本校註冊並繳交全額學雜費，免繳該校學費，但該校雜費、住宿費、生活費、保險費、往返機票費等均須自行負擔,Not guaranteed but students can apply for housing. More information here (Faculty of Lettres) and here (Faculty of Science and Engineering).,交換學校一覽表所列之語言能力為該校之最低門檻要求，同學需自行確認語言能力是否符合該校修課要求、查詢是否有相對應的系所及足夠的課程可供選讀、能否達到該校之每學期修課學分數要求、以及是否具備相關領域之背景知識，若未達標準，該校有權拒收。,,48.8468997
66,巴黎高等政治學院,Institut d’Études Politiques de Paris (Sciences Po),法國,France,https://oia.ntu.edu.tw/outgoing/view/semester/1/sn/66,是,法語組,無,大二以上/碩一以上/博一以上學生,學士生TOEFL iBT 100 (接受 Home Edition) 或 IELTS 6.5；或具法語檢定成績 B2(中高級) 級以上；研究生TOEFL iBT 100 (接受 Home Edition) 或 IELTS 6.5；或具法語檢定成績 C1(高級) 級以上,無,全學年8名,Academic Calendar,須在本校註冊並繳交全額學雜費，免繳該校學費，但該校雜費、住宿費、生活費、保險費、往返機票費等均須自行負擔,Students must arrange for housing on their own. More information here.,交換學校一覽表所列之語言能力為該校之最低門檻要求，同學需自行確認語言能力是否符合該校修課要求、查詢是否有足夠的課程可供選讀、能否達到該校之每學期修課學分數要求、以及是否具備相關領域之背景知識，若未達標準，該校有權拒收。,,48.8538978
65,尚慕蘭里昂第三大學,University Jean Moulin - Lyon 3,法國,France,https://oia.ntu.edu.tw/outgoing/view/semester/1/sn/65,否,法語組,無,大二以上/碩一以上/博一以上學生,TOEFL iBT 80 (讀 20 聽 20 說 20 寫 20 不接受 Home Edition) 或 IELTS 6.5 (聽 6.0 讀 6.0 寫 6.0 說 6.0)；或具法語檢定成績 B1(中級) 級以上,無,全學年2名,Academic Calendar,須在本校註冊並繳交全額學雜費，免繳該校學費，但該校雜費、住宿費、生活費、保險費、往返機票費等均須自行負擔,Off-campus housing is guaranteed. More information here.,交換學校一覽表所列之語言能力為該校之最低門檻要求，同學需自行確認語言能力是否符合該校修課要求、查詢是否有相對應的系所及足夠的課程可供選讀、能否達到該校之每學期修課學分數要求、以及是否具備相關領域之背景知識，若未達標準，該校有權拒收。,,
63,科諾伯勒阿爾卑斯大學,University Grenoble Alpes (UGA),法國,France,https://oia.ntu.edu.tw/outgoing/view/semester/1/sn/63,否,法語組,無,大二以上/碩一以上(不含博士生)學生,TOEFL iBT 79 (接受 Home Edition) 或 IELTS 6.0 或 全民英檢中高級；或具法語檢定成績 B2(中高級) 級以上,醫學院、公共衛生學院,全學年2名,The academic calendar may be different depending on the host faculty.,須在本校註冊並繳交全額學雜費，免繳該校學費，但該校雜費、住宿費、生活費、保險費、往返機票費等均須自行負擔,Accepted students will receive an e-mail, with login details to access the online accommodation platform. The deadlines will be specified when the housing procedure will be sent.,['交換學校一覽表所列之語言能力為該校之最低門檻要求，同學需自行確認語言能力是否符合該校修課要求、查詢是否有相對應的系所及足夠的課程可供選讀、能否達到該校之每學期修課學分數要求、以及是否具備相關領域之背景知識，若未達標準，該校有權拒收。'],44.9253263
1289,哥廷根大學,Georg-August-University Göttingen,德國,Germany,https://oia.ntu.edu.tw/outgoing/view/semester/1/sn/1289,是,德語組,無,大二以上/碩一以上(不含博士生)學生,TOEFL iBT 79 (不接受 Home Edition) 或 IELTS 6.5 或 全民英檢中高級；或具德語檢定成績 B2(中高級) 級以上,無,全學年2名,Winter term: mid-October to beginning of February；Summer term: mid-April to mid-July,須在本校註冊並繳交全額學雜費，免繳該校學費，但該校雜費、住宿費、生活費、保險費、往返機票費等均須自行負擔,Not guaranteed, but students can apply for housing. More information here.,['交換學校一覽表所列之語言能力為該校之最低門檻要求，同學需自行確認語言能力是否符合該校修課要求、查詢是否有相對應的系所及足夠的課程可供選讀、能否達到該校之每學期修課學分數要求、以及是否具備相關領域之背景知識，若未達標準，該校有權拒收。'],51.5592251
1286,德勒斯登工業大學,Dresden University of Technology (TUD),德國,Germany,https://oia.ntu.edu.tw/outgoing/view/semester/1/sn/1286,是,德語組,無,大三/大四/大五/碩一以上/博一以上學生,TOEFL iBT 90 (接受 Home Edition) 或 IELTS 6.5 或 全民英檢中高級；或具德語檢定成績 B1(中級) 級以上,醫學院、公共衛生學院,全學年2名,Academic Calendar,須在本校註冊並繳交全額學雜費，免繳該校學費，但該校雜費、住宿費、生活費、保險費、往返機票費等均須自行負擔,Not guaranteed, but students can apply for housing. Please note that it is not TU Dresden offering accommodation but the Studentenwerk.,['交換學校一覽表所列之語言能力為該校之最低門檻要求，同學需自行確認語言能力是否符合該校修課要求、查詢是否有相對應的系所及足夠的課程可供選讀、能否達到該校之每學期修課學分數要求、以及是否具備相關領域之背景知識，若未達標準，該校有權拒收。'],51.0514402
1200,明斯特大學,University of Münster,德國,Germany,https://oia.ntu.edu.tw/outgoing/view/semester/1/sn/1200,是,德語組,無,大二以上/碩一以上(不含博士生)學生,TOEFL iBT 85 (不接受 Home Edition) 或 IELTS 6.0 或 全民英檢中高級；或具德語檢定成績 B2(中高級) 級以上,無,全學年1名,Winter semester: 1. October 2026 – 31. March 2027；Summer semester: 1. April 2027 – 30. September 2027,須在本校註冊並繳交全額學雜費，免繳該校學費，但該校雜費、住宿費、生活費、保險費、往返機票費等均須自行負擔,Students must arrange for housing on their own. More information here.,交換學校一覽表所列之語言能力為該校之最低門檻要求，同學需自行確認語言能力是否符合該校修課要求、查詢是否有相對應的系所及足夠的課程可供選讀、能否達到該校之每學期修課學分數要求、以及是否具備相關領域之背景知識，若未達標準，該校有權拒收。,,51.9673422
141,達姆施塔特工業大學,Technical University of Darmstadt,德國,Germany,https://oia.ntu.edu.tw/outgoing/view/semester/1/sn/141,否,德語組,GPA 達3.30分以上,大三/大四/大五/碩一以上(不含博士生)學生,TOEFL iBT 79 (不接受 Home Edition) 或 IELTS 6.0 或 全民英檢中高級；或具德語檢定成績 B2(中高級) 級以上,理學院心理學系、理學院心理學研究所、法律學院,全學年3名,Winter semester: October to February；Summer semester: April to July,須在本校註冊並繳交全額學雜費，免繳該校學費，但該校雜費、住宿費、生活費、保險費、往返機票費等均須自行負擔,Accommodation in student dormitories is available, but cannot be guaranteed due to limited capacities.,['交換學校一覽表所列之語言能力為該校之最低門檻要求，同學需自行確認語言能力是否符合該校修課要求、查詢是否有相對應的系所及足夠的課程可供選讀、能否達到該校之每學期修課學分數要求、以及是否具備相關領域之背景知識，若未達標準，該校有權拒收。'],
616,康斯坦茨大學,University of Konstanz,德國,Germany,https://oia.ntu.edu.tw/outgoing/view/semester/1/sn/616,否,德語組,GPA 達3.00分以上,大二/大三/大四/碩一/碩二(不含博士生)學生,TOEFL iBT 79 (不接受 Home Edition) 或 IELTS 6.0 或 全民英檢中高級；或具德語檢定成績 B2(中高級) 級以上,無,全學年2名,"Academic Calendar (Drop-down list ""Important dates"")",須在本校註冊並繳交全額學雜費，免繳該校學費，但該校雜費、住宿費、生活費、保險費、往返機票費等均須自行負擔,Seezeit student services is the largest provider of student accommodation in Konstanz. The rooms are usually in single or double occupancy apartments as well as in shared flats (WGs = Wohngemeinschaft).,交換學校一覽表所列之語言能力為該校之最低門檻要求，同學需自行確認語言能力是否符合該校修課要求、查詢是否有相對應的系所及足夠的課程可供選讀、能否達到該校之每學期修課學分數要求、以及是否具備相關領域之背景知識，若未達標準，該校有權拒收。,,47.6899569
354,柏林洪堡大學,Humboldt-University Berlin,德國,Germany,https://oia.ntu.edu.tw/outgoing/view/semester/1/sn/354,否,德語組,GPA 達3.00分以上,大二/大三/大四/碩一/碩二(不含博士生)學生,TOEFL iBT 80 (不接受 Home Edition) 或 IELTS 6.0；或具德語檢定成績 B2(中高級) 級以上,醫學院、公共衛生學院、文學院歷史學研究所,全學年2名,Academic Calendar,須在本校註冊並繳交全額學雜費，免繳該校學費，但該校雜費、住宿費、生活費、保險費、往返機票費等均須自行負擔,On-campus accommodation is NOT available。,交換學校一覽表所列之語言能力為該校之最低門檻要求，同學需自行確認語言能力是否符合該校修課要求、查詢是否有相對應的系所及足夠的課程可供選讀、能否達到該校之每學期修課學分數要求、以及是否具備相關領域之背景知識，若未達標準，該校有權拒收。,,52.5185794
893,斯圖加特大學,University of Stuttgart,德國,Germany,https://oia.ntu.edu.tw/outgoing/view/semester/1/sn/893,否,德語組,無,大二以上/碩一以上(不含博士生)學生,TOEFL iBT 79 (不接受 Home Edition) 或 IELTS 6.0；或具德語檢定成績 B2(中高級) 級以上,無,全學年4名,Winter semester: October 1 – March 31；Summer semester: April 1 – September 30,須在本校註冊並繳交全額學雜費，免繳該校學費，但該校雜費、住宿費、生活費、保險費、往返機票費等均須自行負擔,The International Office can arrange housing for exchange students from overseas in student dorms on request.,交換學校一覽表所列之語言能力為該校之最低門檻要求，同學需自行確認語言能力是否符合該校修課要求、查詢是否有相對應的系所及足夠的課程可供選讀、能否達到該校之每學期修課學分數要求、以及是否具備相關領域之背景知識，若未達標準，該校有權拒收。,,48.7133801
897,弗萊堡大學,University of Freiburg,德國,Germany,https://oia.ntu.edu.tw/outgoing/view/semester/1/sn/897,是,德語組,GPA 達3.00分以上,大二以上/碩一以上(不含博士生)學生,TOEFL iBT 85 (不接受 Home Edition) 或 IELTS 6.0 或 全民英檢中高級；或具德語檢定成績 B2(中高級) 級以上,醫學院、公共衛生學院、理學院心理學系、理學院心理學研究所,全學年1名,Academic Calendar,須在本校註冊並繳交全額學雜費，免繳該校學費，但該校雜費、住宿費、生活費、保險費、往返機票費等均須自行負擔,Housing information,交換學校一覽表所列之語言能力為該校之最低門檻要求，同學需自行確認語言能力是否符合該校修課要求、查詢是否有相對應的系所及足夠的課程可供選讀、能否達到該校之每學期修課學分數要求、以及是否具備相關領域之背景知識，若未達標準，該校有權拒收。,,46.793058
98,魯耳波洪大學,Ruhr-University Bochum,德國,Germany,https://oia.ntu.edu.tw/outgoing/view/semester/1/sn/98,是,德語組,無,大二以上/碩一以上/博一以上學生,TOEFL iBT 79 (不接受 Home Edition) 或 IELTS 6.0 或 全民英檢中高級；或具德語檢定成績 B2(中高級) 級以上,無,全學年4名,Academic calendar,須在本校註冊並繳交全額學雜費，免繳該校學費，但該校雜費、住宿費、生活費、保險費、往返機票費等均須自行負擔,The International Office offers a special service for exchange students. Students can apply for accommodation for the duration of their exchange (1-2 semesters).,交換學校一覽表所列之語言能力為該校之最低門檻要求，同學需自行確認語言能力是否符合該校修課要求、查詢是否有相對應的系所及足夠的課程可供選讀、能否達到該校之每學期修課學分數要求、以及是否具備相關領域之背景知識，若未達標準，該校有權拒收。,,51.4441576
380,柏林工業大學,Technical University of Berlin,德國,Germany,https://oia.ntu.edu.tw/outgoing/view/semester/1/sn/380,否,德語組,無,大二以上/碩一以上(不含博士生)學生,TOEFL iBT 87 (不接受 Home Edition) 或 IELTS 6.0 或 全民英檢中高級；或具德語檢定成績 B2(中高級) 級以上,建築類型、建築永續發展、能源管理、歐盟與國際能源法、全球生產工程、創新管理企業家精神與永續發展、城市管理、房地產管理、科學管理、空間工程、舞台設計與景觀設計、永續移動管理、城市設計,全學年2名,Academic Calendar,須在本校註冊並繳交全額學雜費，免繳該校學費，但該校雜費、住宿費、生活費、保險費、往返機票費等均須自行負擔,Exchange students can apply for one of our dorm rooms provided by the studierendenWERK Berlin (rent: €350 - €400).,交換學校一覽表所列之語言能力為該校之最低門檻要求，同學需自行確認語言能力是否符合該校修課要求、查詢是否有相對應的系所及足夠的課程可供選讀、能否達到該校之每學期修課學分數要求、以及是否具備相關領域之背景知識，若未達標準，該校有權拒收。,,
391,慕尼黑大學,Ludwig Maximilian University of Munich,德國,Germany,https://oia.ntu.edu.tw/outgoing/view/semester/1/sn/391,是,德語組,GPA 達3.30分以上,大二以上/碩一以上/博一以上學生,TOEFL iBT 90 (不接受 Home Edition) 或 IELTS 6.0；或具德語檢定成績 B2(中高級) 級以上,醫學院、公共衛生學院、生物資源暨農學院獸醫學系、生物資源暨農學院獸醫學研究所、生物資源暨農學院臨床動物醫學研究所、藥學系、牙醫學系,全學年4名,Academic Calendar,須在本校註冊並繳交全額學雜費，免繳該校學費，但該校雜費、住宿費、生活費、保險費、往返機票費等均須自行負擔,Not guaranteed, but students can apply for housing. More information here.,['交換學校一覽表所列之語言能力為該校之最低門檻要求，同學需自行確認語言能力是否符合該校修課要求、查詢是否有相對應的系所及足夠的課程可供選讀、能否達到該校之每學期修課學分數要求、以及是否具備相關領域之背景知識，若未達標準，該校有權拒收。'],48.1504757
595,曼漢姆大學,University of Mannheim,德國,Germany,https://oia.ntu.edu.tw/outgoing/view/semester/1/sn/595,否,德語組,無,大二以上/碩一以上(不含博士生)學生,TOEFL iBT 80 (接受 Home Edition) 或 IELTS 6.5 或 全民英檢中高級；或具德語檢定成績 B2(中高級) 級以上,管理學院,一學期3名,Academic Calendar,須在本校註冊並繳交全額學雜費，免繳該校學費，但該校雜費、住宿費、生活費、保險費、往返機票費等均須自行負擔,Not guaranteed, but students can apply for housing. More information here.,['交換學校一覽表所列之語言能力為該校之最低門檻要求，同學需自行確認語言能力是否符合該校修課要求、查詢是否有相對應的系所及足夠的課程可供選讀、能否達到該校之每學期修課學分數要求、以及是否具備相關領域之背景知識，若未達標準，該校有權拒收。'],49.483885
99,漢堡大學,University of Hamburg,德國,Germany,https://oia.ntu.edu.tw/outgoing/view/semester/1/sn/99,是,德語組,無,大二以上/碩一以上/博一以上學生,TOEFL iBT 85 (接受 Home Edition) 或 IELTS 6.0 或 全民英檢中高級；或具德語檢定成績 B1(中級) 級以上,醫學院牙醫學系、醫學院藥學系、醫學院臨床牙醫學研究所、醫學院藥學研究所,全學年5名,Academic Calendar,須在本校註冊並繳交全額學雜費，免繳該校學費，但該校雜費、住宿費、生活費、保險費、往返機票費等均須自行負擔,A limited number of rooms in student residences are available for incoming exchange students; rents vary (EUR330–450).,交換學校一覽表所列之語言能力為該校之最低門檻要求，同學需自行確認語言能力是否符合該校修課要求、查詢是否有足夠的課程可供選讀、能否達到該校之每學期修課學分數要求、以及是否具備相關領域之背景知識，若未達標準，該校有權拒收。,,53.564106
247,亞亨工業大學,RWTH Aachen University,德國,Germany,https://oia.ntu.edu.tw/outgoing/view/semester/1/sn/247,是,德語組,無,大二以上/碩一以上/博一以上學生,TOEFL iBT 79 (不接受 Home Edition) 或 IELTS 6.0 或 全民英檢中高級；或具德語檢定成績 B1(中級) 級以上,無,全學年4名,Academic Calendar,須在本校註冊並繳交全額學雜費，免繳該校學費，但該校雜費、住宿費、生活費、保險費、往返機票費等均須自行負擔,Not guaranteed. A limited number of quota rooms in student dorms are available for exchange students (application details will be provided).,交換學校一覽表所列之語言能力為該校之最低門檻要求，同學需自行確認語言能力是否符合該校修課要求、查詢是否有相對應的系所及足夠的課程可供選讀、能否達到該校之每學期修課學分數要求、以及是否具備相關領域之背景知識，若未達標準，該校有權拒收。,,50.7791657
292,慕尼黑工業大學,Technical University of Munich,德國,Germany,https://oia.ntu.edu.tw/outgoing/view/semester/1/sn/292,否,德語組,無,大二以上/碩一以上(不含博士生)學生,TOEFL iBT 79 (不接受 Home Edition) 或 IELTS 6.0；或具德語檢定成績 B1(中級) 級以上,無,全學年7名,Winter semester: October 1 – March 31；Summer semester: April 1 – September 30,須在本校註冊並繳交全額學雜費，免繳該校學費，但該校雜費、住宿費、生活費、保險費、往返機票費等均須自行負擔,The TUM Global Office receives a limited number of dormitory offerings (Service Package) from Munich Student Union.,交換學校一覽表所列之語言能力為該校之最低門檻要求，同學需自行確認語言能力是否符合該校修課要求、查詢是否有相對應系所及足夠的課程可供選讀、能否達到該校之每學期修課學分數要求、以及是否具備相關領域之背景知識，若未達標準，該校有權拒收。,,48.2654976
75,杜賓根大學,University of Tübingen,德國,Germany,https://oia.ntu.edu.tw/outgoing/view/semester/1/sn/75,否,德語組,無,大二以上/碩一以上(不含博士生)學生,TOEFL iBT 92 (接受 Home Edition) 或 IELTS 6.5 或 全民英檢中高級；或具德語檢定成績 B2(中高級) 級以上,醫學院,全學年3名,Academic Calendar,須在本校註冊並繳交全額學雜費，免繳該校學費，但該校雜費、住宿費、生活費、保險費、往返機票費等均須自行負擔,The University of Tübingen has a yearly quota of rooms that are reserved solely for exchange students.,交換學校一覽表所列之語言能力為該校之最低門檻要求，同學需自行確認語言能力是否符合該校修課要求、查詢是否有相對應的系所及足夠的課程可供選讀、能否達到該校之每學期修課學分數要求、以及是否具備相關領域之背景知識，若未達標準，該校有權拒收。,,48.5340595
76,烏爾姆大學,Ulm University,德國,Germany,https://oia.ntu.edu.tw/outgoing/view/semester/1/sn/76,是,德語組,無,大二以上/碩一以上(不含博士生)學生,TOEFL iBT 79 (不接受 Home Edition) 或 IELTS 6.0 或 全民英檢中高級；或具德語檢定成績 B2(中高級) 級以上,醫學院、公共衛生學院、進階專業研究學院,全學年1名,Academic Calendar,須在本校註冊並繳交全額學雜費，免繳該校學費，但該校雜費、住宿費、生活費、保險費、往返機票費等均須自行負擔,Not guaranteed, but students can apply for housing. More information here.,['交換學校一覽表所列之語言能力為該校之最低門檻要求，同學需自行確認語言能力是否符合該校修課要求、查詢是否有相對應的系所及足夠的課程可供選讀、能否達到該校之每學期修課學分數要求、以及是否具備相關領域之背景知識，若未達標準，該校有權拒收。'],48.4086307
71,波昂大學,University of Bonn,德國,Germany,https://oia.ntu.edu.tw/outgoing/view/semester/1/sn/71,否,德語組,GPA 達3.30分以上,大二以上/碩一以上(不含博士生)學生,TOEFL iBT 85 (接受 Home Edition) 或 IELTS 6.5 或 全民英檢中高級；或具德語檢定成績 B2(中高級) 級以上,醫學院、公共衛生學院,全學年1名,Academic Calendar,須在本校註冊並繳交全額學雜費，免繳該校學費，但該校雜費、住宿費、生活費、保險費、往返機票費等均須自行負擔,Students can apply for a room in a dorm owned by the Studierendenwerk Bonn via the online application page.,交換學校一覽表所列之語言能力為該校之最低門檻要求，同學需自行確認語言能力是否符合該校修課要求、查詢是否有相對應的系所及足夠的課程可供選讀、能否達到該校之每學期修課學分數要求、以及是否具備相關領域之背景知識，若未達標準，該校有權拒收。,,50.7338124
72,卡爾斯魯爾理工學院,Karlsruhe Institute of Technology,德國,Germany,https://oia.ntu.edu.tw/outgoing/view/semester/1/sn/72,否,德語組,無,大二以上/碩一以上(不含博士生)學生,TOEFL iBT 79 (不接受 Home Edition) 或 IELTS 6.0 或 全民英檢中高級；或具德語檢定成績 B1(中級) 級以上,Hector School and School of Optics and Photonics,全學年5名,Academic Calendar,須在本校註冊並繳交全額學雜費，免繳該校學費，但該校雜費、住宿費、生活費、保險費、往返機票費等均須自行負擔,KIT reserves rooms for students from partner universities in students' residences if possible. Students need to apply for them. Rooms are not assigned automatically.,交換學校一覽表所列之語言能力為該校之最低門檻要求，同學需自行確認語言能力是否符合該校修課要求、查詢是否有相對應的系所及足夠的課程可供選讀、能否達到該校之每學期修課學分數要求、以及是否具備相關領域之背景知識，若未達標準，該校有權拒收。,,49.1018534
73,艾朗根紐倫堡大學,Friedrich-Alexander - University Erlangen-Nurnberg,德國,Germany,https://oia.ntu.edu.tw/outgoing/view/semester/1/sn/73,是,德語組,無,大二以上/碩一以上(不含博士生)學生,TOEFL iBT 87 (不接受 Home Edition) 或 IELTS 6.0 或 全民英檢中高級；或具德語檢定成績 B2(中高級) 級以上,社會科學院經濟學系、社會科學院經濟學研究所、醫學院、管理學院、公共衛生學院、法律學院、理學院心理學系、理學院心理學研究所,Economics全學年1名；non-Economics全學年2名,Academic Calendar,須在本校註冊並繳交全額學雜費，免繳該校學費，但該校雜費、住宿費、生活費、保險費、往返機票費等均須自行負擔,Exchange students will receive information on accommodation after their application. Information to housing search can be found online.,交換學校一覽表所列之語言能力為該校之最低門檻要求，同學需自行確認語言能力是否符合該校修課要求、查詢是否有相對應的系所及足夠的課程可供選讀、能否達到該校之每學期修課學分數要求、以及是否具備相關領域之背景知識，若未達標準，該校有權拒收。,,
74,多特蒙德工業大學,TU Dortmund University,德國,Germany,https://oia.ntu.edu.tw/outgoing/view/semester/1/sn/74,是,德語組,無,大二以上/碩一以上(不含博士生)學生,TOEFL iBT 79 (接受 Home Edition) 或 IELTS 6.0 或 全民英檢中高級；或具德語檢定成績 B2(中高級) 級以上,無,全學年2名,Academic Calendar,須在本校註冊並繳交全額學雜費，免繳該校學費，但該校雜費、住宿費、生活費、保險費、往返機票費等均須自行負擔,Students receive on-campus or off-campus housing provided they apply for it and complete all necessary steps,交換學校一覽表所列之語言能力為該校之最低門檻要求，同學需自行確認語言能力是否符合該校修課要求、查詢是否有相對應的系所及足夠的課程可供選讀、能否達到該校之每學期修課學分數要求、以及是否具備相關領域之背景知識，若未達標準，該校有權拒收。,,51.4914844
70,海德堡大學,Heidelberg University,德國,Germany,https://oia.ntu.edu.tw/outgoing/view/semester/1/sn/70,是,德語組,GPA 達3.30分以上,大二以上/碩一以上(不含博士生)學生,TOEFL iBT 80 (不接受 Home Edition) 或 IELTS 6.0；或具德語檢定成績 B2(中高級) 級以上,醫學院、公共衛生學院、管理學院、生物資源暨農學院,全學年2名,Academic Calendar,須在本校註冊並繳交全額學雜費，免繳該校學費，但該校雜費、住宿費、生活費、保險費、往返機票費等均須自行負擔,On-campus housing not guaranteed. More information here.,交換學校一覽表所列之語言能力為該校之最低門檻要求，同學需自行確認語言能力是否符合該校修課要求、查詢是否有相對應的系所及足夠的課程可供選讀、能否達到該校之每學期修課學分數要求、以及是否具備相關領域之背景知識，若未達標準，該校有權拒收。,,49.4186003
69,柏林自由大學,Free University of Berlin,德國,Germany,https://oia.ntu.edu.tw/outgoing/view/semester/1/sn/69,否,德語組,無,大二以上/碩一以上/博一以上學生,TOEFL iBT 90 (不接受 Home Edition) 或 IELTS 6.5；或具德語檢定成績 B2(中高級) 級以上,醫學院、生物資源暨農學院獸醫學系、生物資源暨農學院獸醫學研究所,全學年1名,Academic Calendar,須在本校註冊並繳交全額學雜費，免繳該校學費，但該校雜費、住宿費、生活費、保險費、往返機票費等均須自行負擔,The accommodation service offers a variety of accommodation options, including dorms,"[' shared flats and fully furnished single apartments.', '交換學校一覽表所列之語言能力為該校之最低門檻要求，同學需自行確認語言能力是否符合該校修課要求、查詢是否有相對應的系所及足夠的課程可供選讀、能否達到該校之每學期修課學分數要求、以及是否具備相關領域之背景知識，若未達標準，該校有權拒收。']",
1287,雅典大學,National and Kapodistrian University of Athens,希臘,Greece,https://oia.ntu.edu.tw/outgoing/view/semester/1/sn/1287,是,一般組,GPA 達3.50分以上,大二以上(僅限大學部)學生,TOEFL iBT 90 (不接受 Home Edition) 或 IELTS 6.5 或 全民英檢中高級,無,全學年2名,Academic Calendar,須在本校註冊並繳交全額學雜費，免繳該校學費，但該校雜費、住宿費、生活費、保險費、往返機票費等均須自行負擔,Not guaranteed, but students can apply for housing. More information here.,['交換學校一覽表所列之語言能力為該校之最低門檻要求，同學需自行確認語言能力是否符合該校修課要求、查詢是否有相對應的系所及足夠的課程可供選讀、能否達到該校之每學期修課學分數要求、以及是否具備相關領域之背景知識，若未達標準，該校有權拒收。'],37.970038
1203,布達佩斯考文紐斯大學,Corvinus University of Budapest,匈牙利,Hungary,https://oia.ntu.edu.tw/outgoing/view/semester/1/sn/1203,是,一般組,無,大二以上/碩一以上/博一以上學生,TOEFL iBT 79 (不接受 Home Edition) 或 IELTS 6.0 或 全民英檢中高級,無,全學年1名,Academic Calendar,須在本校註冊並繳交全額學雜費，免繳該校學費，但該校雜費、住宿費、生活費、保險費、往返機票費等均須自行負擔,While Corvinus University cannot offer on-campus (dormitory) accommodation, we do have a selected number of places that offer dormitory-like accommodation (checked by Corvinus staff members) at similar prices.,['交換學校一覽表所列之語言能力為該校之最低門檻要求，同學需自行確認語言能力是否符合該校修課要求、查詢是否有相對應的系所及足夠的課程可供選讀、能否達到該校之每學期修課學分數要求、以及是否具備相關領域之背景知識，若未達標準，該校有權拒收。'],47.4862802
1204,布達佩斯科技經濟大學,Budapest University of Technology and Economics,匈牙利,Hungary,https://oia.ntu.edu.tw/outgoing/view/semester/1/sn/1204,否,一般組,GPA 達3.00分以上,大二以上/碩一以上(不含博士生)學生,TOEFL iBT 79 (接受 Home Edition) 或 IELTS 6.0 或 全民英檢中高級,無,一學期1名,Academic Calendar,須在本校註冊並繳交全額學雜費，免繳該校學費，但該校雜費、住宿費、生活費、保險費、往返機票費等均須自行負擔,Students must arrange for housing on their own. More information here.,交換學校一覽表所列之語言能力為該校之最低門檻要求，同學需自行確認語言能力是否符合該校修課要求、查詢是否有相對應的系所及足夠的課程可供選讀、能否達到該校之每學期修課學分數要求、以及是否具備相關領域之背景知識，若未達標準，該校有權拒收。,,47.4784413
324,羅蘭大學,Eötvös Loránd University,匈牙利,Hungary,https://oia.ntu.edu.tw/outgoing/view/semester/1/sn/324,否,一般組,無,大二以上/碩一以上/博一以上學生,TOEFL iBT 79 (接受 Home Edition) 或 IELTS 6.0 或 全民英檢中高級,無,全學年1名,Academic Calendar,須在本校註冊並繳交全額學雜費，免繳該校學費，但該校雜費、住宿費、生活費、保險費、往返機票費等均須自行負擔,Students can apply for dormitory places or arrange their accommodation privately. Bilateral exchange students usually got a place in our dormitory. Dormitory fee in 2-beded room: approx. HUF 70000 per month. Check this webpage.,交換學校一覽表所列之語言能力為該校之最低門檻要求，同學需自行確認語言能力是否符合該校修課要求、查詢是否有相對應的系所及足夠的課程可供選讀、能否達到該校之每學期修課學分數要求、以及是否具備相關領域之背景知識，若未達標準，該校有權拒收。,,47.4934799
374,冰島大學,University of Iceland,冰島,Iceland,https://oia.ntu.edu.tw/outgoing/view/semester/1/sn/374,否,一般組,無,大二以上/碩一以上/博一以上學生,TOEFL iBT 79 (不接受 Home Edition) 或 IELTS 6.5,法律學院法律學系、社會科學院經濟學系、管理學院企業管理碩士專班、理學院心理學系、理學院心理學研究所、醫學院、公共衛生學院,全學年1名,Academic Calendar,須在本校註冊並繳交全額學雜費，免繳該校學費，但該校雜費、住宿費、生活費、保險費、往返機票費等均須自行負擔,The University of Iceland does not provide or guarantee housing for students but information on this website may be helpful.,交換學校一覽表所列之語言能力為該校之最低門檻要求，同學需自行確認語言能力是否符合該校修課要求、查詢是否有相對應的系所及足夠的課程可供選讀、能否達到該校之每學期修課學分數要求、以及是否具備相關領域之背景知識，若未達標準，該校有權拒收,,64.1401831
1295,米蘭理工大學,Politecnico di Milano,義大利,Italy,https://oia.ntu.edu.tw/outgoing/view/semester/1/sn/1295,是,一般組,無,大三/大四/大五/碩一以上(不含博士生)學生,TOEFL iBT 79 (不接受 Home Edition) 或 IELTS 6.0 或 全民英檢中高級,建築與設計學院,一學期2名,Academic Calendar,須在本校註冊並繳交全額學雜費，免繳該校學費，但該校雜費、住宿費、生活費、保險費、往返機票費等均須自行負擔,Students must arrange for housing on their own. More information here.,交換學校一覽表所列之語言能力為該校之最低門檻要求，同學需自行確認語言能力是否符合該校修課要求、查詢是否有相對應的系所及足夠的課程可供選讀、能否達到該校之每學期修課學分數要求、以及是否具備相關領域之背景知識，若未達標準，該校有權拒收。,,45.0482825
1051,聖心天主教大學,Catholic University of the Sacred Heart,義大利,Italy,https://oia.ntu.edu.tw/outgoing/view/semester/1/sn/1051,是,一般組,GPA 達2.70分以上,大二以上/碩一以上(不含博士生)學生,TOEFL iBT 79 (不接受 Home Edition) 或 IELTS 6.0 或 全民英檢中高級；或具義大利語能力證明,無,全學年1名,Academic Calendar,須在本校註冊並繳交全額學雜費，免繳該校學費，但該校雜費、住宿費、生活費、保險費、往返機票費等均須自行負擔,Students must arrange for housing on their own. More information here.,交換學校一覽表所列之語言能力為該校之最低門檻要求，同學需自行確認語言能力是否符合該校修課要求、查詢是否有相對應的系所及足夠的課程可供選讀、能否達到該校之每學期修課學分數要求、以及是否具備相關領域之背景知識，若未達標準，該校有權拒收。,,
1039,波隆納大學,University of Bologna (UNIBO),義大利,Italy,https://oia.ntu.edu.tw/outgoing/view/semester/1/sn/1039,否,一般組,無,大二以上/碩一以上(不含博士生)學生,TOEFL iBT 79 (接受 Home Edition) 或 IELTS 6.0 或 全民英檢中高級；或具義大利語能力證明,醫學院、公共衛生學院,全學年2名,Academic Calendar,須在本校註冊並繳交全額學雜費，免繳該校學費，但該校雜費、住宿費、生活費、保險費、往返機票費等均須自行負擔,Students must arrange for housing on their own. More information here.,交換學校一覽表所列之語言能力為該校之最低門檻要求，同學需自行確認語言能力是否符合該校修課要求、查詢是否有相對應的系所及足夠的課程可供選讀、能否達到該校之每學期修課學分數要求、以及是否具備相關領域之背景知識，若未達標準，該校有權拒收。,,44.4352269
535,拉脫維亞大學,University of Latvia,拉脫維亞,Latvia,https://oia.ntu.edu.tw/outgoing/view/semester/1/sn/535,否,一般組,GPA 達3.00分以上,大二以上/碩一以上(不含博士生)學生,TOEFL iBT 80 (接受 Home Edition) 或 IELTS 6.0 或 全民英檢中高級,工學院,全學年1名,Academic Calendar,須在本校註冊並繳交全額學雜費，免繳該校學費，但該校雜費、住宿費、生活費、保險費、往返機票費等均須自行負擔,Off-campus housing guaranteed. More information here.,交換學校一覽表所列之語言能力為該校之最低門檻要求，同學需自行確認語言能力是否符合該校修課要求、查詢是否有相對應的系所及足夠的課程可供選讀、能否達到該校之每學期修課學分數要求、以及是否具備相關領域之背景知識，若未達標準，該校有權拒收。,,56.950744
989,考納斯理工大學,Kaunas University of Technology,立陶宛,Lithuania,https://oia.ntu.edu.tw/outgoing/view/semester/1/sn/989,否,一般組,無,大二以上/碩一以上(不含博士生)學生,TOEFL iBT 79 (接受 Home Edition) 或 IELTS 6.0 或 全民英檢中高級,無,全學年1名,Academic Calendar,須在本校註冊並繳交全額學雜費，免繳該校學費，但該校雜費、住宿費、生活費、保險費、往返機票費等均須自行負擔,Not guaranteed, but students can apply for housing. More information here.,['交換學校一覽表所列之語言能力為該校之最低門檻要求，同學需自行確認語言能力是否符合該校修課要求、查詢是否有相對應的系所及足夠的課程可供選讀、能否達到該校之每學期修課學分數要求、以及是否具備相關領域之背景知識，若未達標準，該校有權拒收。'],54.8988052
1040,維爾紐斯大學,Vilnius University,立陶宛,Lithuania,https://oia.ntu.edu.tw/outgoing/view/semester/1/sn/1040,是,一般組,無,大二以上/碩一以上/博一以上學生,TOEFL iBT 79 (接受 Home Edition) 或 IELTS 6.0 或 全民英檢中高級,無,全學年2名,Academic Calendar,須在本校註冊並繳交全額學雜費，免繳該校學費，但該校雜費、住宿費、生活費、保險費、往返機票費等均須自行負擔,Not guaranteed, but students can apply for housing. More information here.,['交換學校一覽表所列之語言能力為該校之最低門檻要求，同學需自行確認語言能力是否符合該校修課要求、查詢是否有相對應的系所及足夠的課程可供選讀、能否達到該校之每學期修課學分數要求、以及是否具備相關領域之背景知識，若未達標準，該校有權拒收。'],54.682847
1100,盧森堡大學,University of Luxembourg,盧森堡,Luxembourg,https://oia.ntu.edu.tw/outgoing/view/semester/1/sn/1100,是,法語組/德語組,無,大二以上/碩一以上/博一以上學生,法語組：TOEFL iBT 88 (讀 22 聽 22 說 22 寫 22 接受 Home Edition) 或 IELTS 7.0 或 全民英檢中高級；或具法語檢定成績 B2(中高級) 級以上；德語組：TOEFL iBT 88 (讀 22 聽 22 說 22 寫 22 接受 Home Edition) 或 IELTS 7.0 或 全民英檢中高級；或具德語檢定成績 B2(中高級) 級以上,無,法語組全學年1名；德語組全學年1名,Academic Calendar,須在本校註冊並繳交全額學雜費，免繳該校學費，但該校雜費、住宿費、生活費、保險費、往返機票費等均須自行負擔,Not guaranteed, but students can apply for housing. More information here.,['交換學校一覽表所列之語言能力為該校之最低門檻要求，同學需自行確認語言能力是否符合該校修課要求、查詢是否有相對應的系所及足夠的課程可供選讀、能否達到該校之每學期修課學分數要求、以及是否具備相關領域之背景知識，若未達標準，該校有權拒收。'],49.5036259
1092,奈梅亨大學,Radboud University Nijmegen,荷蘭,Netherlands,https://oia.ntu.edu.tw/outgoing/view/semester/1/sn/1092,否,一般組,無,大二以上/碩一以上(不含博士生)學生,TOEFL iBT 80 (不接受 Home Edition) 或 IELTS 6.0,無,一學期1名,Academic Calendar,須在本校註冊並繳交全額學雜費，免繳該校學費，但該校雜費、住宿費、生活費、保險費、往返機票費等均須自行負擔,Radboud University offers support in finding housing, but unfortunately cannot give any guarantees. More information here.,['交換學校一覽表所列之語言能力為該校之最低門檻要求，同學需自行確認語言能力是否符合該校修課要求、查詢是否有相對應的系所及足夠的課程可供選讀、能否達到該校之每學期修課學分數要求、以及是否具備相關領域之背景知識，若未達標準，該校有權拒收。'],51.8215172
187,阿姆斯特丹自由大學,VU University Amsterdam,荷蘭,Netherlands,https://oia.ntu.edu.tw/outgoing/view/semester/1/sn/187,否,一般組,無,大二以上(僅限大學部)學生,TOEFL iBT 92 (接受 Home Edition) 或 IELTS 6.5,醫學院牙醫學系,全學年2名,Semester 1: 01/09/2025-31/01/2026；Semester 2: 02/02/2026-26/06/2026,須在本校註冊並繳交全額學雜費，免繳該校學費，但該校雜費、住宿費、生活費、保險費、往返機票費等均須自行負擔,Housing cannot be guaranteed. Students housing can only be rented for the full period (semester or a year).,交換學校一覽表所列之語言能力為該校之最低門檻要求，同學需自行確認語言能力是否符合該校修課要求、查詢是否有相對應的系所及足夠的課程可供選讀、能否達到該校之每學期修課學分數要求、以及是否具備相關領域之背景知識，若未達標準，該校有權拒收。,,52.3340539
81,馬斯垂克大學,Maastricht University,荷蘭,Netherlands,https://oia.ntu.edu.tw/outgoing/view/semester/1/sn/81,無,一般組,SBE：無；FPN：GPA 達3.70分以上；UCM：GPA 達3.30分以上,SBE：大二以上/碩一以上(不含博士生)學生；FPN：大二以上(僅限大學部)學生；UCM：大二學生,SBE/FPN：TOEFL iBT 79 (接受 Home Edition) 或 IELTS 6.0 或 全民英檢中高級；UCM：TOEFL iBT 90 (不接受 Home Edition) 或 IELTS 6.5,SBE：無；FPN：荷語授課課程不開放；UCM：無,SBE全學年4名；FPN全學年1名；UCM一學期1名,SBE: Academic Calendar (2024/2025)；FPN: Academic Calendar (2024/2025)；UCM: Academic Calendar (2024/2025),須在本校註冊並繳交全額學雜費，免繳該校學費，但該校雜費、住宿費、生活費、保險費、往返機票費等均須自行負擔,Students must arrange for housing on their own. More information here.,交換學校一覽表所列之語言能力為該校之最低門檻要求，同學需自行確認語言能力是否符合該校修課要求、查詢是否有相對應的系所及足夠的課程可供選讀、能否達到該校之每學期修課學分數要求、以及是否具備相關領域之背景知識，若未達標準，該校有權拒收。,,50.8472117
79,葛洛寧恩大學,University of Groningen,荷蘭,Netherlands,https://oia.ntu.edu.tw/outgoing/view/semester/1/sn/79,是,一般組,GPA 達3.00分以上,大二以上/碩一以上(不含博士生)學生,TOEFL iBT 90 (讀 21 聽 21 說 21 寫 21 不接受 Home Edition) 或 IELTS 6.5 (聽 6.0 讀 6.0 寫 6.0 說 6.0)；Faculty of Arts：TOEFL iBT 92 (讀 21 聽 21 說 21 寫 21 不接受 Home Edition) 或 IELTS 6.5 (聽 6.0 讀 6.0 寫 6.0 說 6.0),空間科學系、醫學系、神學與宗教學系、法律學院,一般組全學年5名；Faculty of Law一學期1名；Faculty of Arts全學年1名；Faculty of Science and Engineering全學年1名,Academic Calendar,須在本校註冊並繳交全額學雜費，免繳該校學費，但該校雜費、住宿費、生活費、保險費、往返機票費等均須自行負擔,Students will receive information from the international office of their faculty, to apply for housing with the housing office.,['交換學校一覽表所列之語言能力為該校之最低門檻要求，同學需自行確認語言能力是否符合該校修課要求、查詢是否有相對應系所及足夠的課程可供選讀、能否達到該校之每學期修課學分數要求、以及是否具備相關領域之背景知識，若未達標準，該校有權拒收。'],53.2194416
80,烏特列茲大學,Utrecht University,荷蘭,Netherlands,https://oia.ntu.edu.tw/outgoing/view/semester/1/sn/80,否,一般組,無,大二以上/碩一以上(不含博士生)學生,學士生TOEFL iBT 83 (不接受 Home Edition) 或 IELTS 6.5 (寫 5.5)；研究生TOEFL iBT 93 (不接受 Home Edition) 或 IELTS 6.5 (寫 6.0),醫學院、公共衛生學院、生物資源暨農學院獸醫學系、生物資源暨農學院獸醫學研究所、生物資源暨農學院臨床動物醫學研究所,全學年3名,Academic Calendar,須在本校註冊並繳交全額學雜費，免繳該校學費，但該校雜費、住宿費、生活費、保險費、往返機票費等均須自行負擔,Universities in the Netherlands do not own student housing. For new international Erasmus+ / Exchange students who meet the requirements, Utrecht University does offer a Reserved Accommodation Programme.,['交換學校一覽表所列之語言能力為該校之最低門檻要求，同學需自行確認語言能力是否符合該校修課要求、查詢是否有相對應的系所及足夠的課程可供選讀、能否達到該校之每學期修課學分數要求、以及是否具備相關領域之背景知識，若未達標準，該校有權拒收。'],52.1592134
78,萊頓大學,Leiden University,荷蘭,Netherlands,https://oia.ntu.edu.tw/outgoing/view/semester/1/sn/78,是,一般組,GPA 達3.50分以上,大二以上/碩一以上(不含博士生)學生,TOEFL iBT 90 (不接受 Home Edition) 或 IELTS 6.5,無,全學年4名,Academic calendar,須在本校註冊並繳交全額學雜費，免繳該校學費，但該校雜費、住宿費、生活費、保險費、往返機票費等均須自行負擔,Housing through Leiden University cannot be guaranteed, we insist that students also seek housing via other routes.,['交換學校一覽表所列之語言能力為該校之最低門檻要求，同學需自行確認語言能力是否符合該校修課要求、查詢是否有相對應的系所及足夠的課程可供選讀、能否達到該校之每學期修課學分數要求、以及是否具備相關領域之背景知識，若未達標準，該校有權拒收。'],52.1686355
82,奧斯陸大學,University of Oslo,挪威,Norway,https://oia.ntu.edu.tw/outgoing/view/semester/1/sn/82,否,一般組,無,大二以上/碩一以上(不含博士生)學生,學士生TOEFL iBT 79 (接受 Home Edition) 或 IELTS 6.0；研究生TOEFL iBT 90 (接受 Home Edition) 或 IELTS 6.5,醫學院、公共衛生學院、牙醫學院,全學年1名,Academic Calendar,須在本校註冊並繳交全額學雜費，免繳該校學費，但該校雜費、住宿費、生活費、保險費、往返機票費等均須自行負擔,The University of Oslo guarantees accommodation in the Student Welfare Organization (SIO)'s student villages, provided they apply by the given deadline.,['交換學校一覽表所列之語言能力為該校之最低門檻要求，同學需自行確認語言能力是否符合該校修課要求、查詢是否有相對應的系所及足夠的課程可供選讀、能否達到該校之每學期修課學分數要求、以及是否具備相關領域之背景知識，若未達標準，該校有權拒收。'],59.9414173
1206,華沙理工大學,Warsaw University of Technology,波蘭,Poland,https://oia.ntu.edu.tw/outgoing/view/semester/1/sn/1206,是,一般組,無,大二以上/碩一以上/博一以上學生,TOEFL iBT 87 (接受 Home Edition) 或 IELTS 6.0 或 全民英檢中高級,無,全學年2名,Academic Calendar,須在本校註冊並繳交全額學雜費，免繳該校學費，但該校雜費、住宿費、生活費、保險費、往返機票費等均須自行負擔,Candidates will be able to apply for dormitory. They will have to submit their applications through Online Accommodation System. Detailed information will be sent directly to candidates.,交換學校一覽表所列之語言能力為該校之最低門檻要求，同學需自行確認語言能力是否符合該校修課要求、查詢是否有足夠的課程可供選讀、能否達到該校之每學期修課學分數要求、以及是否具備相關領域之背景知識，若未達標準，該校有權拒收。,,52.2216394
1042,華沙大學,University of Warsaw,波蘭,Poland,https://oia.ntu.edu.tw/outgoing/view/semester/1/sn/1042,否,一般組,無,大二以上/碩一以上/博一以上學生,TOEFL iBT 79 (接受 Home Edition) 或 IELTS 6.0,工學院,全學年2名,Academic Calendar,須在本校註冊並繳交全額學雜費，免繳該校學費，但該校雜費、住宿費、生活費、保險費、往返機票費等均須自行負擔,A limited number of places available at dormitories for exchange students. The majority of places are in double rooms with a shared bathroom and kitchen.,交換學校一覽表所列之語言能力為該校之最低門檻要求，同學需自行確認語言能力是否符合該校修課要求、查詢是否有相對應的系所及足夠的課程可供選讀、能否達到該校之每學期修課學分數要求、以及是否具備相關領域之背景知識，若未達標準，該校有權拒收。,,52.2216394
388,波爾圖大學,University of Porto,葡萄牙,Portugal,https://oia.ntu.edu.tw/outgoing/view/semester/1/sn/388,是,一般組,GPA 達3.50分以上,大二以上(僅限大學部)學生,具葡萄牙語能力證明 ，A2以上檢定證書或本校修讀葡語4個學期以上成績及格證明,傳播科學,全學年1名,Academic Calendar,須在本校註冊並繳交全額學雜費，免繳該校學費，但該校雜費、住宿費、生活費、保險費、往返機票費等均須自行負擔,Housing is not guaranteed. Request for accommodation in the Application Form. Check here for more information.,交換學校一覽表所列之語言能力為該校之最低門檻要求，同學需自行確認語言能力是否符合該校修課要求、查詢是否有相對應的系所及足夠的課程可供選讀、能否達到該校之每學期修課學分數要求、以及是否具備相關領域之背景知識，若未達標準，該校有權拒收。,,41.1784933
1300,普里斯汀納大學,University of Prishtina,科索沃,Kosovo,https://oia.ntu.edu.tw/outgoing/view/semester/1/sn/1300,是,一般組,GPA 達2.44分以上,大二以上/碩一以上/博一以上學生,無,無,全學年2名,無,無,無,無,,42.6575808
1207,盧比安納大學,University of Ljubljana,斯洛維尼亞,Slovenia,https://oia.ntu.edu.tw/outgoing/view/semester/1/sn/1207,否,一般組,無,大二以上/碩一以上/博一以上學生,TOEFL iBT 79 (不接受 Home Edition) 或 IELTS 6.0 或 全民英檢中高級,無,全學年2名,Academic Calendar,須在本校註冊並繳交全額學雜費，免繳該校學費，但該校雜費、住宿費、生活費、保險費、往返機票費等均須自行負擔,Not guaranteed, but students can apply for housing. More information here.,['交換學校一覽表所列之語言能力為該校之最低門檻要求，同學需自行確認語言能力是否符合該校修課要求、查詢是否有相對應的系所及足夠的課程可供選讀、能否達到該校之每學期修課學分數要求、以及是否具備相關領域之背景知識，若未達標準，該校有權拒收。'],46.0744053
1294,馬德里卡洛斯三世大學,Charles III University of Madrid (UC3M),西班牙,Spain,https://oia.ntu.edu.tw/outgoing/view/semester/1/sn/1294,是,西語組,無,大二/大三/大四學生,TOEFL iBT 79 (接受 Home Edition) 或 IELTS 6.0 或 全民英檢中高級；或具西語檢定成績 B2(中高級) 級以上,無,全學年3名,Academic Calendar,須在本校註冊並繳交全額學雜費，免繳該校學費，但該校雜費、住宿費、生活費、保險費、往返機票費等均須自行負擔,Please check our document on the website regarding how to avoid rental scams. We strongly recommend you to assure your housing before arriving in Madrid.,交換學校一覽表所列之語言能力為該校之最低門檻要求，同學需自行確認語言能力是否符合該校修課要求、查詢是否有相對應的系所及足夠的課程可供選讀、能否達到該校之每學期修課學分數要求、以及是否具備相關領域之背景知識，若未達標準，該校有權拒收。,,40.3165632
1156,巴塞隆納大學,University of Barcelona,西班牙,Spain,https://oia.ntu.edu.tw/outgoing/view/semester/1/sn/1156,否,西語組,無,大二/大三學生,TOEFL iBT 80 (不接受 Home Edition) 或 IELTS 6.0；或具西語檢定成績 B1(中級) 級以上,醫學院、公共衛生學院、社會科學院經濟學系、護理學系,全學年2名,Academic Calendar,須在本校註冊並繳交全額學雜費，免繳該校學費，但該校雜費、住宿費、生活費、保險費、往返機票費等均須自行負擔,The Barcelona University Centre (BCU) provides the information you need to know to live and to study in Barcelona.,交換學校一覽表所列之語言能力為該校之最低門檻要求，同學需自行確認語言能力是否符合該校修課要求、查詢是否有相對應的系所及足夠的課程可供選讀、能否達到該校之每學期修課學分數要求、以及是否具備相關領域之背景知識，若未達標準，該校有權拒收。,,41.3868596
1007,馬德里大學,Complutense University of Madrid,西班牙,Spain,https://oia.ntu.edu.tw/outgoing/view/semester/1/sn/1007,是,西語組,無,大二以上/碩一以上/博一以上學生,學士生具西語檢定成績 B1(中級) 級以上；研究生具西語檢定成績 B2(中高級) 級以上,無,一學期1名,Academic Calendar,須在本校註冊並繳交全額學雜費，免繳該校學費，但該校雜費、住宿費、生活費、保險費、往返機票費等均須自行負擔,On-campus housing is guaranteed. More information please refer to the following websites.Alojamiento en la UCMHalls of Residence,交換學校一覽表所列之語言能力為該校之最低門檻要求，同學需自行確認語言能力是否符合該校修課要求、查詢是否有相對應的系所及足夠的課程可供選讀、能否達到該校之每學期修課學分數要求、以及是否具備相關領域之背景知識，若未達標準，該校有權拒收。,,40.4314742
1041,聖地牙哥．孔波斯特拉大學,University of Santiago de Compostela,西班牙,Spain,https://oia.ntu.edu.tw/outgoing/view/semester/1/sn/1041,是,西語組,無,大二以上(僅限大學部)學生,具西語檢定成績 B1(中級) 級以上,醫學院、公共衛生學院,全學年2名,Academic Calendar,須在本校註冊並繳交全額學雜費，免繳該校學費，但該校雜費、住宿費、生活費、保險費、往返機票費等均須自行負擔,Not guaranteed, but students can apply for housing. More information here.,['交換學校一覽表所列之語言能力為該校之最低門檻要求，同學需自行確認語言能力是否符合該校修課要求、查詢是否有相對應的系所及足夠的課程可供選讀、能否達到該校之每學期修課學分數要求、以及是否具備相關領域之背景知識，若未達標準，該校有權拒收。'],42.8874537
968,薩拉曼卡大學,University of Salamanca,西班牙,Spain,https://oia.ntu.edu.tw/outgoing/view/semester/1/sn/968,是,西語組,無,大二以上/碩一以上(不含博士生)學生,具西語檢定成績 B1(中級) 級以上,無,全學年2名,Calendar1st semester: September - February2nd semester: February - June,須在本校註冊並繳交全額學雜費，免繳該校學費，但該校雜費、住宿費、生活費、保險費、往返機票費等均須自行負擔,Not guaranteed, but students can apply for housing. More information here / Private accommodation,['交換學校一覽表所列之語言能力為該校之最低門檻要求，同學需自行確認語言能力是否符合該校修課要求、查詢是否有相對應的系所及足夠的課程可供選讀、能否達到該校之每學期修課學分數要求、以及是否具備相關領域之背景知識，若未達標準，該校有權拒收。'],40.9621455
958,龐貝法布拉大學,Pompeu Fabra University,西班牙,Spain,https://oia.ntu.edu.tw/outgoing/view/semester/1/sn/958,是,西語組,無,大二以上(僅限大學部)學生,TOEFL iBT 79 (接受 Home Edition) 或 IELTS 6.0 或 全民英檢中高級；或具西語檢定成績 B1(中級) 級以上,無,全學年2名,Academic Calendar (> Academic calendar),須在本校註冊並繳交全額學雜費，免繳該校學費，但該校雜費、住宿費、生活費、保險費、往返機票費等均須自行負擔,The Mobility and Reception Office does not provide any accommodation service directly. However, UPF is a member of the BCU,"[' a public service that assists international students coming to Barcelona. It manages the BCU Housing Service with a wide range of flats and rooms to rent and information about student residence halls. UPF has direct agreements with some residence halls. More information check here.', '交換學校一覽表所列之語言能力為該校之最低門檻要求，同學需自行確認語言能力是否符合該校修課要求、查詢是否有相對應的系所及足夠的課程可供選讀、能否達到該校之每學期修課學分數要求、以及是否具備相關領域之背景知識，若未達標準，該校有權拒收。']",41.4043275
825,馬德里自治大學,Autonomous University of Madrid,西班牙,Spain,https://oia.ntu.edu.tw/outgoing/view/semester/1/sn/825,是,西語組,無,大二以上/碩一以上/博一以上學生,TOEFL iBT 90 (不接受 Home Edition) 或 IELTS 6.5；或具西語檢定成績 B1(中級) 級以上,師資培訓與教育,全學年2名,Academic Calendar,須在本校註冊並繳交全額學雜費，免繳該校學費，但該校雜費、住宿費、生活費、保險費、往返機票費等均須自行負擔,Students must arrange for housing on their own with Housing Office support. More information here.,交換學校一覽表所列之語言能力為該校之最低門檻要求，同學需自行確認語言能力是否符合該校修課要求、查詢是否有相對應的系所及足夠的課程可供選讀、能否達到該校之每學期修課學分數要求、以及是否具備相關領域之背景知識，若未達標準，該校有權拒收。,,
87,巴塞隆納自治大學,Autonomous University of Barcelona,西班牙,Spain,https://oia.ntu.edu.tw/outgoing/view/semester/1/sn/87,是,西語組,無,大二以上(僅限大學部)學生,TOEFL iBT 80 (不接受 Home Edition) 或 IELTS 6.0 或 全民英檢中高級；或具西語檢定成績 B2(中高級) 級以上,無,全學年4名,Academic Calendar,須在本校註冊並繳交全額學雜費，免繳該校學費，但該校雜費、住宿費、生活費、保險費、往返機票費等均須自行負擔,Not guaranteed, but students can apply for housing. More information here.,['交換學校一覽表所列之語言能力為該校之最低門檻要求，同學需自行確認語言能力是否符合該校修課要求、查詢是否有相對應的系所及足夠的課程可供選讀、能否達到該校之每學期修課學分數要求、以及是否具備相關領域之背景知識，若未達標準，該校有權拒收。'],
88,馬德里技術大學,Technical University of Madrid,西班牙,Spain,https://oia.ntu.edu.tw/outgoing/view/semester/1/sn/88,否,西語組,無,大二/大三/碩一(不含博士生)學生,TOEFL iBT 79 (不接受 Home Edition) 或 IELTS 6.0；或具西語檢定成績 B2(中高級) 級以上,無,全學年1名,Academic Calendar,須在本校註冊並繳交全額學雜費，免繳該校學費，但該校雜費、住宿費、生活費、保險費、往返機票費等均須自行負擔,Students must arrange for housing on their own. More information here.,交換學校一覽表所列之語言能力為該校之最低門檻要求，同學需自行確認語言能力是否符合該校修課要求、查詢是否有相對應的系所及足夠的課程可供選讀、能否達到該校之每學期修課學分數要求、以及是否具備相關領域之背景知識，若未達標準，該校有權拒收。,,19.0545876
86,林雪平大學,Linköping University,瑞典,Sweden,https://oia.ntu.edu.tw/outgoing/view/semester/1/sn/86,否,一般組,無,大二/大三/大四/碩一/碩二(不含博士生)學生,Faculty of Science and Engineering：TOEFL iBT 79 (接受 Home Edition) 或 IELTS 6.0 或 全民英檢中高級；Faculty of Arts and Sciences：TOEFL iBT 79 (不接受 Home Edition) 或 IELTS 6.0,無,Faculty of Science and Engineering全學年3名；Faculty of Arts and Sciences全學年2名,Faculty of Science and Engineering；Faculty of Arts and Sciences,須在本校註冊並繳交全額學雜費，免繳該校學費，但該校雜費、住宿費、生活費、保險費、往返機票費等均須自行負擔,Our exchange students from outside the EU are prioritised and usually they all get housing through LiU. More information here.,交換學校一覽表所列之語言能力為該校之最低門檻要求，同學需自行確認語言能力是否符合該校修課要求、查詢是否有相對應的系所及足夠的課程可供選讀、能否達到該校之每學期修課學分數要求、以及是否具備相關領域之背景知識，若未達標準，該校有權拒收。,,58.3977911
606,皇家理工學院,KTH Royal Institute of Technology,瑞典,Sweden,https://oia.ntu.edu.tw/outgoing/view/semester/1/sn/606,是,一般組,無,大二以上/碩一以上(不含博士生)學生,TOEFL iBT 87 (接受 Home Edition) 或 IELTS 6.0 或 全民英檢中高級,無,全學年2名,Academic Calendar,須在本校註冊並繳交全額學雜費，免繳該校學費，但該校雜費、住宿費、生活費、保險費、往返機票費等均須自行負擔,Not guaranteed, but students can apply for housing. Please visit KTH accommodation website.,['交換學校一覽表所列之語言能力為該校之最低門檻要求，同學需自行確認語言能力是否符合該校修課要求、查詢是否有足夠的課程可供選讀、能否達到該校之每學期修課學分數要求、以及是否具備相關領域之背景知識，若未達標準，該校有權拒收。'],59.2016758
375,烏普薩拉大學,Uppsala University,瑞典,Sweden,https://oia.ntu.edu.tw/outgoing/view/semester/1/sn/375,否,一般組,無,大二以上/碩一以上/博一以上學生,TOEFL iBT 92 (接受 Home Edition) 或 IELTS 6.5 或 全民英檢中高級,社會科學院經濟學系、社會科學院經濟學研究所,全學年1名,Academic Calendar,須在本校註冊並繳交全額學雜費，免繳該校學費，但該校雜費、住宿費、生活費、保險費、往返機票費等均須自行負擔,Housing is not guaranteed, but accommodation is offered for exchange students based on the following conditions:,['交換學校一覽表所列之語言能力為該校之最低門檻要求，同學需自行確認語言能力是否符合該校修課要求、查詢是否有足夠的課程可供選讀、能否達到該校之每學期修課學分數要求、以及是否具備相關領域之背景知識，若未達標準，該校有權拒收。'],59.8576363
85,優密歐大學,Umeå University,瑞典,Sweden,https://oia.ntu.edu.tw/outgoing/view/semester/1/sn/85,是,一般組,無,大二以上/碩一以上/博一以上學生,TOEFL iBT 90 (接受 Home Edition) 或 IELTS 6.0,設計、建築、藝術,全學年2名,Academic Calendar,須在本校註冊並繳交全額學雜費，免繳該校學費，但該校雜費、住宿費、生活費、保險費、往返機票費等均須自行負擔,Not guaranteed, but students can apply for housing. More information here.,['交換學校一覽表所列之語言能力為該校之最低門檻要求，同學需自行確認語言能力是否符合該校修課要求、查詢是否有足夠的課程可供選讀、能否達到該校之每學期修課學分數要求、以及是否具備相關領域之背景知識，若未達標準，該校有權拒收。'],63.8217763
84,斯德哥爾摩大學,Stockholm University,瑞典,Sweden,https://oia.ntu.edu.tw/outgoing/view/semester/1/sn/84,否,一般組,無,大二以上/碩一/碩二(不含博士生)學生,TOEFL iBT 90 (寫 20 接受 Home Edition) 或 IELTS 6.5 (聽 5.5 讀 5.5 寫 5.5 說 5.5) 或 全民英檢中高級,無,全學年1名,Academic Calendar,須在本校註冊並繳交全額學雜費，免繳該校學費，但該校雜費、住宿費、生活費、保險費、往返機票費等均須自行負擔,Admitted exchange students will receive an email with application instructions regarding housing.,交換學校一覽表所列之語言能力為該校之最低門檻要求，同學需自行確認語言能力是否符合該校修課要求、查詢是否有足夠的課程可供選讀、能否達到該校之每學期修課學分數要求、以及是否具備相關領域之背景知識，若未達標準，該校有權拒收。,,59.366141
83,隆德大學,Lund University,瑞典,Sweden,https://oia.ntu.edu.tw/outgoing/view/semester/1/sn/83,否,一般組,無,大二以上/碩一以上(不含博士生)學生,TOEFL iBT 90 (接受 Home Edition) 或 IELTS 6.5,社會科學院新聞研究所、醫學院,全學年2名,Academic Calendar,須在本校註冊並繳交全額學雜費，免繳該校學費，但該校雜費、住宿費、生活費、保險費、往返機票費等均須自行負擔,LU ACCOMMODATION: It is strongly recommended that students apply as soon as the application period opens.,交換學校一覽表所列之語言能力為該校之最低門檻要求，同學需自行確認語言能力是否符合該校修課要求、查詢是否有足夠的課程可供選讀、能否達到該校之每學期修課學分數要求、以及是否具備相關領域之背景知識，若未達標準，該校有權拒收。,,55.7126504
1281,瑞士東部應用科技大學,Eastern Switzerland University of Applied Sciences,瑞士,Switzerland,https://oia.ntu.edu.tw/outgoing/view/semester/1/sn/1281,是,德語組,無,大二以上/碩一以上(不含博士生)學生,TOEFL iBT 79 (接受 Home Edition) 或 IELTS 6.0 或 全民英檢中高級；或具德語檢定成績 B2(中高級) 級以上,建築、土木工程、景觀建築、空間規劃、社會工作與健康科學,School of Management全學年1名；Schools T, I, ABLR全學年1名,Academic Calendar,須在本校註冊並繳交全額學雜費，免繳該校學費，但該校雜費、住宿費、生活費、保險費、往返機票費等均須自行負擔,"['無', '交換學校一覽表所列之語言能力為該校之最低門檻要求，同學需自行確認語言能力是否符合該校修課要求、查詢是否有相對應的系所及足夠的課程可供選讀、能否達到該校之每學期修課學分數要求、以及是否具備相關領域之背景知識，若未達標準，該校有權拒收。']",
469,蘇黎世大學,University of Zurich,瑞士,Switzerland,https://oia.ntu.edu.tw/outgoing/view/semester/1/sn/469,否,德語組,無,大二以上/碩一以上/博一以上學生,TOEFL iBT 90 (不接受 Home Edition) 或 IELTS 6.5；或具德語檢定成績 C1(高級) 級以上,無,全學年1名,Academic Calendar,須在本校註冊並繳交全額學雜費，免繳該校學費，但該校雜費、住宿費、生活費、保險費、往返機票費等均須自行負擔,UZH does not own on-campus student dormitories. However, there is a limited number of rooms reserved for UZH students which are managed by the ETH/UZH Housing Office.,['交換學校一覽表所列之語言能力為該校之最低門檻要求，同學需自行確認語言能力是否符合該校修課要求、查詢是否有相對應的系所及足夠的課程可供選讀、能否達到該校之每學期修課學分數要求、以及是否具備相關領域之背景知識，若未達標準，該校有權拒收。'],47.4968435
425,洛桑大學,University of Lausanne,瑞士,Switzerland,https://oia.ntu.edu.tw/outgoing/view/semester/1/sn/425,否,法語組,GPA 達2.70分以上,大二以上/碩一以上/博一以上學生,TOEFL iBT 80 (接受 Home Edition) 或 IELTS 6.0；或具法語檢定成績 B2(中高級) 級以上,管理學院會計學研究所、管理學院財務金融學研究所、管理學院企業管理碩士專班、醫學院,全學年1名,Academic Calendar,須在本校註冊並繳交全額學雜費，免繳該校學費，但該校雜費、住宿費、生活費、保險費、往返機票費等均須自行負擔,Accepted students will receive instructions to apply online for a room in one of the Students' Residences of UNILausanne. More infomation here.,交換學校一覽表所列之語言能力為該校之最低門檻要求，同學需自行確認語言能力是否符合該校修課要求、查詢是否有相對應的系所及足夠的課程可供選讀、能否達到該校之每學期修課學分數要求、以及是否具備相關領域之背景知識，若未達標準，該校有權拒收。,,46.5225695
371,伯恩大學,University of Bern,瑞士,Switzerland,https://oia.ntu.edu.tw/outgoing/view/semester/1/sn/371,是,德語組,無,大二以上/碩一以上/博一以上學生,TOEFL iBT 80 (寫 17 不接受 Home Edition) 或 IELTS 6.0 (寫 6.0) 或 全民英檢中高級；或具德語檢定成績 B2(中高級) 級以上,醫學院、公共衛生學院、生物資源暨農學院獸醫學系、生物資源暨農學院獸醫學研究所、生物資源暨農學院臨床動物醫學研究所,全學年2名,Academic Calendar,須在本校註冊並繳交全額學雜費，免繳該校學費，但該校雜費、住宿費、生活費、保險費、往返機票費等均須自行負擔,Students must arrange for housing on their own. There are several private providers of student housing in Bern and your students will receive a list of all available options.,交換學校一覽表所列之語言能力為該校之最低門檻要求，同學需自行確認語言能力是否符合該校修課要求、查詢是否有相對應的系所及足夠的課程可供選讀、能否達到該校之每學期修課學分數要求、以及是否具備相關領域之背景知識，若未達標準，該校有權拒收。,,46.9509726
89,聖加倫大學,University of St. Gallen,瑞士,Switzerland,https://oia.ntu.edu.tw/outgoing/view/semester/1/sn/89,是,德語組,無,大二以上/碩一以上(不含博士生)學生,TOEFL iBT 89 (接受 Home Edition) 或 IELTS 6.5 或 全民英檢中高級；或具德語檢定成績 B2(中高級) 級以上,CEMS MiM課程、商業新聞課程、商業教師教育課程,全學年4名,Academic Calendar,免繳該校學雜費，但仍須在本校註冊並繳交全額學雜費，生活費、住宿費、保險費及往返機票費等均須自行負擔。,Not guaranteed but students can apply for housing. More information here.,交換學校一覽表所列之語言能力為該校之最低門檻要求，同學需自行確認語言能力是否符合該校修課要求、查詢是否有相對應的系所及足夠的課程可供選讀、能否達到該校之每學期修課學分數要求、以及是否具備相關領域之背景知識，若未達標準，該校有權拒收。,,47.4300025
91,倫敦大學亞非學院,"School of Oriental and African Studies, University of London (SOAS)",英國,United Kingdom,https://oia.ntu.edu.tw/outgoing/view/semester/1/sn/91,是,一般組,GPA 達3.50分以上,大二以上(僅限大學部)學生,TOEFL iBT 95 (讀 20 聽 20 說 20 寫 23 不接受 Home Edition) 或 IELTS 6.0 (聽 5.5 讀 5.5 寫 5.5 說 5.5),無,全學年1名,Academic Calendar,須在本校註冊並繳交全額學雜費，免繳該校學費，但該校雜費、住宿費、生活費、保險費、往返機票費等均須自行負擔,Not guaranteed, but students can apply for housing. More information here.,['交換學校一覽表所列之語言能力為該校之最低門檻要求，同學需自行確認語言能力是否符合該校修課要求、查詢是否有相對應的系所及足夠的課程可供選讀、能否達到該校之每學期修課學分數要求、以及是否具備相關領域之背景知識，若未達標準，該校有權拒收。'],51.5218979
1303,東安格利亞大學,University of East Anglia,英國,United Kingdom,https://oia.ntu.edu.tw/outgoing/view/semester/1/sn/1303,是,一般組,GPA 達3.00分以上,大二以上(僅限大學部)學生,TOEFL iBT 88 (讀 20 聽 19 說 21 寫 19 不接受 Home Edition) 或 IELTS 6.5 (聽 6.0 讀 6.0 寫 6.0 說 6.0),醫學院、公共衛生學院、社會科學院社會工作學系,全學年3名,Academic Calendar,須在本校註冊並繳交全額學雜費，免繳該校學費，但該校雜費、住宿費、生活費、保險費、往返機票費等均須自行負擔,UEA guarantees accommodation for students who apply before the accommodation deadline in most circumstances. Information about accommodation can be found here, including links to the prices.,['交換學校一覽表所列之語言能力為該校之最低門檻要求，同學需自行確認語言能力是否符合該校修課要求、查詢是否有相對應的系所及足夠的課程可供選讀、能否達到該校之每學期修課學分數要求、以及是否具備相關領域之背景知識，若未達標準，該校有權拒收。'],52.6210623
1291,杜倫大學,Durham University,英國,United Kingdom,https://oia.ntu.edu.tw/outgoing/view/semester/1/sn/1291,是,一般組,GPA 達3.20分以上,大二/大三/大四學生,TOEFL iBT 92 (讀 23 聽 23 說 23 寫 23 不接受 Home Edition) 或 IELTS 6.5 (聽 6.0 讀 6.0 寫 6.0 說 6.0),無,全學年2名,Academic Calendar,須在本校註冊並繳交全額學雜費，免繳該校學費，但該校雜費、住宿費、生活費、保險費、往返機票費等均須自行負擔,All full year non-European exchange students from non-European partners are guaranteed a place in one of the residential colleges of the University if they apply for the programme by the deadline.,交換學校一覽表所列之語言能力為該校之最低門檻要求，同學需自行確認語言能力是否符合該校修課要求、查詢是否有相對應的系所及足夠的課程可供選讀、能否達到該校之每學期修課學分數要求、以及是否具備相關領域之背景知識，若未達標準，該校有權拒收。,,54.7641281
1290,里茲大學,University of Leeds,英國,United Kingdom,https://oia.ntu.edu.tw/outgoing/view/semester/1/sn/1290,是,一般組,GPA 達3.00分以上,大二以上(僅限大學部)學生,TOEFL iBT 80 (讀 18 聽 17 說 20 寫 19 不接受 Home Edition) 或 IELTS 6.0 (聽 5.5 讀 5.5 寫 5.5 說 5.5),醫學院、公共衛生學院、牙醫學系、護理學系、建築學系,全學年2名,Academic Calendar,須在本校註冊並繳交全額學雜費，免繳該校學費，但該校雜費、住宿費、生活費、保險費、往返機票費等均須自行負擔,Housing is guaranteed if students apply for it before the deadlines (1 July for S1, 1 December for S2).,['交換學校一覽表所列之語言能力為該校之最低門檻要求，同學需自行確認語言能力是否符合該校修課要求、查詢是否有相對應的系所及足夠的課程可供選讀、能否達到該校之每學期修課學分數要求、以及是否具備相關領域之背景知識，若未達標準，該校有權拒收。'],53.8057925
1280,聖安德魯斯大學,University of St Andrews,英國,United Kingdom,https://oia.ntu.edu.tw/outgoing/view/semester/1/sn/1280,是,一般組,GPA 達3.50分以上,大二以上/碩一以上(不含博士生)學生,TOEFL iBT 92 (讀 20 聽 20 說 20 寫 20 不接受 Home Edition) 或 IELTS 6.5 (聽 6.0 讀 6.0 寫 6.0 說 6.0),無,全學年7名,Academic Calendar,須在本校註冊並繳交全額學雜費，免繳該校學費，但該校雜費、住宿費、生活費、保險費、往返機票費等均須自行負擔,Undergraduate (Bachelor level) Exchange students are covered by a housing guarantee, provided they apply by the relevant deadline. Applying for Accommodation here.,['交換學校一覽表所列之語言能力為該校之最低門檻要求，同學需自行確認語言能力是否符合該校修課要求、查詢是否有相對應的系所及足夠的課程可供選讀、能否達到該校之每學期修課學分數要求、以及是否具備相關領域之背景知識，若未達標準，該校有權拒收。'],56.3398198
859,倫敦大學學院,University College London,英國,United Kingdom,https://oia.ntu.edu.tw/outgoing/view/semester/1/sn/859,是,一般組,GPA 達3.40分以上,大二以上(僅限大學部)學生,TOEFL iBT 109 (讀 27 聽 23 說 23 寫 27 不接受 Home Edition) 或 IELTS 7.5 (聽 7.0 讀 7.0 寫 7.0 說 7.0),無,全學年2名,Academic Calendar,須在本校註冊並繳交全額學雜費，免繳該校學費，但該校雜費、住宿費、生活費、保險費、往返機票費等均須自行負擔,Not guaranteed, but students can apply for housing. More information here.,['交換學校一覽表所列之語言能力為該校之最低門檻要求，同學需自行確認語言能力是否符合該校修課要求、查詢是否有相對應的系所及足夠的課程可供選讀、能否達到該校之每學期修課學分數要求、以及是否具備相關領域之背景知識，若未達標準，該校有權拒收。'],51.524203
148,伯明罕大學,University of Birmingham,英國,United Kingdom,https://oia.ntu.edu.tw/outgoing/view/semester/1/sn/148,否,一般組,GPA 達3.30分以上,大二以上/碩一以上(不含博士生)學生,TOEFL iBT 80 (讀 19 聽 19 說 21 寫 19 接受 Home Edition) 或 IELTS 6.0 (聽 5.5 讀 5.5 寫 5.5 說 5.5),無,全學年2名,Academic Calendar,須在本校註冊並繳交全額學雜費，免繳該校學費，但該校雜費、住宿費、生活費、保險費、往返機票費等均須自行負擔,One-semester only accommodation spaces are not guaranteed. More information can be found here.,交換學校一覽表所列之語言能力為該校之最低門檻要求，同學需自行確認語言能力是否符合該校修課要求、查詢是否有相對應的系所及足夠的課程可供選讀、能否達到該校之每學期修課學分數要求、以及是否具備相關領域之背景知識，若未達標準，該校有權拒收。,,52.4522956
815,諾丁漢大學,The University of Nottingham,英國,United Kingdom,https://oia.ntu.edu.tw/outgoing/view/semester/1/sn/815,否,一般組,GPA 達3.00分以上,大二學生,TOEFL iBT 80 (讀 18 聽 17 說 20 寫 17 不接受 Home Edition) 或 IELTS 6.0 (聽 5.5 讀 5.5 寫 5.5 說 5.5),醫學院、公共衛生學院,Law全學年1名；non-Law全學年2名,University Calendar,須在本校註冊並繳交全額學雜費，免繳該校學費，但該校雜費、住宿費、生活費、保險費、往返機票費等均須自行負擔,Not guaranteed, but students can apply for housing. More information here.,['交換學校一覽表所列之語言能力為該校之最低門檻要求，同學需自行確認語言能力是否符合該校修課要求、查詢是否有相對應的系所及足夠的課程可供選讀、能否達到該校之每學期修課學分數要求、以及是否具備相關領域之背景知識，若未達標準，該校有權拒收。'],52.8389737
1205,倫敦大學瑪麗王后學院,Queen Mary University of London,英國,United Kingdom,https://oia.ntu.edu.tw/outgoing/view/semester/1/sn/1205,否,一般組,GPA 達3.00分以上,大二以上(僅限大學部)學生,TOEFL iBT 100 (讀 19 聽 18 說 21 寫 21 接受 Home Edition) 或 IELTS 7.0 (聽 6.0 讀 6.0 寫 6.0 說 6.0),醫學院、公共衛生學院、牙醫學系,全學年1名,Academic Calendar,須在本校註冊並繳交全額學雜費，免繳該校學費，但該校雜費、住宿費、生活費、保險費、往返機票費等均須自行負擔,Unfortunately, we do not open our halls of residence to European Exchange or SEMP students,"[' but we can provide guidance to these students on how to secure suitable housing off-campus.', '交換學校一覽表所列之語言能力為該校之最低門檻要求，同學需自行確認語言能力是否符合該校修課要求、查詢是否有足夠的課程可供選讀、能否達到該校之每學期修課學分數要求、以及是否具備相關領域之背景知識，若未達標準，該校有權拒收。']",51.5247403
1093,肯特大學,University of Kent,英國,United Kingdom,https://oia.ntu.edu.tw/outgoing/view/semester/1/sn/1093,否,一般組,GPA 達3.00分以上,大二/大三學生,TOEFL iBT 87 (讀 20 聽 19 說 22 寫 19 接受 Home Edition) 或 IELTS 6.5 (聽 5.5 讀 5.5 寫 5.5 說 5.5),醫學院、公共衛生學院、醫學系與藥學系,全學年1名,Academic Calendar,須在本校註冊並繳交全額學雜費，免繳該校學費，但該校雜費、住宿費、生活費、保險費、往返機票費等均須自行負擔,Students must apply within the accommodation deadline in order to be guaranteed on-campus housing.,交換學校一覽表所列之語言能力為該校之最低門檻要求，同學需自行確認語言能力是否符合該校修課要求、查詢是否有足夠的課程可供選讀、能否達到該校之每學期修課學分數要求、以及是否具備相關領域之背景知識，若未達標準，該校有權拒收。,,51.2950874
604,愛丁堡大學,University of Edinburgh,英國,United Kingdom,https://oia.ntu.edu.tw/outgoing/view/semester/1/sn/604,是,一般組,GPA 達3.30分以上,大二/大三學生,TOEFL iBT 92 (讀 20 聽 20 說 20 寫 20 接受 Home Edition) 或 IELTS 6.5 (聽 5.5 讀 5.5 寫 5.5 說 5.5),醫學系、藝術/設計/建築、法律學系、體育系,全學年4名,Academic Calendar,須在本校註冊並繳交全額學雜費，免繳該校學費，但該校雜費、住宿費、生活費、保險費、往返機票費等均須自行負擔,On-and off-campus housing guaranteed. More information here.,交換學校一覽表所列之語言能力為該校之最低門檻要求，同學需自行確認語言能力是否符合該校修課要求、查詢是否有足夠的課程可供選讀、能否達到該校之每學期修課學分數要求、以及是否具備相關領域之背景知識，若未達標準，該校有權拒收。,,55.9440765
102,薩塞克斯大學,University of Sussex,英國,United Kingdom,https://oia.ntu.edu.tw/outgoing/view/semester/1/sn/102,否,一般組,GPA 達3.00分以上,大二/大三學生,TOEFL iBT 80 (讀 18 聽 17 說 20 寫 17 接受 Home Edition) 或 IELTS 6.0 (聽 5.5 讀 5.5 寫 5.5 說 5.5),醫學院、公共衛生學院,全學年2名,Academic Calendar,須在本校註冊並繳交全額學雜費，免繳該校學費，但該校雜費、住宿費、生活費、保險費、往返機票費等均須自行負擔,Full Year applicants are guaranteed university accommodation if they apply by the 30 June deadline.,交換學校一覽表所列之語言能力為該校之最低門檻要求，同學需自行確認語言能力是否符合該校修課要求、查詢是否有相對應的系所及足夠的課程可供選讀、能否達到該校之每學期修課學分數要求、以及是否具備相關領域之背景知識，若未達標準，該校有權拒收。,,50.8674377
215,曼徹斯特大學,University of Manchester,英國,United Kingdom,https://oia.ntu.edu.tw/outgoing/view/semester/1/sn/215,否,一般組,GPA 達3.30分以上,大二學生,TOEFL iBT 90 (不接受 Home Edition) 或 IELTS 6.5,無,全學年3名,Academic Calendar,須在本校註冊並繳交全額學雜費，免繳該校學費，但該校雜費、住宿費、生活費、保險費、往返機票費等均須自行負擔,Not guaranteed, but students can apply for housing. Application for housing is a separate,"[' additional online process', ' which students must complete AFTER receiving their offer letter from us.', '交換學校一覽表所列之語言能力為該校之最低門檻要求，同學需自行確認語言能力是否符合該校修課要求、查詢是否有相對應的系所及足夠的課程可供選讀、能否達到該校之每學期修課學分數要求、以及是否具備相關領域之背景知識，若未達標準，該校有權拒收。']",53.4660226
90,南安普頓大學,University of Southampton,英國,United Kingdom,https://oia.ntu.edu.tw/outgoing/view/semester/1/sn/90,否,一般組,GPA 達3.30分以上,大二/大三學生,TOEFL iBT 92 (讀 22 聽 21 說 23 寫 21 接受 Home Edition) 或 IELTS 6.5 (聽 6.0 讀 6.0 寫 6.0 說 6.0),無,全學年1名,Academic Calendar,須在本校註冊並繳交全額學雜費，免繳該校學費，但該校雜費、住宿費、生活費、保險費、往返機票費等均須自行負擔,Not guaranteed but students can apply for housing. More information here.,交換學校一覽表所列之語言能力為該校之最低門檻要求，同學需自行確認語言能力是否符合該校修課要求、查詢是否有相對應的系所及足夠的課程可供選讀、能否達到該校之每學期修課學分數要求、以及是否具備相關領域之背景知識，若未達標準，該校有權拒收。,,50.9617568
206,阿德雷德大學,The University of Adelaide,澳大利亞,Australia,https://oia.ntu.edu.tw/outgoing/view/semester/1/sn/206,否,一般組,GPA 達2.80分以上,大二/大三/碩一/碩二(不含博士生)學生,IELTS 6.5 (聽 6.0 讀 6.0 寫 6.0 說 6.0),管理學院國際企業學研究所、管理學院商學研究所、管理學院管理學院企業管理碩士專班、醫學院、生物資源暨農學院獸醫學系、生物資源暨農學院獸醫學研究所,一學期4名,Semester 1: February - July；Semester 2: July - December,須在本校註冊並繳交全額學雜費，免繳該校學費，但該校雜費、住宿費、生活費、保險費、往返機票費等均須自行負擔,Not guaranteed, but students may apply for housing. Read more about Accommodation Service,['交換學校一覽表所列之語言能力為該校之最低門檻要求，同學需自行確認語言能力是否符合該校修課要求、查詢是否有相對應的系所或足夠的課程可供選讀、能否達到該校之每學期修課學分數要求、以及是否具備相關領域之背景知識，若未達標準，該校有權拒收'],-34.928776
313,雪梨大學,The University of Sydney (USYD),澳大利亞,Australia,https://oia.ntu.edu.tw/outgoing/view/semester/1/sn/313,無,一般組,GPA 達3.20分以上,大二以上/碩一以上(不含博士生)學生,IELTS 6.5 (聽 6.0 讀 6.0 寫 6.0 說 6.0),醫學院、生物資源暨農學院獸醫學系、生物資源暨農學院獸醫學研究所、理學院心理學系、理學院心理學研究所、公共衛生學院,全學年2名,Semester 1: February - June；Semester 2: July - November,須在本校註冊並繳交全額學雜費，免繳該校學費，但住宿費、生活費、保險費、往返機票費等均須自行負擔,Guaranteed accommodation if apply before deadline, read more about accommodation,['交換學校一覽表所列之語言能力為該校之最低門檻要求，同學需自行確認語言能力是否符合該校修課要求、查詢是否有相對應的系所或足夠的課程可供選讀、能否達到該校之每學期修課學分數要求、以及是否具備相關領域之背景知識，若未達標準，該校有權拒收'],-33.8889073
1109,蒙納許大學,Monash University,澳大利亞,Australia,https://oia.ntu.edu.tw/outgoing/view/semester/1/sn/1109,是,一般組,GPA 達3.20分以上,大二以上/碩一以上(不含博士生)學生,IELTS 6.5 (聽 6.0 讀 6.0 寫 6.0 說 6.0),法律學院、醫學院、管理學院會計學研究所、管理學院財務金融學研究所、管理學院國際企業學研究所、管理學院資訊管理學研究所、管理學院商學研究所、管理學院管理學院企業管理碩士專班,全學年3名,Semester 1：Feb ~ Jun；Semester 2：Jul ~ Nov,須在本校註冊並繳交全額學雜費，免繳該校學費，但該校雜費、住宿費、生活費、保險費、往返機票費等均須自行負擔,Not guaranteed, but students may apply for housing. Read more about Residential Services,['交換學校一覽表所列之語言能力為該校之最低門檻要求，同學需自行確認語言能力是否符合該校修課要求、查詢是否有相對應的系所或足夠的課程可供選讀、能否達到該校之每學期修課學分數要求、以及是否具備相關領域之背景知識，若未達標準，該校有權拒收'],-37.7839745
210,昆士蘭大學,The University of Queensland (UQ),澳大利亞,Australia,https://oia.ntu.edu.tw/outgoing/view/semester/1/sn/210,否,一般組,GPA 達3.30分以上,大二以上/碩一以上(不含博士生)學生,IELTS 6.5 (聽 6.0 讀 6.0 寫 6.0 說 6.0),醫學院、生物資源暨農學院獸醫學系、生物資源暨農學院獸醫學研究所、理學院心理學系、理學院心理學研究所、牙醫學系、物理治療學系、言語病理學,一學期1名,Semester 1: February - June；Semester 2: July - November,須在本校註冊並繳交全額學雜費，免繳該校學費，但該校雜費、住宿費、生活費、保險費、往返機票費等均須自行負擔,Not Guaranteed, students must arrange for housing. Read more about accommodation,['交換學校一覽表所列之語言能力為該校之最低門檻要求，同學需自行確認語言能力是否符合該校修課要求、查詢是否有相對應的系所或足夠的課程可供選讀、能否達到該校之每學期修課學分數要求、以及是否具備相關領域之背景知識，若未達標準，該校有權拒收'],-27.4974181
97,格里菲斯大學,Griffith University,澳大利亞,Australia,https://oia.ntu.edu.tw/outgoing/view/semester/1/sn/97,否,一般組,學士生 GPA 達2.90分以上；研究生 GPA 達2.90分以上,大二以上/碩一以上(不含博士生)學生,學士生 IELTS 6.0 (聽 5.5 讀 5.5 寫 5.5 說 5.5)；研究生 IELTS 6.5 (聽 6.0 讀 6.0 寫 6.0 說 6.0),醫學院、理學院心理學研究所、管理學院會計學研究所、管理學院財務金融學研究所、管理學院國際企業學研究所、管理學院資訊管理學研究所、管理學院商學研究所、管理學院管理學院企業管理碩士專班、生物資源暨農學院獸醫學系、生物資源暨農學院獸醫學研究所、公共衛生學院,全學年0名,Trimester 1: February to June；Trimester 2: July to October；Trimester 3: October to February,須在本校註冊並繳交全額學雜費，免繳該校學費，但該校雜費、住宿費、生活費、保險費、往返機票費等均須自行負擔,Not guaranteed, but students may apply for housing. Read more about accommodation,['交換學校一覽表所列之語言能力為該校之最低門檻要求，同學需自行確認語言能力是否符合該校修課要求、查詢是否有相對應的系所或足夠的課程可供選讀、能否達到該校之每學期修課學分數要求、以及是否具備相關領域之背景知識，若未達標準，該校有權拒收'],-27.9633383
95,汀肯大學,Deakin University,澳大利亞,Australia,https://oia.ntu.edu.tw/outgoing/view/semester/1/sn/95,否,一般組,GPA 達2.80分以上,大二以上/碩一以上/博一以上學生,IELTS 6.0 (聽 6.0 讀 6.0 寫 6.0 說 6.0),醫學院、生物資源暨農學院獸醫學系、生物資源暨農學院獸醫學研究所、公共衛生學院,全學年0名,Trimester 1: February - June；Trimester 2: July - October；Trimester 3: October - February,須在本校註冊並繳交全額學雜費，免繳該校學費，但該校雜費、住宿費、生活費、保險費、往返機票費等均須自行負擔,Not guaranteed, but students may apply for housing. Read more about accommodation.,['交換學校一覽表所列之語言能力為該校之最低門檻要求，同學需自行確認語言能力是否符合該校修課要求、查詢是否有相對應的系所或足夠的課程可供選讀、能否達到該校之每學期修課學分數要求、以及是否具備相關領域之背景知識，若未達標準，該校有權拒收'],-37.8475136
96,新南威爾斯大學,The University of New South Wales (UNSW),澳大利亞,Australia,https://oia.ntu.edu.tw/outgoing/view/semester/1/sn/96,否,一般組,GPA 達3.30分以上,大二以上/碩一以上(不含博士生)學生,IELTS 6.5,理學院心理學系、理學院心理學研究所、工學院化學工程學系、工學院化學工程學研究所、電機資訊學院資訊工程學系、電機資訊學院資訊工程學研究所、管理學院企業管理碩士專班、管理學院商學研究所、管理學院財務金融學研究所、管理學院國際企業學研究所、管理學院資訊管理學研究所,全學年0名,Term 1: Feb - May；Term 2: May - Aug；Term 3: Sep - Dec,須在本校註冊並繳交全額學雜費，免繳該校學費，但該校雜費、住宿費、生活費、保險費、往返機票費等均須自行負擔,Not guaranteed, but students may apply for housing. Read more about accommodation.,['交換學校一覽表所列之語言能力為該校之最低門檻要求，同學需自行確認語言能力是否符合該校修課要求、查詢是否有相對應的系所或足夠的課程可供選讀、能否達到該校之每學期修課學分數要求、以及是否具備相關領域之背景知識，若未達標準，該校有權拒收'],-33.9062434
94,馬奎里大學,Macquarie University (MQ),澳大利亞,Australia,https://oia.ntu.edu.tw/outgoing/view/semester/1/sn/94,是,一般組,GPA 達3.00分以上,大二/大三/碩一(不含博士生)學生,IELTS 6.5 (聽 6.0 讀 6.0 寫 6.0 說 6.0),法律學院法律學研究所、法律學院科際整合法律學研究所、醫學院、理學院心理學系、理學院心理學研究所、管理學院商學研究所、管理學院管理學院企業管理碩士專班、公共衛生學院,全學年2名,Session 1: February - June；Session 2: July - November,須在本校註冊並繳交全額學雜費，免繳該校學費，但該校雜費、住宿費、生活費、保險費、往返機票費等均須自行負擔,Not guranteed.,交換學校一覽表所列之語言能力為該校之最低門檻要求，同學需自行確認語言能力是否符合該校修課要求、查詢是否有相對應的系所或足夠的課程可供選讀、能否達到該校之每學期修課學分數要求、以及是否具備相關領域之背景知識，若未達標準，該校有權拒收,,-33.7936441
93,澳洲國立大學,The Australian National University (ANU),澳大利亞,Australia,https://oia.ntu.edu.tw/outgoing/view/semester/1/sn/93,否,一般組,GPA 達3.00分以上,大二以上/碩一以上(不含博士生)學生,IELTS 6.5 (聽 6.0 讀 6.0 寫 6.0 說 6.0),醫學院、生物資源暨農學院獸醫學系、生物資源暨農學院獸醫學研究所、理學院心理學系、理學院心理學研究所、公共衛生學院,全學年1名,Semester 1 - February to June；Semester 2 - July to November,須在本校註冊並繳交全額學雜費，免繳該校學費，但該校雜費、住宿費、生活費、保險費、往返機票費等均須自行負擔,Guranteed on-campus - though preferences cannot be guaranteed. Read more about Accommodation.,交換學校一覽表所列之語言能力為該校之最低門檻要求，同學需自行確認語言能力是否符合該校修課要求、查詢是否有相對應的系所或足夠的課程可供選讀、能否達到該校之每學期修課學分數要求、以及是否具備相關領域之背景知識，若未達標準，該校有權拒收,,-35.2812742
92,墨爾本大學,The University of Melbourne (UniMelb),澳大利亞,Australia,https://oia.ntu.edu.tw/outgoing/view/semester/1/sn/92,否,一般組,GPA 達3.00分以上,大二以上/碩一以上/博一以上學生,IELTS 6.5 (聽 6.0 讀 6.0 寫 6.0 說 6.0),醫學院牙醫學系、醫學院臨床牙醫學研究所、法律學院,一學期1名,Semester 1: February - June；Semester 2: July - November,須在本校註冊並繳交全額學雜費，免繳該校學費，但該校雜費、住宿費、生活費、保險費、往返機票費等均須自行負擔,不保障住宿，住宿資訊請參考 Student accommodation,交換學校一覽表所列之語言能力為該校之最低門檻要求，同學需自行確認語言能力是否符合該校修課要求、查詢是否有相對應的系所或足夠的課程可供選讀、能否達到該校之每學期修課學分數要求、以及是否具備相關領域之背景知識，若未達標準，該校有權拒收,,-37.7960951
326,奧塔哥大學,University of Otago,紐西蘭,New Zealand,https://oia.ntu.edu.tw/outgoing/view/semester/1/sn/326,是,一般組,GPA 達3.20分以上,大二以上(僅限大學部)學生,TOEFL iBT 80 (寫 20 不接受 Home Edition) 或 IELTS 6.0 (聽 5.5 讀 5.5 寫 5.5 說 5.5),醫學院、公共衛生學院、生物資源暨農學院獸醫學系、生物資源暨農學院獸醫學研究所、理學院心理學系、理學院心理學研究所,全學年1名,Semester 1: February to June；Semester 2: July to November,須在本校註冊並繳交全額學雜費，免繳該校學費，但住宿費、生活費、保險費、往返機票費等均須自行負擔,Guaranteed on-campus housing if apply before deadline. Read more about accommodation below:University Flats,交換學校一覽表所列之語言能力為該校之最低門檻要求，同學需自行確認語言能力是否符合該校修課要求、查詢是否有相對應的系所或足夠的課程可供選讀、能否達到該校之每學期修課學分數要求、以及是否具備相關領域之背景知識，若未達標準，該校有權拒收,,-45.8649793
1168,坎特伯雷大學,University of Canterbury,紐西蘭,New Zealand,https://oia.ntu.edu.tw/outgoing/view/semester/1/sn/1168,否,一般組,學士生 GPA 達3.00分以上；研究生 GPA 達3.00分以上,大二以上(僅限大學部)學生,學士生 TOEFL iBT 80 (讀 19 聽 19 寫 19 不接受 Home Edition) 或 IELTS 6.0 (聽 5.5 讀 5.5 寫 5.5 說 5.5)；研究生 TOEFL iBT 90 (讀 19 聽 19 寫 19 不接受 Home Edition) 或 IELTS 6.5 (聽 6.0 讀 6.0 寫 6.0 說 6.0),社會科學院新聞研究所、管理學院會計學研究所、管理學院財務金融學研究所、管理學院國際企業學研究所、管理學院資訊管理學研究所、管理學院商學研究所、管理學院管理學院企業管理碩士專班、生物資源暨農學院森林環境暨資源學系、生物資源暨農學院森林環境暨資源學研究所,全學年0名,Semester 1: Feb - June；Semester 2: July - Nov,須在本校註冊並繳交全額學雜費，免繳該校學費，但住宿費、生活費、保險費、往返機票費等均須自行負擔,Not guaranteed, read more about Accommodation offer,['交換學校一覽表所列之語言能力為該校之最低門檻要求，同學需自行確認語言能力是否符合該校修課要求、查詢是否有相對應的系所或足夠的課程可供選讀、能否達到該校之每學期修課學分數要求、以及是否具備相關領域之背景知識，若未達標準，該校有權拒收'],-43.5240894
1002,威靈頓維多利亞大學,Victoria University of Wellington (VUW),紐西蘭,New Zealand,https://oia.ntu.edu.tw/outgoing/view/semester/1/sn/1002,否,一般組,學士生 GPA 達3.00分以上；研究生 GPA 達3.00分以上,大二以上/碩一以上(不含博士生)學生,學士生 TOEFL iBT 80 (不接受 Home Edition) 或 IELTS 6.0 (聽 5.5 讀 5.5 寫 5.5 說 5.5)；研究生 IELTS 6.5 (聽 6.0 讀 6.0 寫 6.0 說 6.0),無,全學年0名,Trimester 1: February - June；Trimester 2: July - November,須在本校註冊並繳交全額學雜費，免繳該校學費，但該校雜費、住宿費、生活費、保險費、往返機票費等均須自行負擔,Not guaranteed, but students may apply for housing. Read more about Accommodation Website、Accommodation Guide,['交換學校一覽表所列之語言能力為該校之最低門檻要求，同學需自行確認語言能力是否符合該校修課要求、查詢是否有相對應的系所或足夠的課程可供選讀、能否達到該校之每學期修課學分數要求、以及是否具備相關領域之背景知識，若未達標準，該校有權拒收'],-41.2796445
203,奧克蘭大學,The University of Auckland,紐西蘭,New Zealand,https://oia.ntu.edu.tw/outgoing/view/semester/1/sn/203,是,一般組,學士生 GPA 達3.00分以上；研究生 GPA 達3.00分以上,大二以上/碩一以上(不含博士生)學生,學士生 TOEFL iBT 80 (寫 21 不接受 Home Edition) 或 IELTS 6.0 (聽 5.5 讀 5.5 寫 5.5 說 5.5)；研究生 TOEFL iBT 90 (寫 21 不接受 Home Edition) 或 IELTS 6.5 (聽 6.0 讀 6.0 寫 6.0 說 6.0),醫學院、理學院心理學系、理學院心理學研究所、生物資源暨農學院獸醫學系、生物資源暨農學院獸醫學研究所、公共衛生學院,全學年1名,Semester One: February - June；Semester Two: July - November,須在本校註冊並繳交全額學雜費，免繳該校學費，但住宿費、生活費、保險費、往返機票費等均須自行負擔,Guarantee campus housing to all Exchange students as long as they put an application in by the priority deadline. Read more about accommodation.,交換學校一覽表所列之語言能力為該校之最低門檻要求，同學需自行確認語言能力是否符合該校修課要求、查詢是否有相對應的系所或足夠的課程可供選讀、能否達到該校之每學期修課學分數要求、以及是否具備相關領域之背景知識，若未達標準，該校有權拒收,,-36.8660955
1143,開普敦大學,University of Cape Town,南非,South Africa,https://oia.ntu.edu.tw/outgoing/view/semester/1/sn/1143,否,一般組,GPA 達3.20分以上,大二以上/碩二以上/博二以上學生,TOEFL iBT 88 (讀 20 聽 19 說 22 寫 19 不接受 Home Edition) 或 IELTS 6.5 (聽 6.0 讀 6.0 寫 6.0 說 6.0),公共衛生學院、管理學院會計學研究所、管理學院財務金融學研究所、管理學院國際企業學研究所、管理學院資訊管理學研究所、管理學院商學研究所、管理學院企業管理碩士專班,全學年0名,該校年曆請參考此連結,須在本校註冊並繳交全額學雜費，免繳該校學費，但住宿費、生活費、保險費、往返機票費等均須自行負擔,不保障住宿,交換學校一覽表所列之語言能力為該校之最低門檻要求，同學需自行確認語言能力是否符合該校修課要求、查詢是否有相對應的系所或足夠的課程可供選讀、能否達到該校之每學期修課學分數要求、以及是否具備相關領域之背景知識，若未達標準，該校有權拒收,,-33.9567559
902,斯泰倫博斯大學,Stellenbosch University,南非,South Africa,https://oia.ntu.edu.tw/outgoing/view/semester/1/sn/902,是,一般組,無,大二以上/碩一以上(不含博士生)學生,TOEFL iBT 79 (讀 18 聽 17 說 20 寫 17 不接受 Home Edition) 或 IELTS 6.5 (聽 6.0 讀 6.0 寫 6.0 說 6.0) 或 全民英檢中高級,醫學院、管理學院會計學系、管理學院會計學研究所、公共衛生學院,全學年1名,First Semester: February - June；Second Semester: July - December,須在本校註冊並繳交全額學雜費，免繳該校學費，但住宿費、生活費、保險費、往返機票費等均須自行負擔,Not guaranteed, but students can apply for housing. Read more about University Administered Housing,['交換學校一覽表所列之語言能力為該校之最低門檻要求，同學需自行確認語言能力是否符合該校修課要求、查詢是否有相對應的系所或足夠的課程可供選讀、能否達到該校之每學期修課學分數要求、以及是否具備相關領域之背景知識，若未達標準，該校有權拒收'],-33.9326212
