id,name_zh,name_en,country,country_en,url,開放第二次出國交換之同學選填,申請組別,GPA要求,年級限制,語言要求,不接受申請之學院,名額,學校年曆,註冊繳費,住宿資訊,注意事項,latitude,longitude
1115,聖保羅大學,Universidade de São Paulo (USP),巴西,Brazil,https://oia.ntu.edu.tw/outgoing/view/semester/1/sn/1115,是,一般組,,大二以上/碩一以上/博一以上學生,本校大二以上/碩一以上/博一以上學生，以報名交換學生甄選時，本校教務處學籍系統上之年級為準。研究生申請資訊請另詳見注意事項。 2.	具葡萄牙語能力證明 ，須具葡語B1檢定證書,,全學年2名。,First Semester: February - June；Second Semester: August - December,須在本校註冊並繳交全額學雜費，免繳該校學費，但該校雜費、住宿費、生活費、保險費、往返機票費等均須自行負擔,不保證住宿，住宿資訊請參考此連結,交換學校一覽表所列之語言能力為該校之最低門檻要求，同學需自行確認語言能力是否符合該校修課要求、查詢是否有相對應系所及足夠的課程可供選讀、能否達到該校之每學期修課學分數要求、以及是否具備相關領域之背景知識，若未達標準，該校有權拒收,,-22.3347205
974,里約熱內盧天主教大學,Pontifícia Universidade Católica do Rio de Janeiro (PUC-Rio),巴西,Brazil,https://oia.ntu.edu.tw/outgoing/view/semester/1/sn/974,否,一般組,GPA 達3.00分以上,大二以上(僅限大學部)學生,本校大二以上(僅限大學部)學生，以報名交換學生甄選時，本校教務處學籍系統上之年級為準。 2.	GPA 達3.00分以上。 3.	TOEFL iBT 79 (不接受 Home Edition) 或 IELTS 6.0。  或 4.	具葡萄牙語能力證明 ，B1以上檢定證書或本校修讀葡萄牙語4個學期以上成績及格證明,,全學年1名。,First Semester: February - July；Second Semester: August - December,須在本校註冊並繳交全額學雜費，免繳該校學費，但住宿費、生活費、保險費、往返機票費等均須自行負擔。,可申請校外住宿（Home-stay Program），住宿資訊請參考此連結,交換學校一覽表所列之語言能力為該校之最低門檻要求，同學需自行確認語言能力是否符合該校修課要求、查詢是否有相對應系所及足夠的課程可供選讀、能否達到該校之每學期修課學分數要求、以及是否具備相關領域之背景知識，若未達標準，該校有權拒收,,-22.9796815
931,坎皮納斯州立大學,Universidade Estadual de Campinas (UNICAMP),巴西,Brazil,https://oia.ntu.edu.tw/outgoing/view/semester/1/sn/931,是,一般組,,大二以上/碩一以上/博一以上學生,本校大二以上/碩一以上/博一以上學生，以報名交換學生甄選時，本校教務處學籍系統上之年級為準。 2.	具葡萄牙語能力證明 ，B1以上檢定證書或本校修讀葡萄牙語4個學期以上成績及格證明,,全學年1名。,First semester: February - July；Second semester: August - December,須在本校註冊並繳交全額學雜費，免繳該校學費，但住宿費、生活費、保險費、往返機票費等均須自行負擔,不保證住宿，住宿資訊請參考下方說明：,交換學校一覽表所列之語言能力為該校之最低門檻要求，同學需自行確認語言能力是否符合該校修課要求、查詢是否有相對應系所及足夠的課程可供選讀、能否達到該校之每學期修課學分數要求、以及是否具備相關領域之背景知識，若未達標準，該校有權拒收,,-22.822656
1061,魁北克大學蒙特婁分校,Université du Québec à Montréal (UQAM),加拿大,Canada,https://oia.ntu.edu.tw/outgoing/view/semester/1/sn/1061,是,法語組,GPA 達3.20分以上,,本校大二以上/碩一以上(不含博士生)學生，以報名交換學生甄選時，本校教務處學籍系統上之年級為準。 2.	GPA 達3.20分以上，部分院系有更高 GPA 要求，選填志願前請詳見注意事項，以免遭到拒收。 3.	具法語檢定成績 B2(中高級) 級以上,管理學院,一學期2名。,Fall semester: September - December；Winter semester: January - April/May,須在本校註冊並繳交全額學雜費，免繳該校學費，但該校雜費、住宿費、生活費、保險費、往返機票費等均須自行負擔,不保證住宿，住宿資訊請參考此連結,交換學校一覽表所列之語言能力為該校之最低門檻要求，同學需自行確認語言能力是否符合該校修課要求、查詢是否有相對應系所及足夠的課程可供選讀、能否達到該校之每學期修課學分數要求、以及是否具備相關領域之背景知識，若未達標準，該校有權拒收,,45.5132253
1075,愛德華王子島大學,University of Prince Edward Island (UPEI),加拿大,Canada,https://oia.ntu.edu.tw/outgoing/view/semester/1/sn/1075,是,一般組,GPA 達2.70分以上,大二以上(僅限大學部)學生,,,全學年0名。因交換學生往來不平衡，該校2025/2026年度不開放申請。  ⚠️重要公告 根據加拿大政府公告，自2024/2025年度起將限縮學生簽證（Study Permit）數，將影響期長為一學年之交換學生計畫，交換期長為一學期者因無需辦理學生簽證，暫不受到影響，敬請留意,Semester 1: September - December；Semester 2: January - March/April,須在本校註冊並繳交全額學雜費，免繳該校學費，但住宿費、生活費、保險費、往返機票費等均須自行負擔,不保證住宿，住宿資訊請參考：,交換學校一覽表所列之語言能力為該校之最低門檻要求，同學需自行確認語言能力是否符合該校修課要求、查詢是否有相對應系所及足夠的課程可供選讀、能否達到該校之每學期修課學分數要求、以及是否具備相關領域之背景知識，若未達標準，該校有權拒收,,46.2594778
115,蒙特婁大學,Université de Montréal (UdeM),加拿大,Canada,https://oia.ntu.edu.tw/outgoing/view/semester/1/sn/115,是,法語組,GPA 達3.00分以上,,本校大二以上/碩一以上(不含博士生)學生，以報名交換學生甄選時，本校教務處學籍系統上之年級為準。 2.	GPA 達3.00分以上。 3.	具法語檢定成績 B2(中高級) 級以上,管理學院、工學院,一學期2名。,Fall Semester: September - December；Winter Semester: January - April,須在本校註冊並繳交全額學雜費，免繳該校學費，但住宿費、生活費、保險費、往返機票費等均須自行負擔,不保證住宿，住宿資訊請參考此連結,交換學校一覽表所列之語言能力為該校之最低門檻要求，同學需自行確認語言能力是否符合該校修課要求、查詢是否有相對應系所及足夠的課程可供選讀、能否達到該校之每學期修課學分數要求、以及是否具備相關領域之背景知識，若未達標準，該校有權拒收,,45.5047577
599,女王大學,Queen's University,加拿大,Canada,https://oia.ntu.edu.tw/outgoing/view/semester/1/sn/599,否,一般組,GPA 達3.00分以上,,,法律學院,一學期1名。,Fall Term: September - December；Winter Term: January - April,須在本校註冊並繳交全額學雜費，免繳該校學費，但該校雜費、住宿費、生活費、保險費、往返機票費等均須自行負擔,不保證住宿，詳情請參考此連結,交換學校一覽表所列之語言能力為該校之最低門檻要求，同學需自行確認語言能力是否符合該校修課要求、查詢是否有相對應系所及足夠的課程可供選讀、能否達到該校之每學期修課學分數要求、以及是否具備相關領域之背景知識，若未達標準，該校有權拒收,,44.2279934
6,滑鐵盧大學,University of Waterloo,加拿大,Canada,https://oia.ntu.edu.tw/outgoing/view/semester/1/sn/6,是,一般組,GPA 達2.70分以上,,,,一學期4名。,Fall Term: September - December；Winter Term: January - April,須在本校註冊並繳交全額學雜費，免繳該校學費，但住宿費、生活費、保險費、往返機票費等均須自行負擔,不保證住宿，住宿資訊請參考此連結,交換學校一覽表所列之語言能力為該校之最低門檻要求，同學需自行確認語言能力是否符合該校修課要求、查詢是否有相對應系所及足夠的課程可供選讀、能否達到該校之每學期修課學分數要求、以及是否具備相關領域之背景知識，若未達標準，該校有權拒收,,43.4701994
5,西門菲沙大學,Simon Fraser University (SFU),加拿大,Canada,https://oia.ntu.edu.tw/outgoing/view/semester/1/sn/5,是,一般組,,,,,一學期1名。,Fall Term: September - December；Spring Term: January - April,須在本校註冊並繳交全額學雜費，免繳該校學費，但住宿費、生活費、保險費、往返機票費等均須自行負擔,不保證住宿，住宿資訊請參考此連結,交換學校一覽表所列之語言能力為該校之最低門檻要求，同學需自行確認語言能力是否符合該校修課要求、查詢是否有相對應系所及足夠的課程可供選讀、能否達到該校之每學期修課學分數要求、以及是否具備相關領域之背景知識，若未達標準，該校有權拒收,,49.2767096
3,渥太華大學,University of Ottawa,加拿大,Canada,https://oia.ntu.edu.tw/outgoing/view/semester/1/sn/3,否,一般組,GPA 達3.00分以上,,,醫學院、管理學院,全學年0名。因交換學生往來不平衡，該校2025/2026年度不開放申請。  ⚠️重要公告 根據加拿大政府公告，自2024/2025年度起將限縮學生簽證（Study Permit）數，將影響期長為一學年之交換學生計畫，交換期長為一學期者因無需辦理學生簽證，暫不受到影響，敬請留意,Fall Semester: September - December；Spring Semester: January - April*,須在本校註冊並繳交全額學雜費，免繳該校學費，但住宿費、生活費、保險費、往返機票費等均須自行負擔,,交換學校一覽表所列之語言能力為該校之最低門檻要求，同學需自行確認語言能力是否符合該校修課要求、查詢是否有相對應系所及足夠的課程可供選讀、能否達到該校之每學期修課學分數要求、以及是否具備相關領域之背景知識，若未達標準，該校有權拒收,,45.4225271
4,多倫多大學,University of Toronto (U of T),加拿大,Canada,https://oia.ntu.edu.tw/outgoing/view/semester/1/sn/4,否,一般組,,,,,一學期2名。,Fall Term: September - December；Spring Term: January - April,須在本校註冊並繳交全額學雜費，免繳該校學費，但住宿費、生活費、保險費、往返機票費等均須自行負擔,,交換學校一覽表所列之語言能力為該校之最低門檻要求，同學需自行確認語言能力是否符合該校修課要求、查詢是否有相對應系所及足夠的課程可供選讀、能否達到該校之每學期修課學分數要求、以及是否具備相關領域之背景知識，若未達標準，該校有權拒收,,43.663462
2,維多利亞大學,University of Victoria (UVic),加拿大,Canada,https://oia.ntu.edu.tw/outgoing/view/semester/1/sn/2,是,一般組,,,,管理學院、法律學院、工學院,一學期2名。,Fall Term: September - December；Spring Term: January - April,須在本校註冊並繳交全額學雜費，免繳該校學費，但該校雜費、住宿費、生活費、保險費、往返機票費等均須自行負擔,不保證住宿，住宿資訊請參考此連結,交換學校一覽表所列之語言能力為該校之最低門檻要求，同學需自行確認語言能力是否符合該校修課要求、查詢是否有相對應系所及足夠的課程可供選讀、能否達到該校之每學期修課學分數要求、以及是否具備相關領域之背景知識，若未達標準，該校有權拒收,,48.46206
1,加拿大英屬哥倫比亞大學（卑詩大學）,The University of British Columbia (UBC),加拿大,Canada,https://oia.ntu.edu.tw/outgoing/view/semester/1/sn/1,是,一般組,GPA 達2.80分以上,,,社會科學院新聞研究所、醫學院、法律學院、工學院、管理學院會計學研究所、管理學院財務金融學研究所、管理學院國際企業學研究所、管理學院資訊管理學研究所、管理學院商學研究所、管理學院管理學院企業管理碩士專班、理學院心理學研究所、社會科學院政治學研究所、文學院人類學研究所、社會科學院經濟學研究所,一學期4名。,Vancouver 校區：UBC Vancouver Academic Calendar；Okanagan 校區：UBC Okanagan Academic Calendar,須在本校註冊並繳交全額學雜費，免繳該校學費，但該校雜費、住宿費、生活費、保險費、往返機票費等均須自行負擔,不保證住宿，Vancouver校區住宿資訊請參閱此連結、Okanagan校區請參閱此連結,交換學校一覽表所列之語言能力為該校之最低門檻要求，同學需自行確認語言能力是否符合該校修課要求、查詢是否有相對應系所及足夠的課程可供選讀、能否達到該校之每學期修課學分數要求、以及是否具備相關領域之背景知識，若未達標準，該校有權拒收,,49.2484638
60,智利天主教大學,Pontificia Universidad Católica de Chile (UC Chile),智利,Chile,https://oia.ntu.edu.tw/outgoing/view/semester/1/sn/60,是,西語組,GPA 達3.70分以上,大二以上(僅限大學部)學生,"本校大二以上(僅限大學部)學生，以報名交換學生甄選時，本校教務處學籍系統上之年級為準。 2.	GPA 達3.70分以上。 3.	具西語檢定成績 B2(中高級) 級以上，DELE, SIELE",醫學院、公共衛生學院,全學年2名。,First Semester: March - July；Second Semester: August - December,須在本校註冊並繳交全額學雜費，免繳該校學費，但該校雜費、住宿費、生活費、保險費、往返機票費等均須自行負擔,不保證住宿。,交換學校一覽表所列之語言能力為該校之最低門檻要求，同學需自行確認語言能力是否符合該校修課要求、查詢是否有相對應系所及足夠的課程可供選讀、能否達到該校之每學期修課學分數要求、以及是否具備相關領域之背景知識，若未達標準，該校有權拒收。,-33.4548376,-70.5943911
1283,哥倫比亞安地斯大學,Universidad de los Andes,哥倫比亞,Colombia,https://oia.ntu.edu.tw/outgoing/view/semester/1/sn/1283,是,西語組,GPA 達3.00分以上,,本校大二以上/碩一以上(不含博士生)學生，以報名交換學生甄選時，本校教務處學籍系統上之年級為準。 2.	歷年不得有不及格／不通過科目。 3.	GPA 達3.00分以上。 4.	具西語檢定成績 B2(中高級) 級以上,醫學院,全學年1名。,Fall Semester: August - December；Spring Semester: January - June,須在本校註冊並繳交全額學雜費，免繳該校學費，但該校雜費、住宿費、生活費、保險費、往返機票費等均須自行負擔,不保證住宿，更多資訊請參考此連結,交換學校一覽表所列之語言能力為該校之最低門檻要求，同學需自行確認語言能力是否符合該校修課要求、查詢是否有相對應系所及足夠的課程可供選讀、能否達到該校之每學期修課學分數要求、以及是否具備相關領域之背景知識，若未達標準，該校有權拒收,,4.6014026
1125,蒙特雷科技大學,,墨西哥,Mexico,https://oia.ntu.edu.tw/outgoing/view/semester/1/sn/1125,是,西語組,GPA 達3.44分以上,大二以上(僅限大學部)學生,本校大二以上(僅限大學部)學生，以報名交換學生甄選時，本校教務處學籍系統上之年級為準。 2.	GPA 達3.44分以上，A minimum Grade Point Average of 80/100 or its equivalent in the student's home university grading scale is required。 3.	具西語檢定成績 B1(中級) 級以上,醫學院,全學年1名。,Spring semester: February - June；Fall semester: August - December,須在本校註冊並繳交全額學雜費，免繳該校學費，但該校雜費、住宿費、生活費、保險費、往返機票費等均須自行負擔,不保證住宿，住宿資訊請參考此連結,交換學校一覽表所列之語言能力為該校之最低門檻要求，同學需自行確認語言能力是否符合該校修課要求、查詢是否有相對應系所及足夠的課程可供選讀、能否達到該校之每學期修課學分數要求、以及是否具備相關領域之背景知識，若未達標準，該校有權拒收,,20.6770061
903,墨西哥國立自治大學,Universidad Nacional Autónoma de México (UNAM),墨西哥,Mexico,https://oia.ntu.edu.tw/outgoing/view/semester/1/sn/903,是,西語組,GPA 達3.70分以上,大二以上(僅限大學部)學生,"本校大二以上(僅限大學部)學生，以報名交換學生甄選時，本校教務處學籍系統上之年級為準。 2.	GPA 達3.70分以上，該校各系所之交換入學申請，尚有許多附加條件，請欲選擇至該校交換的同學，於選填志願前務必至該校網站查詢。 3.	具西語檢定成績 B2(中高級) 級以上，SIELE or DELE certificate, B2 at minimum",醫學院、生物資源暨農學院獸醫學系,全學年2名。,Fall Semester: August - December (incl. final exams period)；Spring Semester: January - June (incl. final exams period),須在本校註冊並繳交全額學雜費，免繳該校學費，但該校雜費、住宿費、生活費、保險費、往返機票費等均須自行負擔,不保證住宿，更多資訊請參考此連結。,交換學校一覽表所列之語言能力為該校之最低門檻要求，同學需自行確認語言能力是否符合該校修課要求、查詢是否有相對應系所及足夠的課程可供選讀、能否達到該校之每學期修課學分數要求、以及是否具備相關領域之背景知識，若未達標準，該校有權拒收,['交換學校一覽表所列之語言能力為該校之最低門檻要求，同學需自行確認語言能力是否符合該校修課要求、查詢是否有相對應系所及足夠的課程可供選讀、能否達到該校之每學期修課學分數要求、以及是否具備相關領域之背景知識，若未達標準，該校有權拒收'],19.321597
207,西北大學,Northwestern University,美國,United States,https://oia.ntu.edu.tw/outgoing/view/semester/1/sn/207,否,一般組,GPA 達3.30分以上,,,管理學院、法律學院、醫學院,全學年2名。,Fall Quarter: September - December；Winter Quarter: January - Early-March,須在本校註冊並繳交全額學雜費，免繳該校學費，但該校雜費、住宿費、生活費、保險費、往返機票費等均須自行負擔,不保證住宿，更多資訊請見此連結,交換學校一覽表所列之語言能力為該校之最低門檻要求，同學需自行確認語言能力是否符合該校修課要求、查詢是否有相對應系所及足夠的課程可供選讀、能否達到該校之每學期修課學分數要求、以及是否具備相關領域之背景知識，若未達標準，該校有權拒收,,42.0557157
1282,德州大學奧斯汀分校,The University of Texas at Austin (UT Austin),美國,United States,https://oia.ntu.edu.tw/outgoing/view/semester/1/sn/1282,否,一般組,GPA 達3.30分以上,,,醫學院、管理學院、法律學院,全學年1名。,Fall Semester: August - December；Spring Semester: January - May,須在本校註冊並繳交全額學雜費，免繳該校學費，但該校雜費、住宿費、生活費、保險費、往返機票費等均須自行負擔,不保證住宿，更多資訊請參考此連結。,交換學校一覽表所列之語言能力為該校之最低門檻要求，同學需自行確認語言能力是否符合該校修課要求、查詢是否有相對應系所及足夠的課程可供選讀、能否達到該校之每學期修課學分數要求、以及是否具備相關領域之背景知識，若未達標準，該校有權拒收,,30.2851494
420,康乃爾大學,Cornell University,美國,United States,https://oia.ntu.edu.tw/outgoing/view/semester/1/sn/420,否,一般組,GPA 達3.30分以上,,,管理學院、電機資訊學院、醫學院、生物資源暨農學院獸醫學系、法律學院,全學年1名。,Fall Semester: August - December；Spring Semester: January - May,須在本校註冊並繳交全額學雜費，免繳該校學費，但該校雜費、住宿費、生活費、保險費、往返機票費等均須自行負擔,不保證住宿，詳情請參閱以下資訊：,交換學校一覽表所列之語言能力為該校之最低門檻要求，同學需自行確認語言能力是否符合該校修課要求、查詢是否有相對應系所及足夠的課程可供選讀、能否達到該校之每學期修課學分數要求、以及是否具備相關領域之背景知識，若未達標準，該校有權拒收,,42.4529076
1202,北卡羅來納大學格林斯伯勒分校,,美國,United States,https://oia.ntu.edu.tw/outgoing/view/semester/1/sn/1202,否,一般組,GPA 達2.75分以上,,,電機資訊學院電機工程學研究所、理學院心理學研究所、醫學院護理學系,全學年1名。,Fall Semester: August - December；Spring Semester: January - May,須在本校註冊並繳交全額學雜費，免繳該校學費，但住宿費、生活費、保險費、往返機票費等均須自行負擔,保證校內住宿，住宿資訊請參考此連結,交換學校一覽表所列之語言能力為該校之最低門檻要求，同學需自行確認語言能力是否符合該校修課要求、查詢是否有相對應系所及足夠的課程可供選讀、能否達到該校之每學期修課學分數要求、以及是否具備相關領域之背景知識，若未達標準，該校有權拒收,,36.0703549
980,斯克蘭頓大學,The University of Scranton,美國,United States,https://oia.ntu.edu.tw/outgoing/view/semester/1/sn/980,是,一般組,GPA 達3.70分以上,,,文學院哲學系、醫學院,全學年0名。因交換學生往來不平衡，該校2025/2026年度不開放申請。,Fall Semester: August - December；Spring Semester: January - May,"須在本校註冊並繳交全額學雜費，免繳該校學費，但住宿費、生活費、保險費、往返機票費等均須自行負擔其他資訊交換學校一覽表所列之語言能力為該校之最低門檻要求，同學需自行確認語言能力是否符合該校修課要求、查詢是否有相對應系所及足夠的課程可供選讀、能否達到該校之每學期修課學分數要求、以及是否具備相關領域之背景知識，若未達標準，該校有權拒收交換生資訊請參考此連結課程資訊請參考此連結Exchanges are available for any of Scranton’s 66 undergraduate disciplines except the Nursing, Physical Therapy and Occupational Therapy programs.Minimum academic workload per semester: 12 credit hours per semester (approx. 4 courses)Health Insurance (mandatory): All exchange students are required to purchase a University of Scranton health insurance policy (Geoblue) for the duration of their stay at the University. The cost of insurance is approximately $125 per month which will be automatically charged to your University account.Meningitis Immunization (mandatory): ALL students attending The University of Scranton must show proof of meningitis immunization. If you do not have the necessary documentation, or have not been immunized against meningitis, you must go to the Student Health Center upon arrival for this immunization. The health insurance which we will be purchasing, will not cover immunization, therefore, we recommend that you get your immunization at your home country.Estimated Costs Per Semester (Subject to change): $11,000 Room: $5,203Board (meals): $2,686-$3,180Books: $900Health Insurance: $500.00Miscellaneous/Personal Expenses: $1,000",保證住宿，住宿資訊請參考此連結,,,41.4064465
827,奧瑞岡州立大學,Oregon State University (OSU),美國,United States,https://oia.ntu.edu.tw/outgoing/view/semester/1/sn/827,是,一般組,,大二以上(僅限大學部)學生,,,全學年1名。,Fall Term: September - December；Winter Term: January - March,須在本校註冊並繳交全額學雜費，免繳該校學費，但住宿費、生活費、保險費、往返機票費等均須自行負擔,不保證住宿，住宿資訊請參考此連結,交換學校一覽表所列之語言能力為該校之最低門檻要求，同學需自行確認語言能力是否符合該校修課要求、查詢是否有相對應系所及足夠的課程可供選讀、能否達到該校之每學期修課學分數要求、以及是否具備相關領域之背景知識，若未達標準，該校有權拒收,['交換學校一覽表所列之語言能力為該校之最低門檻要求，同學需自行確認語言能力是否符合該校修課要求、查詢是否有相對應系所及足夠的課程可供選讀、能否達到該校之每學期修課學分數要求、以及是否具備相關領域之背景知識，若未達標準，該校有權拒收'],44.563056
863,康乃狄克大學,University of Connecticut (UConn),美國,United States,https://oia.ntu.edu.tw/outgoing/view/semester/1/sn/863,否,一般組,GPA 達3.20分以上,大二以上(僅限大學部)學生,,醫學院、法律學院、社會科學院社會工作學系,全學年1名。,Fall Semester: August - December；Spring Semester: January - May,須在本校註冊並繳交全額學雜費，免繳該校學費，但住宿費、生活費、保險費、往返機票費等均須自行負擔,保證住宿，住宿資訊請參考此連結,交換學校一覽表所列之語言能力為該校之最低門檻要求，同學需自行確認語言能力是否符合該校修課要求、查詢是否有相對應系所及足夠的課程可供選讀、能否達到該校之每學期修課學分數要求、以及是否具備相關領域之背景知識，若未達標準，該校有權拒收,,41.8111114
1000,喬治梅森大學,George Mason University (GMU),美國,United States,https://oia.ntu.edu.tw/outgoing/view/semester/1/sn/1000,是,一般組,GPA 達2.50分以上,,,醫學院護理學系、法律學院、管理學院管理學院企業管理碩士專班,全學年0名。因交換學生往來不平衡，該校2026/2027年度不開放申請。,Fall Semester: August - December；Spring Semester: January - May,須在本校註冊並繳交全額學雜費，免繳該校學費，但住宿費、生活費、保險費、往返機票費等均須自行負擔,不保證住宿，詳細資訊請參考此連結,交換學校一覽表所列之語言能力為該校之最低門檻要求，同學需自行確認語言能力是否符合該校修課要求、查詢是否有相對應系所及足夠的課程可供選讀、能否達到該校之每學期修課學分數要求、以及是否具備相關領域之背景知識，若未達標準，該校有權拒收,,38.8313333
1078,匹茲堡大學,University of Pittsburgh,美國,United States,https://oia.ntu.edu.tw/outgoing/view/semester/1/sn/1078,否,一般組,GPA 達3.30分以上,,,醫學院、管理學院,全學年0名。因交換學生往來不平衡，該校2025/2026年度不開放申請。,Fall Term: August - December；Spring Term: January - April,須在本校註冊並繳交全額學雜費，免繳該校學費，但住宿費、生活費、保險費、往返機票費等均須自行負擔。,不保證住宿，住宿資訊請參考此連結,交換學校一覽表所列之語言能力為該校之最低門檻要求，同學需自行確認語言能力是否符合該校修課要求、查詢是否有相對應系所及足夠的課程可供選讀、能否達到該校之每學期修課學分數要求、以及是否具備相關領域之背景知識，若未達標準，該校有權拒收,,40.444153
799,新澤西州立羅格斯大學,"Rutgers, The State University of New Jersey",美國,United States,https://oia.ntu.edu.tw/outgoing/view/semester/1/sn/799,否,一般組,,,,管理學院,全學年0名。因交換學生往來不平衡，該校2025/2026年度不開放申請。,Fall Semester: August - December；Spring Semester: January - May,須在本校註冊並繳交全額學雜費，免繳該校學費，但住宿費、生活費、保險費、往返機票費等均須自行負擔。,保證校內住宿，詳細資訊請參考此連結。,交換學校一覽表所列之語言能力為該校之最低門檻要求，同學需自行確認語言能力是否符合該校修課要求、查詢是否有相對應系所及足夠的課程可供選讀、能否達到該校之每學期修課學分數要求、以及是否具備相關領域之背景知識，若未達標準，該校有權拒收,,40.5204169
872,南卡羅來納大學,University of South Carolina (U of SC),美國,United States,https://oia.ntu.edu.tw/outgoing/view/semester/1/sn/872,否,一般組,GPA 達2.75分以上,大二以上(僅限大學部)學生,,醫學院、管理學院、法律學院,全學年1名。,Fall Semester: August - December；Spring Semester: January - May,須在本校註冊並繳交全額學雜費，免繳該校學費，但住宿費、生活費、保險費、往返機票費等均須自行負擔,保證住宿，住宿資訊請參考此連結,交換學校一覽表所列之語言能力為該校之最低門檻要求，同學需自行確認語言能力是否符合該校修課要求、查詢是否有相對應系所及足夠的課程可供選讀、能否達到該校之每學期修課學分數要求、以及是否具備相關領域之背景知識，若未達標準，該校有權拒收,"[' Regional courses', '全學年1名', 'Fall Semester: August - December；Spring Semester: January - May', '須在本校註冊並繳交全額學雜費，免繳該校學費，但住宿費、生活費、保險費、往返機票費等均須自行負擔', '保證住宿，住宿資訊請參考此連結', '交換學校一覽表所列之語言能力為該校之最低門檻要求，同學需自行確認語言能力是否符合該校修課要求、查詢是否有相對應系所及足夠的課程可供選讀、能否達到該校之每學期修課學分數要求、以及是否具備相關領域之背景知識，若未達標準，該校有權拒收']",34.0030656
368,伊利諾大學香檳分校,University of Illinois at Urbana-Champaign (UIUC),美國,United States,https://oia.ntu.edu.tw/outgoing/view/semester/1/sn/368,是,一般組,GPA 達3.30分以上,,,管理學院、工學院、電機資訊學院、法律學院、生物資源暨農學院獸醫學系、醫學院,全學年2名。,Fall Semester: August - December；Spring Semester: January - May,須在本校註冊並繳交全額學雜費，免繳該校學費，但住宿費、生活費、保險費、往返機票費等均須自行負擔,不保證住宿，住宿相關資訊請參考此連結,交換學校一覽表所列之語言能力為該校之最低門檻要求，同學需自行確認語言能力是否符合該校修課要求、查詢是否有相對應系所及足夠的課程可供選讀、能否達到該校之每學期修課學分數要求、以及是否具備相關領域之背景知識，若未達標準，該校有權拒收,,40.0761545
612,北卡羅來納大學教堂山分校,The University of North Carolina at Chapel Hill (UNC-Chapel Hill),美國,United States,https://oia.ntu.edu.tw/outgoing/view/semester/1/sn/612,是,一般組,GPA 達3.00分以上,,,醫學院、法律學院、社會科學院新聞研究所、電機資訊學院、文學院圖書資訊學系、文學院圖書資訊學研究所、管理學院、公共衛生學院、社會科學院國家發展研究所、社會科學院公共事務研究所、社會科學院社會工作學系,全學年2名。,Fall Semester: August - December；Spring Semester: January - March/April,須在本校註冊並繳交全額學雜費，免繳該校學費，但住宿費、生活費、保險費、往返機票費等均須自行負擔,不保證住宿，住宿資訊請參考此連結,交換學校一覽表所列之語言能力為該校之最低門檻要求，同學需自行確認語言能力是否符合該校修課要求、查詢是否有相對應系所及足夠的課程可供選讀、能否達到該校之每學期修課學分數要求、以及是否具備相關領域之背景知識，若未達標準，該校有權拒收,,35.9050353
366,威斯康辛大學麥迪遜分校,University of Wisconsin-Madison (UW-Madison),美國,United States,https://oia.ntu.edu.tw/outgoing/view/semester/1/sn/366,是,一般組,,大二以上/碩一以上/博一以上學生,,醫學院、法律學院、生物資源暨農學院獸醫學系、生物資源暨農學院獸醫學研究所、管理學院,全學年2名。,Fall Semester: September - December；Spring Semester: January - May,須在本校註冊並繳交全額學雜費，免繳該校學費，但住宿費、生活費、保險費、往返機票費等均須自行負擔。,不保證住宿，住宿資訊請參考此連結,交換學校一覽表所列之語言能力為該校之最低門檻要求，同學需自行確認語言能力是否符合該校修課要求、查詢是否有相對應系所及足夠的課程可供選讀、能否達到該校之每學期修課學分數要求、以及是否具備相關領域之背景知識，若未達標準，該校有權拒收,,43.0802745
432,天普大學,Temple University,美國,United States,https://oia.ntu.edu.tw/outgoing/view/semester/1/sn/432,是,一般組,GPA 達3.20分以上,,,醫學院、管理學院、法律學院、電機資訊學院、生物資源暨農學院獸醫學系、生物資源暨農學院獸醫學研究所、社會科學院新聞研究所,全學年2名。（該校僅開放 Full-Year Exchange）,Fall Semester: August - December；Spring Semester: January - May,須在本校註冊並繳交全額學雜費，免繳該校學費，但住宿費、生活費、保險費、往返機票費等均須自行負擔,不保證住宿，住宿資訊請參考此連結,交換學校一覽表所列之語言能力為該校之最低門檻要求，同學需自行確認語言能力是否符合該校修課要求、查詢是否有相對應系所及足夠的課程可供選讀、能否達到該校之每學期修課學分數要求、以及是否具備相關領域之背景知識，若未達標準，該校有權拒收,,39.981188
364,猶他大學,The University of Utah (U of U),美國,United States,https://oia.ntu.edu.tw/outgoing/view/semester/1/sn/364,是,一般組,GPA 達2.60分以上,大二以上(僅限大學部)學生,,醫學院、法律學院,全學年2名。,Fall Semester: August - December；Spring Semester: January - April,須在本校註冊並繳交全額學雜費，免繳該校學費，但住宿費、生活費、保險費、往返機票費等均須自行負擔,保證校內住宿，住宿資訊請參考此連結,交換學校一覽表所列之語言能力為該校之最低門檻要求，同學需自行確認語言能力是否符合該校修課要求、查詢是否有相對應系所及足夠的課程可供選讀、能否達到該校之每學期修課學分數要求、以及是否具備相關領域之背景知識，若未達標準，該校有權拒收,,40.7628137
365,夏威夷太平洋大學,Hawai‘i Pacific University (HPU),美國,United States,https://oia.ntu.edu.tw/outgoing/view/semester/1/sn/365,否,一般組,GPA 達2.75分以上,大二以上(僅限大學部)學生,,,全學年0名。因交換學生往來不平衡，該校2025/2026年度不開放申請。,Fall term: August - December；Spring term: January - May,須在本校註冊並繳交全額學雜費，免繳該校學費，但住宿費、生活費、保險費、往返機票費等均須自行負擔。,,交換學校一覽表所列之語言能力為該校之最低門檻要求，同學需自行確認語言能力是否符合該校修課要求、查詢是否有相對應系所及足夠的課程可供選讀、能否達到該校之每學期修課學分數要求、以及是否具備相關領域之背景知識，若未達標準，該校有權拒收,"['須在本校註冊並繳交全額學雜費，免繳該校學費，但住宿費、生活費、保險費、往返機票費等均須自行負擔', '不保證住宿，住宿資訊請參考此連結', '交換學校一覽表所列之語言能力為該校之最低門檻要求，同學需自行確認語言能力是否符合該校修課要求、查詢是否有相對應系所及足夠的課程可供選讀、能否達到該校之每學期修課學分數要求、以及是否具備相關領域之背景知識，若未達標準，該校有權拒收']",21.3795227
369,夏威夷大學希羅分校,University of Hawai‘i at Hilo (UH Hilo),美國,United States,https://oia.ntu.edu.tw/outgoing/view/semester/1/sn/369,是,一般組,GPA 達3.00分以上,大二以上(僅限大學部)學生,,,全學年0名。因交換學生往來不平衡，該校2025/2026年度不開放申請。,Fall Semester: September- December；Spring Semester: January - May,,,,,19.7013865
17,紐約州立大學阿爾伯尼分校,State University of New York at Albany,美國,United States,https://oia.ntu.edu.tw/outgoing/view/semester/1/sn/17,否,一般組,GPA 達3.00分以上,,,,全學年0名。因交換學生往來不平衡，該校2025/2026年度不開放申請。,Fall Semester: August - December；Spring Semester: February - May,須在本校註冊並繳交全額學雜費，免繳該校學費，但住宿費、生活費、保險費、往返機票費等均須自行負擔。,不保證住宿，住宿資訊請參考此連結,交換學校一覽表所列之語言能力為該校之最低門檻要求，同學需自行確認語言能力是否符合該校修課要求、查詢是否有相對應系所及足夠的課程可供選讀、能否達到該校之每學期修課學分數要求、以及是否具備相關領域之背景知識，若未達標準，該校有權拒收,,42.6639622
18,亞利桑那州立大學,Arizona State University (ASU),美國,United States,https://oia.ntu.edu.tw/outgoing/view/semester/1/sn/18,是,一般組,,,,,全學年0名。因交換學生往來不平衡，該校2025/2026年度不開放申請。,Fall Semester: August - December；Spring Semester: January - May,須在本校註冊並繳交全額學雜費，免繳該校學費，但住宿費、生活費、保險費、往返機票費等均須自行負擔,不保證住宿，住宿資訊請參考此連結,交換學校一覽表所列之語言能力為該校之最低門檻要求，同學需自行確認語言能力是否符合該校修課要求、查詢是否有相對應系所及足夠的課程可供選讀、能否達到該校之每學期修課學分數要求、以及是否具備相關領域之背景知識，若未達標準，該校有權拒收,,33.4213174
19,伊利諾大學芝加哥分校,University of Illinois at Chicago (UIC),美國,United States,https://oia.ntu.edu.tw/outgoing/view/semester/1/sn/19,否,一般組,,,,社會科學院社會學系、理學院化學系、理學院心理學系、法律學院、生命科學院、生物資源暨農學院生物產業傳播暨發展學系、電機資訊學院,全學年0名。因交換學生往來不平衡，該校2025/2026年度不開放申請。,Fall Semester: August - December；Spring Semester: January - May,須在本校註冊並繳交全額學雜費，免繳該校學費，但住宿費、生活費、保險費、往返機票費等均須自行負擔。,不保證住宿，住宿資訊請參考此連結、此連結及此連結,交換學校一覽表所列之語言能力為該校之最低門檻要求，同學需自行確認語言能力是否符合該校修課要求、查詢是否有相對應系所及足夠的課程可供選讀、能否達到該校之每學期修課學分數要求、以及是否具備相關領域之背景知識，若未達標準，該校有權拒收,,41.8689223
16,馬里蘭大學,University of Maryland (UMD),美國,United States,https://oia.ntu.edu.tw/outgoing/view/semester/1/sn/16,否,一般組,GPA 達3.38分以上,大二以上(僅限大學部)學生,,工學院、管理學院,全學年2名。,Fall Semester: August - December；Spring Semester: January - May,須在本校註冊並繳交全額學雜費，免繳該校學費，但住宿費、生活費、保險費、往返機票費等均須自行負擔,保證住宿，更多資訊請見此連結,交換學校一覽表所列之語言能力為該校之最低門檻要求，同學需自行確認語言能力是否符合該校修課要求、查詢是否有相對應系所及足夠的課程可供選讀、能否達到該校之每學期修課學分數要求、以及是否具備相關領域之背景知識，若未達標準，該校有權拒收,,38.9904124
15,奧瑞岡大學,University of Oregon (UO),美國,United States,https://oia.ntu.edu.tw/outgoing/view/semester/1/sn/15,是,一般組,,,,法律學院、管理學院會計學研究所、管理學院財務金融學研究所、管理學院國際企業學研究所、管理學院資訊管理學研究所、管理學院商學研究所、管理學院管理學院企業管理碩士專班,全學年1名。,Fall Term: September - December；Winter Term: January - March,,不保證住宿，學生須自行申請，住宿資訊請參考此連結,訪問生資訊請參考此連結,,44.0444197
13,北卡羅來納州立大學,NC State University (NCSU),美國,United States,https://oia.ntu.edu.tw/outgoing/view/semester/1/sn/13,是,一般組,,,,生物資源暨農學院獸醫學系、生物資源暨農學院獸醫學研究所、醫學院醫學工程學研究所、工學院醫學工程學研究所,全學年1名。,Fall Term: August - December；Spring Term: January - May,須在本校註冊並繳交全額學雜費，免繳該校學費，但住宿費、生活費、保險費、往返機票費等均須自行負擔,不保證住宿，住宿資訊請參考此連結,交換學校一覽表所列之語言能力為該校之最低門檻要求，同學需自行確認語言能力是否符合該校修課要求、查詢是否有相對應系所及足夠的課程可供選讀、能否達到該校之每學期修課學分數要求、以及是否具備相關領域之背景知識，若未達標準，該校有權拒收,,35.7397972
14,夏威夷大學瑪諾亞分校,University of Hawai‘i at Mānoa (UH Mānoa),美國,United States,https://oia.ntu.edu.tw/outgoing/view/semester/1/sn/14,是,一般組,GPA 達2.70分以上,大二以上/碩一以上/博一以上學生,,法律學院、醫學院,全學年2名。,Fall Semester: August - December；Spring Semester: January - May,,不保證住宿，校內住宿資訊請參考此連結、校外住宿資訊請參考此連結,該校學士生訪問學生計畫資訊請參考此連結,,21.2982795
10,喬治亞大學,University of Georgia (UGA),美國,United States,https://oia.ntu.edu.tw/outgoing/view/semester/1/sn/10,是,一般組,GPA 達3.30分以上,,,醫學院藥學系、醫學院藥學研究所、生物資源暨農學院獸醫學系、生物資源暨農學院獸醫學研究所、法律學院,全學年2名。,Fall Semester: August - December；Spring Semester: January - May,須在本校註冊並繳交全額學雜費，免繳該校學費，但住宿費、生活費、保險費、往返機票費等均須自行負擔。,不保證住宿，住宿資訊請參考此連結,交換學校一覽表所列之語言能力為該校之最低門檻要求，同學需自行確認語言能力是否符合該校修課要求、查詢是否有相對應系所及足夠的課程可供選讀、能否達到該校之每學期修課學分數要求、以及是否具備相關領域之背景知識，若未達標準，該校有權拒收,,33.9404278
11,奧克拉荷瑪大學,The University of Oklahoma (OU),美國,United States,https://oia.ntu.edu.tw/outgoing/view/semester/1/sn/11,是,一般組,,,,醫學院、管理學院會計學研究所、管理學院財務金融學研究所、管理學院國際企業學研究所、管理學院資訊管理學研究所、管理學院商學研究所、管理學院管理學院企業管理碩士專班、社會科學院經濟學研究所,全學年1名。,Fall Semester: August - December；Spring Semester: January - May,須在本校註冊並繳交全額學雜費，免繳該校學費，但住宿費、生活費、保險費、往返機票費等均須自行負擔。,不保證住宿，住宿資訊請參考下方說明：,交換學校一覽表所列之語言能力為該校之最低門檻要求，同學需自行確認語言能力是否符合該校修課要求、查詢是否有相對應系所及足夠的課程可供選讀、能否達到該校之每學期修課學分數要求、以及是否具備相關領域之背景知識，若未達標準，該校有權拒收,,35.1959878
12,加州州立大學,The California State University (CSUIP),美國,United States,https://oia.ntu.edu.tw/outgoing/view/semester/1/sn/12,是,一般組,GPA 達3.30分以上,大二以上(僅限大學部)學生,,,全學年4名。,"All campuses operate on the semester system, except the San Luis Obispo campus, which operates on a quarter system. Three quarters are equal to two semesters or one academic year.；Before making travel plans, verify the mandatory orientation date at your host CSU. We strongly advise that you do not make personal financial commitments, including but not limited to purchasing tickets/insurance or reserving accommodations, until you receive your DS-2019 for the visa application, confirm your consular appointment and are granted a student visa.",須在本校註冊並繳交全額學雜費，免繳該校學費，但住宿費、生活費、保險費、往返機票費等均須自行負擔申請流程注意：選填加州州立大學作為校內國際交換學生甄選志願者，請務必詳讀下列注意事項，及該校網站說明。錄取報到後，即視為已詳細閱讀並同意相關規定。,不保證住宿，住宿資訊請參考此連結,交換學校一覽表所列之語言能力為該校之最低門檻要求，同學需自行確認語言能力是否符合該校各校區修課要求、查詢是否有相對應系所及足夠的課程可供選讀、能否達到該校之每學期修課學分數要求、以及是否具備相關領域之背景知識，若未達標準，該校有權拒收。,,34.066406336107384
7,華盛頓大學,University of Washington (UW),美國,United States,https://oia.ntu.edu.tw/outgoing/view/semester/1/sn/7,否,一般組,GPA 達3.30分以上,大二以上(僅限大學部)學生,,管理學院,全學年2名。,,須在本校註冊並繳交全額學雜費，免繳該校學費，但住宿費、生活費、保險費、往返機票費等均須自行負擔,不保證住宿，住宿資訊請參考此連結,交換學校一覽表所列之語言能力為該校之最低門檻要求，同學需自行確認語言能力是否符合該校修課要求、查詢是否有相對應系所及足夠的課程可供選讀、能否達到該校之每學期修課學分數要求、以及是否具備相關領域之背景知識，若未達標準，該校有權拒收,,47.6554303
9,加州大學,University of California (UCEAP),美國,United States,https://oia.ntu.edu.tw/outgoing/view/semester/1/sn/9,否,一般組,GPA 達3.30分以上,,,醫學院、法律學院、生物資源暨農學院獸醫學系,全學年15名。,"A UC full academic year includes 30 weeks of instruction:；Three quarters (UC Davis, UC Irvine, UC Los Angeles, UC Riverside, UC Santa Cruz, UC Santa Barbara and UC San Diego) or",須在本校註冊並繳交全額學雜費，免繳該校學費，但住宿費、生活費、保險費、往返機票費等均須自行負擔申請流程注意：選填加州大學作為校內國際交換學生甄選志願者，請務必詳讀下列注意事項，及該校網站說明。錄取報到後，即視為已詳細閱讀並同意相關規定。,不保證住宿。Campus-specific住宿資訊請參閱此連結，General資訊請參閱此連結,交換學校一覽表所列之語言能力為該校之最低門檻要求，同學需自行確認語言能力是否符合該校修課要求、查詢是否有相對應系所及足夠的課程可供選讀、能否達到該校之每學期修課學分數要求、以及是否具備相關領域之背景知識，若未達標準，該校有權拒收。,"[' UC Los Angeles', ' UC Riverside', ' UC Santa Cruz', ' UC Santa Barbara and UC San Diego) or Two semesters (UC Berkeley and UC Merced)', '須在本校註冊並繳交全額學雜費，免繳該校學費，但住宿費、生活費、保險費、往返機票費等均須自行負擔', '不保證住宿。Campus-specific住宿資訊請參閱此連結，General資訊請參閱此連結', '交換學校一覽表所列之語言能力為該校之最低門檻要求，同學需自行確認語言能力是否符合該校修課要求、查詢是否有相對應系所及足夠的課程可供選讀、能否達到該校之每學期修課學分數要求、以及是否具備相關領域之背景知識，若未達標準，該校有權拒收']",33.6491782
1299,紐澤西理工學院,,美國,United States,https://oia.ntu.edu.tw/outgoing/view/semester/1/sn/1299,否,,,,,無,,,,,,,40.7421254
1164,香港恒生大學,The Hang Seng University of Hong Kong,香港,Hong Kong,https://oia.ntu.edu.tw/outgoing/view/semester/1/sn/1164,是,一般組,GPA 達3.00分以上,大二以上(僅限大學部)學生,,,全學年2名。,第一學期：9月- 12月 第二學期：1月- 5月,須在本校註冊並繳交全額學雜費，免繳該校學費，但該校雜費、住宿費、生活費、保險費、往返機票費等均須自行負擔。,,交換學校一覽表所列之語言能力等規定為該校之最低門檻，同學需自行查證最新資訊，確認語言能力及成績是否符合該校要求、查詢是否有足夠的課程可供選讀、能否達到該校之每學期修課學分數要求、以及是否具備相關領域之背景知識等，若未達標準，該校有權拒收。本表所提供之資訊如有與交換學校／國家／地區最新公告不符之處，申請學生應以交換學校／國家／地區之最新公告為準。,,22.3794996
1062,嶺南大學,Lingnan University,香港,Hong Kong,https://oia.ntu.edu.tw/outgoing/view/semester/1/sn/1062,是,一般組,GPA 達3.00分以上,,,,全學年2名。,,須在本校註冊並繳交全額學雜費，免繳該校學費，但該校雜費、住宿費、生活費、保險費、往返機票費等均須自行負擔,,交換學校一覽表所列之語言能力等規定為該校之最低門檻，同學需自行查證最新資訊，確認語言能力及成績是否符合該校要求、查詢是否有足夠的課程可供選讀、能否達到該校之每學期修課學分數要求、以及是否具備相關領域之背景知識等，若未達標準，該校有權拒收。本表所提供之資訊如有與交換學校／國家／地區最新公告不符之處，申請學生應以交換學校／國家／地區之最新公告為準。,,22.4123588
169,香港大學,The University of Hong Kong,香港,Hong Kong,https://oia.ntu.edu.tw/outgoing/view/semester/1/sn/169,是,一般組,GPA 達3.00分以上,大二以上(僅限大學部)學生,,醫學院、公共衛生學院,全學年3名。,第一學期：9月-12月；第二學期：1月-5月,須在本校註冊並繳交全額學雜費，免繳該校學費，但該校雜費、住宿費、生活費、保險費、往返機票費等均須自行負擔。,,交換學校一覽表所列之語言能力等規定為該校之最低門檻，同學需自行查證最新資訊，確認語言能力及成績是否符合該校要求、查詢是否有足夠的課程可供選讀、能否達到該校之每學期修課學分數要求、以及是否具備相關領域之背景知識等，若未達標準，該校有權拒收。本表所提供之資訊如有與交換學校／國家／地區最新公告不符之處，申請學生應以交換學校／國家／地區之最新公告為準。,,22.2826975
439,香港理工大學,The Hong Kong Polytechnic University,香港,Hong Kong,https://oia.ntu.edu.tw/outgoing/view/semester/1/sn/439,是,一般組,GPA 達2.90分以上,,,,全學年2名。,,須在本校註冊並繳交全額學雜費，免繳該校學費，但該校雜費、住宿費、生活費、保險費、往返機票費等均須自行負擔。,保證校內住宿，相關資訊請參考此網頁。,交換學校一覽表所列之語言能力等規定為該校之最低門檻，同學需自行查證最新資訊，確認語言能力及成績是否符合該校要求、查詢是否有足夠的課程可供選讀、能否達到該校之每學期修課學分數要求、以及是否具備相關領域之背景知識等，若未達標準，該校有權拒收。本表所提供之資訊如有與交換學校／國家／地區最新公告不符之處，申請學生應以交換學校／國家／地區之最新公告為準。,,22.3044867
22,香港城市大學,City University of Hong Kong,香港,Hong Kong,https://oia.ntu.edu.tw/outgoing/view/semester/1/sn/22,是,一般組,,,,生物資源暨農學院獸醫學系,全學年3名。,,須在本校註冊並繳交全額學雜費，免繳該校學費，但該校雜費、住宿費、生活費、保險費、往返機票費等均須自行負擔。,,交換學校一覽表所列之語言能力等規定為該校之最低門檻，同學需自行查證最新資訊，確認語言能力及成績是否符合該校要求、查詢是否有足夠的課程可供選讀、能否達到該校之每學期修課學分數要求、以及是否具備相關領域之背景知識等，若未達標準，該校有權拒收。本表所提供之資訊如有與交換學校／國家／地區最新公告不符之處，申請學生應以交換學校／國家／地區之最新公告為準。,,22.3400205
21,香港中文大學,The Chinese University of Hong Kong (CUHK),香港,Hong Kong,https://oia.ntu.edu.tw/outgoing/view/semester/1/sn/21,是,一般組,GPA 達3.00分以上,,,醫學院,全學年3名。,,須在本校註冊並繳交全額學雜費，免繳該校學費，但該校雜費、住宿費、生活費、保險費、往返機票費等均須自行負擔。,,交換學校一覽表所列之語言能力等規定為該校之最低門檻，同學需自行查證最新資訊，確認語言能力及成績是否符合該校要求、查詢是否有足夠的課程可供選讀、能否達到該校之每學期修課學分數要求、以及是否具備相關領域之背景知識等，若未達標準，該校有權拒收。本表所提供之資訊如有與交換學校／國家／地區最新公告不符之處，申請學生應以交換學校／國家／地區之最新公告為準。,,22.4201838
1292,印度理工學院印多爾分校,,印度,India,https://oia.ntu.edu.tw/outgoing/view/semester/1/sn/1292,是,一般組,GPA 達3.00分以上,,,,一學期2名。,該校年曆請見此連結,須在本校註冊並繳交全額學雜費，免繳該校學費，但該校雜費、住宿費、生活費、保險費、往返機票費等均須自行負擔。,保證校內住宿,交換學校一覽表所列之語言能力等規定為該校之最低門檻，同學需自行確認最新資訊，如語言能力及成績是否符合該校要求、查詢是否有足夠的課程可供選讀、能否達到該校之每學期修課學分數要求、以及是否具備相關領域之背景知識等，若未達標準，該校有權拒收。本表所提供之資訊如有與交換學校／國家／地區最新公告不符之處，申請學生應以交換學校／國家／地區之最新公告為準。經甄選錄取獲得本校推薦資格之交換生，不得於取得該校入學許可後，要求變更已取得的入學許可條件；或者是交換申請被該校拒絕後，要求以另一種條件重新提出申請。如有以上情事者，將直接取消其錄取資格。,,22.5269276
1297,印度理工學院海得拉巴分校,,印度,India,https://oia.ntu.edu.tw/outgoing/view/semester/1/sn/1297,是,一般組,GPA 達4.00分以上,,,無,一學期3名。,,須在本校註冊並繳交全額學雜費，免繳該校學費，但該校雜費、住宿費、生活費、保險費、往返機票費等均須自行負擔。,保證校內住宿。Accommodation arranged by the host university at nominal fees.,交換學校一覽表所列之語言能力等規定為該校之最低門檻，同學需自行確認最新資訊，如語言能力及成績是否符合該校要求、查詢是否有足夠的課程可供選讀、能否達到該校之每學期修課學分數要求、以及是否具備相關領域之背景知識等，若未達標準，該校有權拒收。本表所提供之資訊如有與交換學校／國家／地區最新公告不符之處，申請學生應以交換學校／國家／地區之最新公告為準。經甄選錄取獲得本校推薦資格之交換生，不得於取得該校入學許可後，要求變更已取得的入學許可條件；或者是交換申請被該校拒絕後，要求以另一種條件重新提出申請。如有以上情事者，將直接取消其錄取資格。,,17.5922751
1288,印度理工學院孟買分校,,印度,India,https://oia.ntu.edu.tw/outgoing/view/semester/1/sn/1288,是,一般組,,大二以上/碩一以上/博一以上學生,,,全學年1名。,Semester 1：July-November；Semester 2：January-April,須在本校註冊並繳交全額學雜費，免繳該校學費，但該校雜費、住宿費、生活費、保險費、往返機票費等均須自行負擔。,保證校內住宿，Exchange student will be provided on campus accommodation upon their arrival as per availability.,交換學校一覽表所列之語言能力等規定為該校之最低門檻，同學需自行確認最新資訊，如語言能力及成績是否符合該校要求、查詢是否有足夠的課程可供選讀、能否達到該校之每學期修課學分數要求、以及是否具備相關領域之背景知識等，若未達標準，該校有權拒收。本表所提供之資訊如有與交換學校／國家／地區最新公告不符之處，申請學生應以交換學校／國家／地區之最新公告為準。經甄選錄取獲得本校推薦資格之交換生，不得於取得該校入學許可後，要求變更已取得的入學許可條件；或者是交換申請被該校拒絕後，要求以另一種條件重新提出申請。如有以上情事者，將直接取消其錄取資格。,,19.1326186
1268,貝內特大學,Bennett University,印度,India,https://oia.ntu.edu.tw/outgoing/view/semester/1/sn/1268,是,一般組,GPA 達3.30分以上,,,,一學期1名。,,須在本校註冊並繳交全額學雜費，免繳該校學費，但該校雜費、住宿費、生活費、保險費、往返機票費等均須自行負擔。,不保證住宿，相關資訊請參考此連結,交換學校一覽表所列之語言能力為該校之最低門檻要求，同學需自行確認語言能力是否符合該校修課要求、查詢是否有足夠的課程可供選讀、能否達到該校之每學期修課學分數要求、以及是否具備相關領域之背景知識，若未達標準，該校有權拒收。,,28.4506108
986,耶路撒冷希伯來大學,Hebrew University of Jerusalem,以色列,Israel,https://oia.ntu.edu.tw/outgoing/view/semester/1/sn/986,是,,,,,,,,,,,,31.7918555
941,臺拉維夫大學,Tel Aviv University,以色列,Israel,https://oia.ntu.edu.tw/outgoing/view/semester/1/sn/941,是,一般組,GPA 達2.70分以上,大二以上/碩一以上/博一以上學生,,,全學年0名。因交換學生往來不平衡，該校2025/2026年度不開放申請。,Term 1 (Winter Semester): October to January；Term 2 (Spring semester): March to July,須在本校註冊並繳交全額學雜費，免繳該校學費，但該校雜費、住宿費、生活費、保險費、往返機票費等均須自行負擔。,不保證住宿，住宿資訊請參考此連結。,交換學校一覽表所列之語言能力為該校之最低門檻要求，同學需自行確認語言能力是否符合該校修課要求、查詢是否有足夠的課程可供選讀、能否達到該校之每學期修課學分數要求、以及是否具備相關領域之背景知識，若未達標準，該校有權拒收。,,32.1123577
384,以色列理工學院,,以色列,Israel,https://oia.ntu.edu.tw/outgoing/view/semester/1/sn/384,是,一般組,GPA 達3.30分以上,,,,全學年0名。因交換學生往來不平衡，該校2025/2026年度不開放申請。,Term 1 (Winter Semester): October to January；Term 2 (Spring semester): March to July,須在本校註冊並繳交全額學雜費，免繳該校學費，但該校雜費、住宿費、生活費、保險費、往返機票費等均須自行負擔。,不保證住宿，住宿資訊請參考此連結。,交換學校一覽表所列之語言能力為該校之最低門檻要求，同學需自行確認語言能力是否符合該校修課要求、查詢是否有足夠的課程可供選讀、能否達到該校之每學期修課學分數要求、以及是否具備相關領域之背景知識，若未達標準，該校有權拒收。,,32.7768128
1293,熊本大學,Kumamoto University,日本,Japan,https://oia.ntu.edu.tw/outgoing/view/semester/1/sn/1293,是,,GPA 達3.30分以上,,,醫學院、生物資源暨農學院獸醫學系,全學年1名。,Spring Semester: April – beginning of August；Fall Semester: end of September – mid February,須在本校註冊並繳交全額學雜費，免繳該校學費，但該校雜費、住宿費、生活費、保險費、往返機票費等均須自行負擔,保證住宿，更多資訊請見此連結。,交換學校一覽表所列之語言能力為該校之最低門檻要求，同學需自行確認語言能力是否符合該校修課要求、查詢是否有相對應系所及足夠的課程可供選讀、能否達到該校之每學期修課學分數要求、以及是否具備相關領域之背景知識，若未達標準，該校有權拒收,,32.8164178
978,兵庫縣立大學,University of Hyogo,日本,Japan,https://oia.ntu.edu.tw/outgoing/view/semester/1/sn/978,是,,GPA 達3.00分以上,,,,全學年1名。,First semester: April to September；Second semester: October to March,須在本校註冊並繳交全額學雜費，免繳該校學費，但該校雜費、住宿費、生活費、保險費、往返機票費等均須自行負擔。,保證住宿，但不保證校內住宿，住宿資訊請參考此連結。,交換學校一覽表所列之語言能力為該校之最低門檻要求，同學需自行確認語言能力是否符合該校修課要求、查詢是否有足夠的課程可供選讀、能否達到該校之每學期修課學分數要求、以及是否具備相關領域之背景知識，若未達標準，該校有權拒收,,34.9295623
1198,秋田大學,Akita University,日本,Japan,https://oia.ntu.edu.tw/outgoing/view/semester/1/sn/1198,是,,GPA 達2.70分以上,大二以上/碩一以上/博一以上學生,,醫學院,全學年0名。因交換學生往來不平衡，該校2025/2026年度不開放申請。,Fall Semester: October - February；Spring Semester: April - August,須在本校註冊並繳交全額學雜費，免繳該校學費，但該校雜費、住宿費、生活費、保險費、往返機票費等均須自行負擔。,,交換學校一覽表所列之語言能力為該校之最低門檻要求，同學需自行確認語言能力是否符合該校修課要求、查詢是否有足夠的課程可供選讀、能否達到該校之每學期修課學分數要求、以及是否具備相關領域之背景知識，若未達標準，該校有權拒收,,39.7277525
1187,近畿大學,Kindai University,日本,Japan,https://oia.ntu.edu.tw/outgoing/view/semester/1/sn/1187,是,一般組,GPA 達2.80分以上,大二以上(僅限大學部)學生,,醫學院藥學系、文學院,日語組 全學年1名。 (人數限1名，於本校第一學期出國交換一學期或一學年) 一般組 全學年1名。 (人數限1名，於本校第一學期出國交換一學期或一學年),Spring Semester: April - August；Fall Semester: September - February,須在本校註冊並繳交全額學雜費，免繳該校學費，但該校雜費、住宿費、生活費、保險費、往返機票費等均須自行負擔。,,交換學校一覽表所列之語言能力為該校之最低門檻要求，同學需自行確認語言能力是否符合該校修課要求、查詢是否有足夠的課程可供選讀、能否達到該校之每學期修課學分數要求、以及是否具備相關領域之背景知識，若未達標準，該校有權拒收,,34.6517298
1009,一橋大學,Hitotsubashi University,日本,Japan,https://oia.ntu.edu.tw/outgoing/view/semester/1/sn/1009,是,一般組,GPA 達3.00分以上,,本校大二以上/碩一以上(不含博士生)學生，以報名交換學生甄選時，本校教務處學籍系統上之年級為準。 2.	GPA 達3.00分以上。 3.	具日文檢定成績 2 級以上。 4.	不接受社會科學院、管理學院管理學院企業管理碩士專班、法律學院之學生申請。 日語組，依照合約，此名額保留予社會科學院學生 1.	本校大二以上/碩一以上(不含博士生)學生，以報名交換學生甄選時，本校教務處學籍系統上之年級為準。 2.	GPA 達3.00分以上。 3.	具日文檢定成績 2 級以上,社會科學院、管理學院管理學院企業管理碩士專班、法律學院,日語組 全學年1名。,Spring - Summer Semester:；Spring Quarter: April - May,須在本校註冊並繳交全額學雜費，免繳該校學費，但該校雜費、住宿費、生活費、保險費、往返機票費等均須自行負擔。,保證住宿，住宿資訊請參考此連結。,交換學校一覽表所列之語言能力為該校之最低門檻要求，同學需自行確認語言能力是否符合該校修課要求、查詢是否有足夠的課程可供選讀、能否達到該校之每學期修課學分數要求、以及是否具備相關領域之背景知識，若未達標準，該校有權拒收,"['保證住宿，住宿資訊請參考此連結。', '交換學校一覽表所列之語言能力為該校之最低門檻要求，同學需自行確認語言能力是否符合該校修課要求、查詢是否有足夠的課程可供選讀、能否達到該校之每學期修課學分數要求、以及是否具備相關領域之背景知識，若未達標準，該校有權拒收']",35.6937953
927,廣島大學,Hiroshima University,日本,Japan,https://oia.ntu.edu.tw/outgoing/view/semester/1/sn/927,是,一般組,,,,,日語組 全學年0名。因交換學生往來不平衡，該校2025/2026年度不開放申請。  一般組 全學年0名。因交換學生往來不平衡，該校2025/2026年度不開放申請。,Fall Semester: October - February；Spring Semester: April - August,須在本校註冊並繳交全額學雜費，免繳該校學費，但該校雜費、住宿費、生活費、保險費、往返機票費等均須自行負擔。,,交換學校一覽表所列之語言能力為該校之最低門檻要求，同學需自行確認語言能力是否符合該校修課要求、查詢是否有足夠的課程可供選讀、能否達到該校之每學期修課學分數要求、以及是否具備相關領域之背景知識，若未達標準，該校有權拒收,,34.4019766
1004,名古屋外國語大學,Nagoya University of Foreign Studies (NUFS),日本,Japan,https://oia.ntu.edu.tw/outgoing/view/semester/1/sn/1004,是,一般組,GPA 達3.00分以上,大二以上/碩一以上/博一以上學生,,,日語組 全學年1名。,Fall Semester: September - December；Spring Semester: April - July,須在本校註冊並繳交全額學雜費，免繳該校學費，但該校雜費、住宿費、生活費、保險費、往返機票費等均須自行負擔。,,交換學校一覽表所列之語言能力為該校之最低門檻要求，同學需自行確認語言能力是否符合該校修課要求、查詢是否有足夠的課程可供選讀、能否達到該校之每學期修課學分數要求、以及是否具備相關領域之背景知識，若未達標準，該校有權拒收,,
809,立命館大學,Ritsumeikan University,日本,Japan,https://oia.ntu.edu.tw/outgoing/view/semester/1/sn/809,是,,GPA 達3.00分以上,,,,全學年1名。 (人數限1名，於本校第一學期出國交換一學期或一學年),Spring Semester: April - September；Fall Semester: September - March,須在本校註冊並繳交全額學雜費，免繳該校學費，但該校雜費、住宿費、生活費、保險費、往返機票費等均須自行負擔。,不保證住宿，住宿資訊請參考此連結。,交換學校一覽表所列之語言能力為該校之最低門檻要求，同學需自行確認語言能力是否符合該校修課要求、查詢是否有足夠的課程可供選讀、能否達到該校之每學期修課學分數要求、以及是否具備相關領域之背景知識，若未達標準，該校有權拒收,,35.034404
816,關西學院大學,Kwansei Gakuin University,日本,Japan,https://oia.ntu.edu.tw/outgoing/view/semester/1/sn/816,是,一般組,,,,,日語組 全學年1名。(人數限1名，於本校第1學期出國交換一學期或一學年)  一般組 全學年1名。(人數限1名，於本校第1學期出國交換一學期或一學年),Fall Semester: Late September - Late January；Spring Semester: Mid-March - Early August,須在本校註冊並繳交全額學雜費，免繳該校學費，但該校雜費、住宿費、生活費、保險費、往返機票費等均須自行負擔。,不保證住宿，住宿資訊請參考此連結。,交換學校一覽表所列之語言能力為該校之最低門檻要求，同學需自行確認語言能力是否符合該校修課要求、查詢是否有足夠的課程可供選讀、能否達到該校之每學期修課學分數要求、以及是否具備相關領域之背景知識，若未達標準，該校有權拒收,,34.768813
955,日本大學,Nihon University,日本,Japan,https://oia.ntu.edu.tw/outgoing/view/semester/1/sn/955,是,,GPA 達3.30分以上,大二以上/碩一以上/博一以上學生,,醫學院、生物資源暨農學院獸醫學系、法律學院、社會科學院政治學研究所、社會科學院經濟學研究所、文學院人類學研究所、社會科學院社會學研究所、生物資源暨農學院獸醫學研究所,一學期1名。(因交換不平衡，此校不開放第二次志願選填階段選填),Fall semester: September - February；Spring semester: April - July,須在本校註冊並繳交全額學雜費，免繳該校學費，但該校雜費、住宿費、生活費、保險費、往返機票費等均須自行負擔。,不保證住宿。,交換學校一覽表所列之語言能力為該校之最低門檻要求，同學需自行確認語言能力是否符合該校修課要求、查詢是否有足夠的課程可供選讀、能否達到該校之每學期修課學分數要求、以及是否具備相關領域之背景知識，若未達標準，該校有權拒收,,35.6971554
394,東京科學大學（原東京工業大學）,Institute of Science Tokyo (Previously Tokyo Institute of Technology),日本,Japan,https://oia.ntu.edu.tw/outgoing/view/semester/1/sn/394,否,一般組,,大二以上/碩一以上/博一以上學生,,,日語組 全學年0名。因交換學生往來不平衡，該校2025/2026年度不開放申請。  一般組 全學年0名。因交換學生往來不平衡，該校2025/2026年度不開放申請。  ⚠️ 該校為科學／工業大學，請欲選填該校的學生，先行查詢該校是否有相對應系所。如欲跨系所選填者，請務必具備相關領域之背景知識及選課條件符合之證明，以避免交換入學申請被拒絕  最新資訊 東京工業大學自113年10月1日起，與東京醫科齒科大學合併為東京科學大學（Institute of Science Tokyo）。,,須在本校註冊並繳交全額學雜費，免繳該校學費，但該校雜費、住宿費、生活費、保險費、往返機票費等均須自行負擔。,不保證住宿，住宿資訊，請參考此連結。,交換學校一覽表所列之語言能力為該校之最低門檻要求，同學需自行確認語言能力是否符合該校修課要求、查詢是否有足夠的課程可供選讀、能否達到該校之每學期修課學分數要求、以及是否具備相關領域之背景知識，若未達標準，該校有權拒收,,
798,長崎大學,Nagasaki University,日本,Japan,https://oia.ntu.edu.tw/outgoing/view/semester/1/sn/798,是,一般組,GPA 達3.00分以上,,,,日語組 全學年1名。(人數限1名，於本校第1學期出國交換一學期或一學年)  一般組 全學年1名。(人數限1名，於本校第1學期出國交換一學期或一學年),Fall Semester: September - March；Spring Semester: April - September,須須在本校註冊並繳交全額學雜費，免繳該校學費，但該校雜費、住宿費、生活費、保險費、往返機票費等均須自行負擔。,不保證住宿，住宿資訊請參考此連結,交換學校一覽表所列之語言能力為該校之最低門檻要求，同學需自行確認語言能力是否符合該校修課要求、查詢是否有足夠的課程可供選讀、能否達到該校之每學期修課學分數要求、以及是否具備相關領域之背景知識，若未達標準，該校有權拒收,,32.7861999
817,橫濱國立大學,Yokohama National University (YNU),日本,Japan,https://oia.ntu.edu.tw/outgoing/view/semester/1/sn/817,是,一般組,GPA 達3.70分以上,大二以上(僅限大學部)學生,,,日語組 一學期0名。因交換學生往來不平衡，該校2025/2026年度日語組不開放申請。  一般組 一學期0名。因交換學生往來不平衡，該校2025/2026年度一般組不開放申請。,Fall Semester: October - March；Spring Semester: April - August,須在本校註冊並繳交全額學雜費，免繳該校學費，但該校雜費、住宿費、生活費、保險費、往返機票費等均須自行負擔。,,交換學校一覽表所列之語言能力等規定為該校之最低門檻，同學需自行確認最新資訊，如語言能力及成績是否符合該校要求、查詢是否有足夠的課程可供選讀、能否達到該校之每學期修課學分數要求、以及是否具備相關領域之背景知識等，若未達標準，該校有權拒收,,35.4737978
824,金澤大學,Kanazawa University,日本,Japan,https://oia.ntu.edu.tw/outgoing/view/semester/1/sn/824,是,一般組,GPA 達3.00分以上,大二以上/碩一以上/博一以上學生,,,日語組 一學期0名。因交換學生往來不平衡，該校2025/2026年度不開放申請。  一般組 一學期0名。因交換學生往來不平衡，該校2025/2026年度不開放申請。,Fall Semester: October - March；Spring Semester: April - August,須在本校註冊並繳交全額學雜費，免繳該校學費，但該校雜費、住宿費、生活費、保險費、往返機票費等均須自行負擔。,,交換學校一覽表所列之語言能力為該校之最低門檻要求，同學需自行確認語言能力是否符合該校修課要求、查詢是否有足夠的課程可供選讀、能否達到該校之每學期修課學分數要求、以及是否具備相關領域之背景知識，若未達標準，該校有權拒收,,36.6575095
800,神奈川大學,Kanagawa University (KU),日本,Japan,https://oia.ntu.edu.tw/outgoing/view/semester/1/sn/800,是,一般組,GPA 達2.44分以上,大二以上/碩一以上/博一以上學生,,,日語組 全學年0名。因交換學生往來不平衡，該校2025/2026年度不開放申請。  一般組 全學年0名。因交換學生往來不平衡，該校2025/2026年度不開放申請。,Spring Semester: April- July；Fall Semester: September- January,須在本校註冊並繳交全額學雜費，免繳該校學費，但該校雜費、住宿費、生活費、保險費、往返機票費等均須自行負擔。,不保證住宿，住宿資訊請參考此連結。,交換學校一覽表所列之語言能力為該校之最低門檻要求，同學需自行確認語言能力是否符合該校修課要求、查詢是否有足夠的課程可供選讀、能否達到該校之每學期修課學分數要求、以及是否具備相關領域之背景知識，若未達標準，該校有權拒收,,35.5914478
108,大阪大學,Osaka University,日本,Japan,https://oia.ntu.edu.tw/outgoing/view/semester/1/sn/108,否,一般組,GPA 達3.30分以上,大二以上/碩一以上/博一以上學生,,,日語組 全學年0名。因交換學生往來不平衡，該校2025/2026年度不開放申請。  一般組 全學年0名。因交換學生往來不平衡，該校2025/2026年度不開放申請。,Fall Semester: October - March；Spring Semester: April - September,須在本校註冊並繳交全額學雜費，免繳該校學費，但該校雜費、住宿費、生活費、保險費、往返機票費等均須自行負擔。,不保證住宿，住宿資訊請參考此連結。,交換學校一覽表所列之語言能力為該校之最低門檻要求，同學需自行確認語言能力是否符合該校修課要求、查詢是否有足夠的課程可供選讀、能否達到該校之每學期修課學分數要求、以及是否具備相關領域之背景知識，若未達標準，該校有權拒收。,,34.5111992
376,青山學院大學,Aoyama Gakuin University,日本,Japan,https://oia.ntu.edu.tw/outgoing/view/semester/1/sn/376,是,,GPA 達3.00分以上,,,無,一學期1名。,Fall Semester: September - February；Spring Semester: April - August,須在本校註冊並繳交全額學雜費，免繳該校學費，但該校雜費、住宿費、生活費、保險費、往返機票費等均須自行負擔。,不保證住宿，住宿資訊請參考此連結。,交換學校一覽表所列之語言能力為該校之最低門檻要求，同學需自行確認語言能力是否符合該校修課要求、查詢是否有足夠的課程可供選讀、能否達到該校之每學期修課學分數要求、以及是否具備相關領域之背景知識，若未達標準，該校有權拒收,,35.6605744
377,同志社大學,Doshisha University,日本,Japan,https://oia.ntu.edu.tw/outgoing/view/semester/1/sn/377,是,一般組,,大二以上/碩一以上/博一以上學生,,法律學院、管理學院,日語組 全學年1名。,Fall Semester: September - February；Spring Semester: April - September,須在本校註冊並繳交全額學雜費，免繳該校學費，但該校雜費、住宿費、生活費、保險費、往返機票費等均須自行負擔。,不保證住宿。依據宿舍不同，每月約34000~77000日圓。,交換學校一覽表所列之語言能力為該校之最低門檻要求，同學需自行確認語言能力是否符合該校修課要求、查詢是否有足夠的課程可供選讀、能否達到該校之每學期修課學分數要求、以及是否具備相關領域之背景知識，若未達標準，該校有權拒收,,35.0304815
607,上智大學,Sophia University,日本,Japan,https://oia.ntu.edu.tw/outgoing/view/semester/1/sn/607,是,一般組,GPA 達3.30分以上,,,,日語組 全學年1名。(人數限1名，於本校第1學期出國交換一學期或一學年) 一般組 全學年1名。(人數限1名，於本校第1學期出國交換一學期或一學年),Spring Term: April - July；Autumn Term: September - January,須在本校註冊並繳交全額學雜費，免繳該校學費，但住宿費、生活費、保險費、往返機票費等均須自行負擔。,,交換學校一覽表所列之語言能力為該校之最低門檻要求，同學需自行確認語言能力是否符合該校修課要求、查詢是否有足夠的課程可供選讀、能否達到該校之每學期修課學分數要求、以及是否具備相關領域之背景知識，若未達標準，該校有權拒收,,35.68395
103,名古屋大學,Nagoya University,日本,Japan,https://oia.ntu.edu.tw/outgoing/view/semester/1/sn/103,否,,GPA 達3.50分以上,大二以上/碩一以上/博一以上學生,,法律學院,全學年1名。,Fall Semester: October - February；Spring Semester: April - August,須在本校註冊並繳交全額學雜費，免繳該校學費，但該校雜費、住宿費、生活費、保險費、往返機票費等均須自行負擔。,保證住宿，但不保證校內住宿，住宿資訊請參考此連結。,交換學校一覽表所列之語言能力為該校之最低門檻要求，同學需自行確認語言能力是否符合該校修課要求、查詢是否有足夠的課程可供選讀、能否達到該校之每學期修課學分數要求、以及是否具備相關領域之背景知識，若未達標準，該校有權拒收,,35.1533086
109,神戶大學,Kobe University,日本,Japan,https://oia.ntu.edu.tw/outgoing/view/semester/1/sn/109,是,,GPA 達3.70分以上,大二以上/碩一以上/博一以上學生,,,全學年1名。,Fall Semester: October - February；Spring Semester: April - August,須在本校註冊並繳交全額學雜費，免繳該校學費，但該校雜費、住宿費、生活費、保險費、往返機票費等均須自行負擔。,,交換學校一覽表所列之語言能力為該校之最低門檻要求，同學需自行確認語言能力是否符合該校修課要求、查詢是否有足夠的課程可供選讀、能否達到該校之每學期修課學分數要求、以及是否具備相關領域之背景知識，若未達標準，該校有權拒收,,34.663757
38,岡山大學,Okayama University,日本,Japan,https://oia.ntu.edu.tw/outgoing/view/semester/1/sn/38,是,,GPA 達2.50分以上,大二以上(僅限大學部)學生,,,全學年1名。,Fall Semester: October - February；Spring Semester: April - August,須在本校註冊並繳交全額學雜費，免繳該校學費，但該校雜費、住宿費、生活費、保險費、往返機票費等均須自行負擔。,保證住宿，住宿資訊請參考此連結,交換學校一覽表所列之語言能力為該校之最低門檻要求，同學需自行確認語言能力是否符合該校修課要求、查詢是否有足夠的課程可供選讀、能否達到該校之每學期修課學分數要求、以及是否具備相關領域之背景知識，若未達標準，該校有權拒收,,34.6889496
107,筑波大學,University of Tsukuba,日本,Japan,https://oia.ntu.edu.tw/outgoing/view/semester/1/sn/107,是,一般組,GPA 達3.00分以上,大二以上/碩一以上/博一以上學生,,,日語組 全學年2名。,Spring Semester: April - August；Fall Semester: October - February,須在本校註冊並繳交全額學雜費，免繳該校學費，但該校雜費、住宿費、生活費、保險費、往返機票費等均須自行負擔。,,交換學校一覽表所列之語言能力為該校之最低門檻要求，同學需自行確認語言能力是否符合該校修課要求、查詢是否有足夠的課程可供選讀、能否達到該校之每學期修課學分數要求、以及是否具備相關領域之背景知識，若未達標準，該校有權拒收,,36.1070526
34,東京大學,The University of Tokyo (UTokyo),日本,Japan,https://oia.ntu.edu.tw/outgoing/view/semester/1/sn/34,否,一般組,GPA 達3.30分以上,大二以上/碩一以上/博一以上學生,,,日語組 全學年1名。 (人數限1名，於本校第一學期出國交換一學期或一學年) 一般組 全學年1名。 (人數限1名，於本校第一學期出國交換一學期或一學年)  ⚠️ 所有交換入學申請件均需再接受該校各學部審核，審核結果係由此校各學部所決定；若交換入學申請被拒絕，各學部「不會」提供拒收原因，請欲申請該校之同學特別注意！,Fall Semester: October to March；Spring Semester: April to August/September,須在本校註冊並繳交全額學雜費，免繳該校學費，但住宿費、生活費、保險費、往返機票費等均須自行負擔,不保證住宿，住宿資訊，請參考此連結。,交換學校一覽表所列之語言能力為該校之最低門檻要求，同學需自行確認語言能力是否符合該校修課要求、查詢是否有足夠的課程可供選讀、能否達到該校之每學期修課學分數要求、以及是否具備相關領域之背景知識，若未達標準，該校有權拒收,,35.7134629
35,國際教養大學,Akita International University (AIU),日本,Japan,https://oia.ntu.edu.tw/outgoing/view/semester/1/sn/35,是,一般組,GPA 達2.70分以上,大二以上(僅限大學部)學生,,,全學年2名。 (人數限2名，於本校第一學期出國交換一學期或一學年),Fall Semester: September - December；Spring Semester: April - July,須在本校註冊並繳交全額學雜費，免繳該校學費，但該校雜費、住宿費、生活費、保險費、往返機票費等均須自行負擔。,保證住宿，請參考住宿資訊,交換學校一覽表所列之語言能力為該校之最低門檻要求，同學需自行確認語言能力是否符合該校修課要求、查詢是否有足夠的課程可供選讀、能否達到該校之每學期修課學分數要求、以及是否具備相關領域之背景知識，若未達標準，該校有權拒收,"['保證住宿，請參考住宿資訊', '交換學校一覽表所列之語言能力為該校之最低門檻要求，同學需自行確認語言能力是否符合該校修課要求、查詢是否有足夠的課程可供選讀、能否達到該校之每學期修課學分數要求、以及是否具備相關領域之背景知識，若未達標準，該校有權拒收']",39.6262624
36,北海道大學,Hokkaido University,日本,Japan,https://oia.ntu.edu.tw/outgoing/view/semester/1/sn/36,否,一般組,GPA 達3.30分以上,,,,日語組 全學年1名。,Fall semester: October - March；Spring semester: April - September,須在本校註冊並繳交全額學雜費，免繳該校學費，但該校雜費、住宿費、生活費、保險費、往返機票費等均須自行負擔。,,交換學校一覽表所列之語言能力為該校之最低門檻要求，同學需自行確認語言能力是否符合該校修課要求、查詢是否有足夠的課程可供選讀、能否達到該校之每學期修課學分數要求、以及是否具備相關領域之背景知識，若未達標準，該校有權拒收,,43.0790078
37,京都大學,Kyoto University,日本,Japan,https://oia.ntu.edu.tw/outgoing/view/semester/1/sn/37,否,一般組,GPA 達3.30分以上,大二以上/碩一以上/博一以上(僅限大學部)學生,,醫學院,日語組 全學年1名。,Fall Semester: September - February；Spring Semester: April - August,須在本校註冊並繳交全額學雜費，免繳該校學費，但該校雜費、住宿費、生活費、保險費、往返機票費等均須自行負擔。,不保證住宿，住宿資訊請參考此連結。,交換學校一覽表所列之語言能力為該校之最低門檻要求，同學需自行確認語言能力是否符合該校修課要求、查詢是否有足夠的課程可供選讀、能否達到該校之每學期修課學分數要求、以及是否具備相關領域之背景知識，若未達標準，該校有權拒收,,35.0229299
32,關西大學,Kansai University,日本,Japan,https://oia.ntu.edu.tw/outgoing/view/semester/1/sn/32,是,一般組,,大二以上/碩一以上/博一以上學生,,,日語組 全學年1名。,Spring Semester: April - September；Fall Semester: September - March,須在本校註冊並繳交全額學雜費，免繳該校學費，但該校雜費、住宿費、生活費、保險費、往返機票費等均須自行負擔。,,交換學校一覽表所列之語言能力為該校之最低門檻要求，同學需自行確認語言能力是否符合該校修課要求、查詢是否有足夠的課程可供選讀、能否達到該校之每學期修課學分數要求、以及是否具備相關領域之背景知識，若未達標準，該校有權拒收,,34.7727934
33,琉球大學,University of the Ryukyus,日本,Japan,https://oia.ntu.edu.tw/outgoing/view/semester/1/sn/33,是,一般組,,大二以上/碩一以上/博一以上學生,,醫學院,日語組 全學年1名。 (人數限1名，於本校第1學期出國交換一學期或一學年)  一般組 全學年1名。 (人數限1名，於本校第1學期出國交換一學期或一學年),,須在本校註冊並繳交全額學雜費，免繳該校學費，但該校雜費、住宿費、生活費、保險費、往返機票費等均須自行負擔。,,交換學校一覽表所列之語言能力為該校之最低門檻要求，同學需自行確認語言能力是否符合該校修課要求、查詢是否有足夠的課程可供選讀、能否達到該校之每學期修課學分數要求、以及是否具備相關領域之背景知識，若未達標準，該校有權拒收,,26.2493768
31,東京學藝大學,Tokyo Gakugei University (TGU),日本,Japan,https://oia.ntu.edu.tw/outgoing/view/semester/1/sn/31,是,一般組,,,,,日語組 全學年1名。(人數限1名，於本校第1學期出國交換一學期或一學年)  一般組 全學年1名。(人數限1名，於本校第1學期出國交換一學期或一學年),Fall semester: October - March；Spring semester: April - September,須在本校註冊並繳交全額學雜費，免繳該校學費，但該校雜費、住宿費、生活費、保險費、往返機票費等均須自行負擔。,保證住宿（非校內），住宿資訊請參考此連結。,交換學校一覽表所列之語言能力為該校之最低門檻要求，同學需自行確認語言能力是否符合該校修課要求、查詢是否有足夠的課程可供選讀、能否達到該校之每學期修課學分數要求、以及是否具備相關領域之背景知識，若未達標準，該校有權拒收,,35.7062778
30,九州大學,Kyushu University,日本,Japan,https://oia.ntu.edu.tw/outgoing/view/semester/1/sn/30,否,一般組,GPA 達3.70分以上,大二以上/碩一以上/博一以上學生,,醫學院、管理學院,日語組 全學年1名。 (人數限1名，於本校第1學期出國交換一學期或一學年) (因應交換學校申請時程，校內甄選不開放第二次志願選填) 一般組 全學年1名。 (人數限1名，於本校第1學期出國交換一學期或一學年) (因應交換學校申請時程，校內甄選不開放第二次志願選填),Spring Semester: April - September；Fall Semester: October - March,須在本校註冊並繳交全額學雜費，免繳該校學費，但該校雜費、住宿費、生活費、保險費、往返機票費等均須自行負擔,,交換學校一覽表所列之語言能力為該校之最低門檻要求，同學需自行確認語言能力是否符合該校修課要求、查詢是否有足夠的課程可供選讀、能否達到該校之每學期修課學分數要求、以及是否具備相關領域之背景知識，若未達標準，該校有權拒收,,33.6707768
28,慶應義塾大學,Keio University,日本,Japan,https://oia.ntu.edu.tw/outgoing/view/semester/1/sn/28,否,一般組,GPA 達3.70分以上,大二以上/碩一以上/博一以上學生,本校大二以上/碩一以上/博一以上學生，以報名交換學生甄選時，本校教務處學籍系統上之年級為準。 2.	GPA 達3.70分以上，該校確認日語組計畫無申請系所之限制，但仍不開放交換學生修習該校商學院及醫學院課程，學生需自行確認可滿足修課標準，且不保證選課。 3.	具日文檢定成績 1 級以上,無,日語組 全學年1名。(人數限1名，於本校第1學期出國交換一學期或一學年) 一般組 全學年1名。 (人數限1名，於本校第1學期出國交換一學期或一學年),Fall Semester: September - February；Spring Semester: March - July,須在本校註冊並繳交全額學雜費，免繳該校學費，但該校雜費、住宿費、生活費、保險費、往返機票費等均須自行負擔。,,交換學校一覽表所列之語言能力為該校之最低門檻要求，同學需自行確認語言能力是否符合該校修課要求、查詢是否有足夠的課程可供選讀、能否達到該校之每學期修課學分數要求、以及是否具備相關領域之背景知識，若未達標準，該校有權拒收,,35.5538163
29,東北大學,Tohoku University,日本,Japan,https://oia.ntu.edu.tw/outgoing/view/semester/1/sn/29,否,一般組,GPA 達3.30分以上,,,,日語組 全學年1名。（人數限1名，於本校第1學期出國交換一學期或一學年）  一般組 全學年1名。（人數限1名，於本校第1學期出國交換一學期或一學年）  ⚠️ 該校之交換入學審查相當地嚴格，歷屆交換生有被該校拒絕入學申請之紀錄，請欲選擇交換至該校的同學留意。,Fall Semester: October - March；Spring Semester: April - September,須在本校註冊並繳交全額學雜費，免繳該校學費，但該校雜費、住宿費、生活費、保險費、往返機票費等均須自行負擔。,保證住宿，住宿資訊請參考此連結。,交換學校一覽表所列之語言能力為該校之最低門檻要求，同學需自行確認語言能力是否符合該校修課要求、查詢是否有足夠的課程可供選讀、能否達到該校之每學期修課學分數要求、以及是否具備相關領域之背景知識，若未達標準，該校有權拒收,,38.2603556
26,御茶水女子大學,Ochanomizu University,日本,Japan,https://oia.ntu.edu.tw/outgoing/view/semester/1/sn/26,是,,,大二以上/碩一以上/博一以上學生,,,全學年1名。,Fall Semester: October - March；Spring Semester: April - September,須在本校註冊並繳交全額學雜費，免繳該校學費，但該校雜費、住宿費、生活費、保險費、往返機票費等均須自行負擔。,保證住宿，住宿資訊請參考此連結,交換學校一覽表所列之語言能力為該校之最低門檻要求，同學需自行確認語言能力是否符合該校修課要求、查詢是否有足夠的課程可供選讀、能否達到該校之每學期修課學分數要求、以及是否具備相關領域之背景知識，若未達標準，該校有權拒收,,35.7187419
27,東京外國語大學,Tokyo University of Foreign Studies (TUFS),日本,Japan,https://oia.ntu.edu.tw/outgoing/view/semester/1/sn/27,是,一般組,,,,,日語組 全學年1名。(人數限1名，於本校第1學期出國交換一學期或一學年)  一般組 全學年1名。(人數限1名，於本校第1學期出國交換一學期或一學年),Fall Quarter: October - January；Spring Quarter: April - July,須在本校註冊並繳交全額學雜費，免繳該校學費，但該校雜費、住宿費、生活費、保險費、往返機票費等均須自行負擔。,不保證住宿，請參考住宿資訊。,交換學校一覽表所列之語言能力為該校之最低門檻要求，同學需自行確認語言能力是否符合該校修課要求、查詢是否有足夠的課程可供選讀、能否達到該校之每學期修課學分數要求、以及是否具備相關領域之背景知識，若未達標準，該校有權拒收,,35.6741728
23,明治大學,Meiji University,日本,Japan,https://oia.ntu.edu.tw/outgoing/view/semester/1/sn/23,是,,,,,,全學年1名。(人數限1名，於本校第一學期出國交換一學期或一學年),Fall Semester: September - February；Spring Semester: March - July,須在本校註冊並繳交全額學雜費，免繳該校學費，但該校雜費、住宿費、生活費、保險費、往返機票費等均須自行負擔。,不保證住宿，住宿資訊請參考此連結,交換學校一覽表所列之語言能力為該校之最低門檻要求，同學需自行確認語言能力是否符合該校修課要求、查詢是否有足夠的課程可供選讀、能否達到該校之每學期修課學分數要求、以及是否具備相關領域之背景知識，若未達標準，該校有權拒收,,35.6975029
24,早稻田大學,Waseda University,日本,Japan,https://oia.ntu.edu.tw/outgoing/view/semester/1/sn/24,否,一般組,GPA 達3.70分以上,大二以上/碩一以上/博一以上學生,,法律學院,日語組 一學期1名。(人數限1名，於本校第1學期出國交換一學期或一學年)  一般組 全學年1名。 (人數限1名，於本校第1學期出國交換一學期或一學年),Fall Semester: September - February；Spring Semester: April - July,須在本校註冊並繳交全額學雜費，免繳該校學費，但該校雜費、住宿費、生活費、保險費、往返機票費等均須自行負擔。,,交換學校一覽表所列之語言能力為該校之最低門檻要求，同學需自行確認語言能力是否符合該校修課要求、查詢是否有足夠的課程可供選讀、能否達到該校之每學期修課學分數要求、以及是否具備相關領域之背景知識，若未達標準，該校有權拒收,,35.7091798
25,創價大學,Soka University,日本,Japan,https://oia.ntu.edu.tw/outgoing/view/semester/1/sn/25,是,,,,,醫學院護理學系,全學年1名。(人數限1名，於本校第一學期出國交換一學期或一學年) (因交換不平衡，此校不開放第二次志願選填階段選填),Fall Semester: September - January；Spring Semester: April - July,須在本校註冊並繳交全額學雜費，免繳該校學費，但該校雜費、住宿費、生活費、保險費、往返機票費等均須自行負擔。,,交換學校一覽表所列之語言能力為該校之最低門檻要求，同學需自行確認語言能力是否符合該校修課要求、查詢是否有足夠的課程可供選讀、能否達到該校之每學期修課學分數要求、以及是否具備相關領域之背景知識，若未達標準，該校有權拒收,,35.6899879
1296,國立慶北大學,Kyungpook National University,南韓,South Korea,https://oia.ntu.edu.tw/outgoing/view/semester/1/sn/1296,是,,GPA 達3.30分以上,,本校大二以上/碩一以上(不含博士生)學生。 2.	GPA 達3.30分以上。 3.	TOEFL iBT 88 (不接受 Home Edition) 或 IELTS 6.5。  或 4.	具韓語檢定(TOPIK)成績 5 級以上，若總成績相同且按志願序分發皆至該校者，錄取資格以具韓語能力證明者優先,醫學院、法律學院,全學年2名。（人數限2名，於本校第1學期出國交換一學期或一學年）,Fall Semester: September - December；Spring Semester: March - June,須在本校註冊並繳交全額學雜費，免繳該校學費，但該校雜費、住宿費、生活費、保險費、往返機票費等均須自行負擔。,,交換學校一覽表所列之語言能力等規定為該校之最低門檻，同學需自行確認最新資訊，如語言能力及成績是否符合該校要求、查詢是否有足夠的課程可供選讀、能否達到該校之每學期修課學分數要求、以及是否具備相關領域之背景知識等，若未達標準，該校有權拒收。本表所提供之資訊如有與交換學校／國家／地區最新公告不符之處，申請學生應以交換學校／國家／地區之最新公告為準。,,35.8905697
821,慶熙大學,Kyung Hee University,南韓,South Korea,https://oia.ntu.edu.tw/outgoing/view/semester/1/sn/821,是,,GPA 達3.30分以上,,本校大二/大三學生。 2.	GPA 達3.30分以上。 3.	TOEFL iBT 82 (不接受 Home Edition) 或 IELTS 6.5。  或 4.	具韓語檢定(TOPIK)成績 5 級以上，若總成績相同且按志願序分發皆至該校者，錄取資格以具韓語能力證明者優先,,全學年1名。,Fall: 2024.09.01 - 2024.12.23；Spring: 2025.03.02 - 2025.06.23,須在本校註冊並繳交全額學雜費，免繳該校學費，但該校雜費、住宿費、生活費、保險費、往返機票費等均須自行負擔。,,交換學校一覽表所列之語言能力等規定為該校之最低門檻，同學需自行確認最新資訊，如語言能力及成績是否符合該校要求、查詢是否有足夠的課程可供選讀、能否達到該校之每學期修課學分數要求、以及是否具備相關領域之背景知識等，若未達標準，該校有權拒收。本表所提供之資訊如有與交換學校／國家／地區最新公告不符之處，申請學生應以交換學校／國家／地區之最新公告為準。,,37.5971213
188,韓國科學技術院,,南韓,South Korea,https://oia.ntu.edu.tw/outgoing/view/semester/1/sn/188,是,,GPA 達3.00分以上,,,"醫學院( Graduate School of Medical Science and Engineering, Departments of Seoul campus are not included for this exchange program. )",一學期1名。,Fall Semester: August - December；Spring Semester: March - June,須在本校註冊並繳交全額學雜費，免繳該校學費，但該校雜費、住宿費、生活費、保險費、往返機票費等均須自行負擔。,,交換學校一覽表所列之語言能力等規定為該校之最低門檻，同學需自行確認最新資訊，如語言能力及成績是否符合該校要求、查詢是否有足夠的課程可供選讀、能否達到該校之每學期修課學分數要求、以及是否具備相關領域之背景知識等，若未達標準，該校有權拒收。本表所提供之資訊如有與交換學校／國家／地區最新公告不符之處，申請學生應以交換學校／國家／地區之最新公告為準。,,36.3698812
310,延世大學,Yonsei University,南韓,South Korea,https://oia.ntu.edu.tw/outgoing/view/semester/1/sn/310,是,,GPA 達3.00分以上,,本校大二/大三/大四學生，該校2024/12/5(週四)14:04來信表示僅接受本校學士生申請，請欲選填該校為志願的同學留意。。 2.	GPA 達3.00分以上。 3.	TOEFL iBT 79 (接受 Home Edition) 或 IELTS 6.5。  或 4.	具韓語檢定(TOPIK)成績 4 級以上,,一學期1名。,Fall Semester: September - December；Spring Semester: March - June,須在本校註冊並繳交全額學雜費，免繳該校學費，但該校雜費、住宿費、生活費、保險費、往返機票費等均須自行負擔。,,交換學校一覽表所列之語言能力等規定為該校之最低門檻，同學需自行確認最新資訊，如語言能力及成績是否符合該校要求、查詢是否有足夠的課程可供選讀、能否達到該校之每學期修課學分數要求、以及是否具備相關領域之背景知識等，若未達標準，該校有權拒收。本表所提供之資訊如有與交換學校／國家／地區最新公告不符之處，申請學生應以交換學校／國家／地區之最新公告為準。,,37.5678071
961,高麗大學,Korea University,南韓,South Korea,https://oia.ntu.edu.tw/outgoing/view/semester/1/sn/961,是,,GPA 達2.70分以上,,本校大二/大三/大四學生。 2.	GPA 達2.70分以上。 3.	TOEFL iBT 79 (不接受 Home Edition) 或 IELTS 6.0。  或 4.	具韓語檢定(TOPIK)成績 4 級以上，若總成績相同且按志願序分發皆至該校者，錄取資格以具韓語能力證明者優先,,一學期1名。,Fall semester: September - December；Spring semester: March - June,須在本校註冊並繳交全額學雜費，免繳該校學費，但該校雜費、住宿費、生活費、保險費、往返機票費等均須自行負擔。,,交換學校一覽表所列之語言能力等規定為該校之最低門檻，同學需自行確認最新資訊，如語言能力及成績是否符合該校要求、查詢是否有足夠的課程可供選讀、能否達到該校之每學期修課學分數要求、以及是否具備相關領域之背景知識等，若未達標準，該校有權拒收。本表所提供之資訊如有與交換學校／國家／地區最新公告不符之處，申請學生應以交換學校／國家／地區之最新公告為準。,,36.6108894
433,國立釜山大學,Pusan National University,南韓,South Korea,https://oia.ntu.edu.tw/outgoing/view/semester/1/sn/433,是,,,,本校大二/大三/碩二以上(不含博士生)學生。 2.	TOEFL iBT 79 (接受 Home Edition) 或 IELTS 6.0 或 全民英檢中高級。  或 3.	具韓語檢定(TOPIK)成績 3 級以上，若總成績相同且按志願序分發皆至該校者，錄取資格以具韓語能力證明者優先,,全學年1名。,Fall semester: September - December；Spring semester: March - June,須在本校註冊並繳交全額學雜費，免繳該校學費，但該校雜費、住宿費、生活費、保險費、往返機票費等均須自行負擔。,保證住宿。,交換學校一覽表所列之語言能力等規定為該校之最低門檻，同學需自行確認最新資訊，如語言能力及成績是否符合該校要求、查詢是否有足夠的課程可供選讀、能否達到該校之每學期修課學分數要求、以及是否具備相關領域之背景知識等，若未達標準，該校有權拒收。本表所提供之資訊如有與交換學校／國家／地區最新公告不符之處，申請學生應以交換學校／國家／地區之最新公告為準。,,35.2343498
362,成均館大學,Sungkyunkwan University,南韓,South Korea,https://oia.ntu.edu.tw/outgoing/view/semester/1/sn/362,是,,GPA 達2.70分以上,,本校大二以上/碩一以上(不含博士生)學生。 2.	GPA 達2.70分以上。 3.	TOEFL iBT 80 (不接受 Home Edition) 或 IELTS 6.0。  或 4.	具韓語檢定(TOPIK)成績 3 級以上，若總成績相同且按志願序分發皆至該校者，錄取資格以具韓語能力證明者優先,,全學年0名。該校2024/11/5(週二)15:59來信表示，因交換學生往來不平衡，此次不開放申請。,2024 Spring Semester: March 1 st ~ June 21st 2024；2024 Fall Semester: September 1 st ~ December 20th 2024 (tentative),須在本校註冊並繳交全額學雜費，免繳該校學費，但該校雜費、住宿費、生活費、保險費、往返機票費等均須自行負擔。,不保證住宿，住宿資訊請參考此連結,交換學校一覽表所列之語言能力等規定為該校之最低門檻，同學需自行確認最新資訊，如語言能力及成績是否符合該校要求、查詢是否有足夠的課程可供選讀、能否達到該校之每學期修課學分數要求、以及是否具備相關領域之背景知識等，若未達標準，該校有權拒收。本表所提供之資訊如有與交換學校／國家／地區最新公告不符之處，申請學生應以交換學校／國家／地區之最新公告為準。,,37.3003187
361,梨花女子大學,Ewha Womans University,南韓,South Korea,https://oia.ntu.edu.tw/outgoing/view/semester/1/sn/361,是,,GPA 達3.30分以上,,本校大二以上/碩一以上(不含博士生)學生。 2.	GPA 達3.30分以上。 3.	TOEFL iBT 79 (不接受 Home Edition) 或 IELTS 6.0。  或 4.	具韓語檢定(TOPIK)成績 3 級以上，若總成績相同且按志願序分發皆至該校者，錄取資格以具韓語能力證明者優先,,全學年2名。,Fall Semester: September - December；Spring Semester: March - June,須在本校註冊並繳交全額學雜費，免繳該校學費，但該校雜費、住宿費、生活費、保險費、往返機票費等均須自行負擔。,不保證住宿，住宿資訊請參考此連結。,交換學校一覽表所列之語言能力等規定為該校之最低門檻，同學需自行確認最新資訊，如語言能力及成績是否符合該校要求、查詢是否有足夠的課程可供選讀、能否達到該校之每學期修課學分數要求、以及是否具備相關領域之背景知識等，若未達標準，該校有權拒收。本表所提供之資訊如有與交換學校／國家／地區最新公告不符之處，申請學生應以交換學校／國家／地區之最新公告為準。,,37.5643371
378,漢陽大學,Hanyang University,南韓,South Korea,https://oia.ntu.edu.tw/outgoing/view/semester/1/sn/378,是,,GPA 達2.70分以上,大二以上(僅限大學部)學生,本校大二以上(僅限大學部)學生。 2.	GPA 達2.70分以上。 3.	TOEFL iBT 79 (不接受 Home Edition) 或 IELTS 6.0。  或 4.	具韓語檢定(TOPIK)成績 3 級以上，若總成績相同且按志願序分發皆至該校者，錄取資格以具韓語能力證明者優先,,一學期1名。,Fall Semester: September - December；Spring Semester: March - June,須在本校註冊並繳交全額學雜費，免繳該校學費，但該校雜費、住宿費、生活費、保險費、往返機票費等均須自行負擔。,不保證住宿，住宿資訊請參考此連結。,交換學校一覽表所列之語言能力等規定為該校之最低門檻，同學需自行確認最新資訊，如語言能力及成績是否符合該校要求、查詢是否有足夠的課程可供選讀、能否達到該校之每學期修課學分數要求、以及是否具備相關領域之背景知識等，若未達標準，該校有權拒收。本表所提供之資訊如有與交換學校／國家／地區最新公告不符之處，申請學生應以交換學校／國家／地區之最新公告為準。,,37.5557274
40,順天國立大學,Sunchon National University,南韓,South Korea,https://oia.ntu.edu.tw/outgoing/view/semester/1/sn/40,是,,,,本校大二/大三/大四/碩二以上(不含博士生)學生。 2.	TOEFL iBT 79 (不接受 Home Edition) 或 IELTS 6.0 或 全民英檢高級。  或 3.	具韓語檢定(TOPIK)成績 3 級以上,醫學院,全學年2名。,Fall Semester: September - January；Spring Semester: March - June,須在本校註冊並繳交全額學雜費，免繳該校學費，但該校雜費、住宿費、生活費、保險費、往返機票費等均須自行負擔。,保證住宿，住宿資訊請參考此連結。,交換學校一覽表所列之語言能力等規定為該校之最低門檻，同學需自行確認最新資訊，如語言能力及成績是否符合該校要求、查詢是否有足夠的課程可供選讀、能否達到該校之每學期修課學分數要求、以及是否具備相關領域之背景知識等，若未達標準，該校有權拒收。本表所提供之資訊如有與交換學校／國家／地區最新公告不符之處，申請學生應以交換學校／國家／地區之最新公告為準。,,34.9681989
41,浦項工科大學,Pohang University of Science and Technology (POSTECH),南韓,South Korea,https://oia.ntu.edu.tw/outgoing/view/semester/1/sn/41,是,,GPA 達3.00分以上,大二以上/碩一以上/博一以上學生,本校大二以上/碩一以上/博一以上學生。 2.	GPA 達3.00分以上。 3.	TOEFL iBT 79 (接受 Home Edition) 或 IELTS 6.0。  或 4.	具韓語檢定(TOPIK)成績 3 級以上,,一學期1名。,,須在本校註冊並繳交全額學雜費，免繳該校學費，但該校雜費、住宿費、生活費、保險費、往返機票費等均須自行負擔。,,交換學校一覽表所列之語言能力等規定為該校之最低門檻，同學需自行確認最新資訊，如語言能力及成績是否符合該校要求、查詢是否有足夠的課程可供選讀、能否達到該校之每學期修課學分數要求、以及是否具備相關領域之背景知識等，若未達標準，該校有權拒收。本表所提供之資訊如有與交換學校／國家／地區最新公告不符之處，申請學生應以交換學校／國家／地區之最新公告為準。,,36.0180795
39,首爾國立大學,Seoul National University,南韓,South Korea,https://oia.ntu.edu.tw/outgoing/view/semester/1/sn/39,是,,GPA 達3.00分以上,大二以上/碩一以上/博一以上學生,本校大二以上/碩一以上/博一以上學生。 2.	學士生 GPA 達3.00分以上； 研究生 GPA 達3.30分以上。 3.	學士生 TOEFL iBT 88 (接受 Home Edition) 或 IELTS 6.0； 研究生 TOEFL iBT 88 (接受 Home Edition) 或 IELTS 6.0；。  或 4.	學士生 具韓語檢定(TOPIK)成績 5 級以上；,,一學期1名。,Fall Semester: September - December；Spring Semester: March - June,須在本校註冊並繳交全額學雜費，免繳該校學費，但該校雜費、住宿費、生活費、保險費、往返機票費等均須自行負擔。,不保證住宿，請參考住宿資訊。,交換學校一覽表所列之語言能力等規定為該校之最低門檻，同學需自行確認最新資訊，如語言能力及成績是否符合該校要求、查詢是否有足夠的課程可供選讀、能否達到該校之每學期修課學分數要求、以及是否具備相關領域之背景知識等，若未達標準，該校有權拒收。本表所提供之資訊如有與交換學校／國家／地區最新公告不符之處，申請學生應以交換學校／國家／地區之最新公告為準。,,37.4668979
1001,澳門大學,University of Macau,澳門,Macau,https://oia.ntu.edu.tw/outgoing/view/semester/1/sn/1001,是,一般組,,,,,全學年1名。,,須在本校註冊並繳交全額學雜費，免繳該校學費，但該校雜費、住宿費、生活費、保險費、往返機票費等均須自行負擔。,保證住宿，請自行參考姊妹校提供之住宿資訊。,交換學校一覽表所列之語言能力為該校之最低門檻要求，同學需自行確認語言能力是否符合該校修課要求、查詢是否有足夠的課程可供選讀、能否達到該校之每學期修課學分數要求、以及是否具備相關領域之背景知識，若未達標準，該校有權拒收。,,22.1283648
912,武漢理工大學,Wuhan University of Technology,中國,China,https://oia.ntu.edu.tw/outgoing/view/semester/1/sn/912,是,,GPA 達3.00分以上,,,,全學年0名。該校2025/2026年度不開放申請,第一學期：9月入學；第二學期：2月入學,須在本校註冊並繳交全額學雜費，免繳該校學費，但該校雜費、住宿費、生活費、保險費、往返機票費等均須自行負擔。,該校將替同學安排校內宿舍床位，須繳交押金，不同房型住宿費用會有差異。,請留意，該校表示因無法評估未來疫情之影響，即使提供交換名額予本校，仍有可能會臨時取消交換學生計畫。,,30.608988
922,北京航空航天大學,Beihang University,中國,China,https://oia.ntu.edu.tw/outgoing/view/semester/1/sn/922,是,,,,,無,全學年0名。該校2025/2026年度不開放申請,,須在本校註冊並繳交全額學雜費，免繳該校學費，但該校雜費、住宿費、生活費、保險費、往返機票費等均須自行負擔。,保證住宿，由姊妹校安排。,請留意，該校表示因無法評估未來疫情之影響，即使提供交換名額予本校，仍有可能會臨時取消交換學生計畫。,,39.9809427
831,貴州大學,Guizhou University,中國,China,https://oia.ntu.edu.tw/outgoing/view/semester/1/sn/831,是,,GPA 達3.00分以上,,,,一學期0名。該校2025/2026年度不開放申請,秋季学期2024.09-2025.01 春季学期2025.03-2025.07,須在本校註冊並繳交全額學雜費，免繳該校學費，但該校雜費、住宿費、生活費、保險費、往返機票費等均須自行負擔。,保證住宿，由校方安排，住宿相關資訊，請參考此連結。,請留意，該校表示因無法評估未來疫情之影響，即使提供交換名額予本校，仍有可能會臨時取消交換學生計畫。,,26.4495922
894,華中科技大學,Huazhong University of Science and Technology,中國,China,https://oia.ntu.edu.tw/outgoing/view/semester/1/sn/894,是,,GPA 達3.30分以上,,,無,一學期2名。,第一學期：8月到1月；第二學期：2月到7月,須在本校註冊並繳交全額學雜費，免繳該校學費，但該校雜費、住宿費、生活費、保險費、往返機票費等均須自行負擔。,,請留意，該校表示因無法評估未來疫情之影響，即使提供交換名額予本校，仍有可能會臨時取消交換學生計畫。,,30.5202172
901,東南大學,Southeast University,中國,China,https://oia.ntu.edu.tw/outgoing/view/semester/1/sn/901,是,,,,,無,一學期0名。該校2025/2026年度不開放申請,第一學期：9月至農曆年前；第二學期：2月中至6月中,須在本校註冊並繳交全額學雜費，免繳該校學費，但該校雜費、住宿費、生活費、保險費、往返機票費等均須自行負擔。,住宿費：,請留意，該校表示因無法評估未來疫情之影響，即使提供交換名額予本校，仍有可能會臨時取消交換學生計畫。,,32.0576478
593,武漢大學,Wuhan University,中國,China,https://oia.ntu.edu.tw/outgoing/view/semester/1/sn/593,是,,GPA 達3.30分以上,,,,一學期0名。該校2025/2026年度不開放申請,第一學期：9月至次年1月；第二學期：2月至7月,須在本校註冊並繳交全額學雜費，免繳該校學費，但該校雜費、住宿費、生活費、保險費、往返機票費等均須自行負擔。,保證住宿，由校方安排校内住宿。一学期费用1000元（人民币）左右,請留意，該校表示因無法評估未來疫情之影響，即使提供交換名額予本校，仍有可能會臨時取消交換學生計畫。,,30.5373581
792,內蒙古大學,Inner Mongolia University,中國,China,https://oia.ntu.edu.tw/outgoing/view/semester/1/sn/792,是,,,,,,一學期0名。該校2025/2026年度不開放申請,第一學期：三月至七月；第二學期：九月至一月,須在本校註冊並繳交全額學雜費，免繳該校學費，但該校雜費、住宿費、生活費、保險費、往返機票費等均須自行負擔。,,請留意，該校表示因無法評估未來疫情之影響，即使提供交換名額予本校，仍有可能會臨時取消交換學生計畫。另，陸港澳地區調升為橙色旅遊警示，請欲選擇至該校交換的同學留意。,,40.7564203
793,北京師範大學,Beijing Normal University,中國,China,https://oia.ntu.edu.tw/outgoing/view/semester/1/sn/793,是,,GPA 達3.30分以上,,,,全學年5名。,,須在本校註冊並繳交全額學雜費，免繳該校學費，但該校雜費、住宿費、生活費、保險費、往返機票費等均須自行負擔。,由校方安排，更多資訊請參考宿舍介绍,請留意，該校表示因無法評估未來疫情之影響，即使提供交換名額予本校，仍有可能會臨時取消交換學生計畫。,,39.959763
795,四川大學,Sichuan University,中國,China,https://oia.ntu.edu.tw/outgoing/view/semester/1/sn/795,是,,GPA 達3.00分以上,,,,一學期0名。該校2025/2026年度不開放申請,,須在本校註冊並繳交全額學雜費，免繳該校學費，但該校雜費、住宿費、生活費、保險費、往返機票費等均須自行負擔。,保證住宿，由校方安排。,請留意，該校表示因無法評估未來疫情之影響，即使提供交換名額予本校，仍有可能會臨時取消交換學生計畫。,,30.5601863
797,天津大學,Tianjin University,中國,China,https://oia.ntu.edu.tw/outgoing/view/semester/1/sn/797,是,,,大二以上(僅限大學部)學生,本校大二以上(僅限大學部)學生。 2.	歷年不得有不及格／不通過科目。 名額 一學期0名。該校2025/2026年度不開放申請  學校年曆  第一學期：8月至1月 第二學期：2月至8月  註冊繳費  須在本校註冊並繳交全額學雜費，免繳該校學費，但該校雜費、住宿費、生活費、保險費、往返機票費等均須自行負擔。  注意事項  請留意，該校表示因無法評估未來疫情之影響，即使提供交換名額予本校，仍有可能會臨時取消交換學生計畫。 另，陸港澳地區調升為橙色旅遊警示，請欲選擇至該校交換的同學留意。  交換學校一覽表所列之語言能力為該校之最低門檻要求，同學需自行確認語言能力是否符合該校修課要求、查詢是否有足夠的課程可供選讀、能否達到該校之每學期修課學分數要求、以及是否具備相關領域之背景知識，若未達標準，該校有權拒收。  非港澳臺學生申請時須提交HSK漢語水平考試證書或者TOEFL 90 / IELTS 6.5以上英文檢定證明,,一學期0名。該校2025/2026年度不開放申請,第一學期：8月至1月；第二學期：2月至8月,須在本校註冊並繳交全額學雜費，免繳該校學費，但該校雜費、住宿費、生活費、保險費、往返機票費等均須自行負擔。,不保證住宿，可向校方申請。,請留意，該校表示因無法評估未來疫情之影響，即使提供交換名額予本校，仍有可能會臨時取消交換學生計畫。,,39.1072533
801,重慶大學,Chongqing University,中國,China,https://oia.ntu.edu.tw/outgoing/view/semester/1/sn/801,是,,,大二以上/碩一以上/博一以上學生,,,全學年3名。,第一學期：9月至1月；第二學期：2月至7月,須在本校註冊並繳交全額學雜費，免繳該校學費，但該校雜費、住宿費、生活費、保險費、往返機票費等均須自行負擔。,,請留意，該校表示因無法評估未來疫情之影響，即使提供交換名額予本校，仍有可能會臨時取消交換學生計畫。另，陸港澳地區調升為橙色旅遊警示，請欲選擇至該校交換的同學留意。,,29.5699864
819,蘭州大學,Lanzhou University,中國,China,https://oia.ntu.edu.tw/outgoing/view/semester/1/sn/819,是,,GPA 達3.00分以上,,,,一學期0名。該校2025/2026年度不開放申請,秋季學期：9月至1月；春季學期：2月至7月,須在本校註冊並繳交全額學雜費，免繳該校學費，但該校雜費、住宿費、生活費、保險費、往返機票費等均須自行負擔。,保證住宿，由校方安排。,請留意，該校表示因無法評估未來疫情之影響，即使提供交換名額予本校，仍有可能會臨時取消交換學生計畫。,,36.0504988
416,西安交通大學,Xi'an Jiaotong University,中國,China,https://oia.ntu.edu.tw/outgoing/view/semester/1/sn/416,是,,GPA 達3.00分以上,,,,一學期0名。該校2025/2026年度不開放申請,,須在本校註冊並繳交全額學雜費，免繳該校學費，但該校雜費、住宿費、生活費、保險費、往返機票費等均須自行負擔。,,請留意，該校表示因無法評估未來疫情之影響，即使提供交換名額予本校，仍有可能會臨時取消交換學生計畫。,,31.2757194
422,哈爾濱工業大學,Harbin Institute of Technology,中國,China,https://oia.ntu.edu.tw/outgoing/view/semester/1/sn/422,是,,,大二以上/碩一以上/博一以上學生,,無,一學期0名。該校2025/2026年度不開放申請,秋季學期：9月-1月；春季學期：2月中-6月,須在本校註冊並繳交全額學雜費，免繳該校學費，但該校雜費、住宿費、生活費、保險費、往返機票費等均須自行負擔。,,請留意，該校表示因無法評估未來疫情之影響，即使提供交換名額予本校，仍有可能會臨時取消交換學生計畫。,,45.741589
596,大連理工大學,Dalian University of Technology,中國,China,https://oia.ntu.edu.tw/outgoing/view/semester/1/sn/596,是,,,,,,一學期0名。該校2025/2026年度不開放申請,,須在本校註冊並繳交全額學雜費，免繳該校學費，但該校雜費、住宿費、生活費、保險費、往返機票費等均須自行負擔。,,請留意，該校表示因無法評估未來疫情之影響，即使提供交換名額予本校，仍有可能會臨時取消交換學生計畫。,,38.8812564
47,廈門大學,Xiamen University,中國,China,https://oia.ntu.edu.tw/outgoing/view/semester/1/sn/47,是,,,,,無,全學年5名。,第1學期：9月中旬至1月中旬；第2學期：2月中旬至6月中旬,須在本校註冊並繳交全額學雜費，免繳該校學費，但該校雜費、住宿費、生活費、保險費、往返機票費等均須自行負擔。,,請留意，該校表示因無法評估未來疫情之影響，即使提供交換名額予本校，仍有可能會臨時取消交換學生計畫。,,24.4399419
48,上海交通大學,Shanghai Jiao Tong University,中國,China,https://oia.ntu.edu.tw/outgoing/view/semester/1/sn/48,是,,GPA 達3.30分以上,,,醫學院,一學期1名。,,須在本校註冊並繳交全額學雜費，免繳該校學費，但該校雜費、住宿費、生活費、保險費、往返機票費等均須自行負擔。,,請留意，該校表示因無法評估未來疫情之影響，即使提供交換名額予本校，仍有可能會臨時取消交換學生計畫。,,31.2008912
49,山東大學,Shandong University,中國,China,https://oia.ntu.edu.tw/outgoing/view/semester/1/sn/49,是,,GPA 達2.70分以上,,,,一學期0名。該校2025/2026年度不開放申請,Fall: 2023.09-2024.01；Spring: 2024.02-2024.07,須在本校註冊並繳交全額學雜費，免繳該校學費，但該校雜費、住宿費、生活費、保險費、往返機票費等均須自行負擔。,保證住宿，開學前線上申請。,請留意，該校表示因無法評估未來疫情之影響，即使提供交換名額予本校，仍有可能會臨時取消交換學生計畫。另，陸港澳地區調升為橙色旅遊警示，請欲選擇至該校交換的同學留意。,,36.3655393
50,南京大學,Nanjing University,中國,China,https://oia.ntu.edu.tw/outgoing/view/semester/1/sn/50,是,,GPA 達3.30分以上,,,,全學年5名。,第一學期：9月 至 1月；第二學期：2月 至 6月,須在本校註冊並繳交全額學雜費，免繳該校學費，但該校雜費、住宿費、生活費、保險費、往返機票費等均須自行負擔。,,請留意，該校表示因無法評估未來疫情之影響，即使提供交換名額予本校，仍有可能會臨時取消交換學生計畫。,,32.0565957
51,清華大學,Tsinghua University,中國,China,https://oia.ntu.edu.tw/outgoing/view/semester/1/sn/51,是,,GPA 達3.44分以上,,,,一學期1名。,秋季學期：8月至1月；春季學期：2月至6月,須在本校註冊並繳交全額學雜費，免繳該校學費，但該校雜費、住宿費、生活費、保險費、往返機票費等均須自行負擔。,,請留意，該校表示因無法評估未來疫情之影響，即使提供交換名額予本校，仍有可能會臨時取消交換學生計畫。,,40.0022905
52,浙江大學,,中國,China,https://oia.ntu.edu.tw/outgoing/view/semester/1/sn/52,是,,,,,醫學院,一學期0名。該校2025/2026年度不開放申請,學校年曆；第一學期：約9月~1月,須在本校註冊並繳交全額學雜費，免繳該校學費，但該校雜費、住宿費、生活費、保險費、往返機票費等均須自行負擔。,,請留意，該校表示因無法評估未來疫情之影響，即使提供交換名額予本校，仍有可能會臨時取消交換學生計畫。,['請留意，該校表示因無法評估未來疫情之影響，即使提供交換名額予本校，仍有可能會臨時取消交換學生計畫。另，陸港澳地區調升為橙色旅遊警示，請欲選擇至該校交換的同學留意。'],
53,中國科學技術大學,University of Science and Technology of China,中國,China,https://oia.ntu.edu.tw/outgoing/view/semester/1/sn/53,是,,GPA 達3.30分以上,,,,全學年2名。,第一學期：9月至1月；第二學期：2月至7月,須在本校註冊並繳交全額學雜費，免繳該校學費，但該校雜費、住宿費、生活費、保險費、往返機票費等均須自行負擔。,尽力安排学生校内住宿，相关住宿费用、保险费等由学生自行承担。,請留意，該校表示因無法評估未來疫情之影響，即使提供交換名額予本校，仍有可能會臨時取消交換學生計畫。,,31.839072
54,復旦大學,Fudan University,中國,China,https://oia.ntu.edu.tw/outgoing/view/semester/1/sn/54,是,,GPA 達3.30分以上,,,管理學院、社會科學院經濟學研究所,一學期3名。,該校年曆請從通知公告查詢「学年校历」；第一學期：8月至1月,須在本校註冊並繳交全額學雜費，免繳該校學費，但該校雜費、住宿費、生活費、保險費、往返機票費等均須自行負擔。,,請留意，該校表示因無法評估未來疫情之影響，即使提供交換名額予本校，仍有可能會臨時取消交換學生計畫。,,31.3011748
55,北京大學,Peking University,中國,China,https://oia.ntu.edu.tw/outgoing/view/semester/1/sn/55,是,,GPA 達3.30分以上,,,,一學期5名。,該校年曆：北京大学校历,須在本校註冊並繳交全額學雜費，免繳該校學費，但該校雜費、住宿費、生活費、保險費、往返機票費等均須自行負擔。,住宿由校方安排。,請留意，該校表示因無法評估未來疫情之影響，即使提供交換名額予本校，仍有可能會臨時取消交換學生計畫。,,40.1733653
56,中國人民大學,Renmin University of China,中國,China,https://oia.ntu.edu.tw/outgoing/view/semester/1/sn/56,是,,,,,,一學期0名。該校2025/2026年度不開放申請,秋季學期：9月至1月；春季學期：2月至6月,須在本校註冊並繳交全額學雜費，免繳該校學費，但該校雜費、住宿費、生活費、保險費、往返機票費等均須自行負擔。,保證住宿，由校方安排。,請留意，該校表示因無法評估未來疫情之影響，即使提供交換名額予本校，仍有可能會臨時取消交換學生計畫。,,39.9695397
57,吉林大學,Jilin University,中國,China,https://oia.ntu.edu.tw/outgoing/view/semester/1/sn/57,是,,,,,,一學期0名。該校2025/2026年度不開放申請,第一學期：9月至次年1月；第二學期：3月至7月,須在本校註冊並繳交全額學雜費，免繳該校學費，但該校雜費、住宿費、生活費、保險費、往返機票費等均須自行負擔。,保證住宿，由校方統一安排。住宿資訊請參考此連結,請留意，該校表示因無法評估未來疫情之影響，即使提供交換名額予本校，仍有可能會臨時取消交換學生計畫。,,43.8801188
106,南開大學,Nankai University,中國,China,https://oia.ntu.edu.tw/outgoing/view/semester/1/sn/106,是,,GPA 達3.30分以上,,,無,一學期2名。,第一學期：8月至1月；第二學期：2月至6月,須在本校註冊並繳交全額學雜費，免繳該校學費，但該校雜費、住宿費、生活費、保險費、往返機票費等均須自行負擔。,由校方安排，根据学院所在校区就近安排。预计 600 元/学期,請留意，該校表示因無法評估未來疫情之影響，即使提供交換名額予本校，仍有可能會臨時取消交換學生計畫。,,39.1018827
1179,拉曼大學,,馬來西亞,Malaysia,https://oia.ntu.edu.tw/outgoing/view/semester/1/sn/1179,是,一般組,GPA 達2.50分以上,大二以上/碩一以上/博一以上學生,,醫學院醫學系,全學年2名。,UTAR has 3 trimesters in one academic year.；UTAR 2025 Academic Calendar,須在本校註冊並繳交全額學雜費，免繳該校學費，但該校雜費、住宿費、生活費、保險費、往返機票費等均須自行負擔。,保證校外住宿，住宿資訊請參考以下連結：,交換學校一覽表所列之語言能力為該校之最低門檻要求，同學需自行確認語言能力是否符合該校修課要求、查詢是否有足夠的課程可供選讀、能否達到該校之每學期修課學分數要求、以及是否具備相關領域之背景知識，若未達標準，該校有權拒收。,,4.3386145
1160,馬來西亞諾丁漢大學,The University of Nottingham Malaysia,馬來西亞,Malaysia,https://oia.ntu.edu.tw/outgoing/view/semester/1/sn/1160,是,一般組,GPA 達3.00分以上,,,無,全學年1名。,Autumn Semester: September to January；Spring Semester: February to May,須在本校註冊並繳交全額學雜費，免繳該校學費，但該校雜費、住宿費、生活費、保險費、往返機票費等均須自行負擔。,不保證住宿，請參考住宿資訊。,交換學校一覽表所列之語言能力為該校之最低門檻要求，同學需自行確認語言能力是否符合該校修課要求、查詢是否有足夠的課程可供選讀、能否達到該校之每學期修課學分數要求、以及是否具備相關領域之背景知識，若未達標準，該校有權拒收。,,2.9438432
556,馬來亞大學,University of Malaya,馬來西亞,Malaysia,https://oia.ntu.edu.tw/outgoing/view/semester/1/sn/556,是,一般組,GPA 達3.20分以上,,,,全學年1名。,Semester 1: October to February；Semester 2: March to July,須在本校註冊並繳交全額學雜費，免繳該校學費，但該校雜費、住宿費、生活費、保險費、往返機票費等均須自行負擔。,不保證住宿，請參考住宿資訊。,交換學校一覽表所列之語言能力為該校之最低門檻要求，同學需自行確認語言能力是否符合該校修課要求、查詢是否有相對應系所及足夠的課程可供選讀、能否達到該校之每學期修課學分數要求、以及是否具備相關領域之背景知識，若未達標準，該校有權拒收。,,3.1257602
802,馬來西亞理工大學(UTM),University of Technology Malaysia,馬來西亞,Malaysia,https://oia.ntu.edu.tw/outgoing/view/semester/1/sn/802,是,一般組,GPA 達3.70分以上,,,文學院、管理學院工商管理學系、管理學院會計學系、管理學院財務金融學系、管理學院國際企業學系、管理學院資訊管理學系、管理學院會計學研究所,全學年1名。,Semester I (September – January)；Semester II (February – June),須在本校註冊並繳交全額學雜費，免繳該校學費，但該校雜費、住宿費、生活費、保險費、往返機票費等均須自行負擔。,KLG Campus Residence,交換學校一覽表所列之語言能力為該校之最低門檻要求，同學需自行確認語言能力是否符合該校修課要求、查詢是否有足夠的課程可供選讀、能否達到該校之每學期修課學分數要求、以及是否具備相關領域之背景知識，若未達標準，該校有權拒收。,,1.5585223
605,馬來西亞理科大學(USM),,馬來西亞,Malaysia,https://oia.ntu.edu.tw/outgoing/view/semester/1/sn/605,是,一般組,,,,醫學院,全學年1名。,Fall Semester: October - February；Spring Semester: March - August,須在本校註冊並繳交全額學雜費，免繳該校學費，但該校雜費、住宿費、生活費、保險費、往返機票費等均須自行負擔。,不保證校內住宿，請參考此連結,交換學校一覽表所列之語言能力為該校之最低門檻要求，同學需自行確認語言能力是否符合該校修課要求、查詢是否有足夠的課程可供選讀、能否達到該校之每學期修課學分數要求、以及是否具備相關領域之背景知識，若未達標準，該校有權拒收。,,5.3574323
42,蒙古國立大學,National University of Mongolia,蒙古,Mongolia,https://oia.ntu.edu.tw/outgoing/view/semester/1/sn/42,是,一般組,GPA 達3.00分以上,大二以上/碩一以上/博一以上學生,,,全學年1名。,第一學期 : 九月至一月；第二學期 : 二月至七月,須在本校註冊並繳交全額學雜費，免繳該校學費，但該校雜費、住宿費、生活費、保險費、往返機票費等均須自行負擔。,保證校內住宿，請參考此連結。,交換學校一覽表所列之語言能力為該校之最低門檻要求，同學需自行確認語言能力是否符合該校修課要求、查詢是否有足夠的課程可供選讀、能否達到該校之每學期修課學分數要求、以及是否具備相關領域之背景知識，若未達標準，該校有權拒收。,,47.9230199
892,聖彼得堡國立大學,Saint Petersburg State University,俄羅斯,Russia,https://oia.ntu.edu.tw/outgoing/view/semester/1/sn/892,是,一般組,GPA 達3.30分以上,,本校大二以上/碩一以上(不含博士生)學生。 2.	GPA 達3.30分以上。 3.	TOEFL iBT 92 (不接受 Home Edition) 或 IELTS 6.5。  或 4.	具俄語檢定(TORFL)成績 第一級TРКИ-1 級以上,,全學年0名。因交換學生往來不平衡，該校2025/2026年度不開放申請。,Fall Semester: September - January；Spring Semester: February - June,須在本校註冊並繳交全額學雜費，免繳該校學費，但該校雜費、住宿費、生活費、保險費、往返機票費等均須自行負擔。,保證住宿,交換學校一覽表所列之語言能力為該校之最低門檻要求，同學需自行確認語言能力是否符合該校修課要求、查詢是否有足夠的課程可供選讀、能否達到該校之每學期修課學分數要求、以及是否具備相關領域之背景知識，若未達標準，該校有權拒收。,,59.9406782
891,莫斯科國立大學,Lomonosov Moscow State University,俄羅斯,Russia,https://oia.ntu.edu.tw/outgoing/view/semester/1/sn/891,是,一般組,GPA 達3.44分以上,,本校碩一以上(不含博士生)學生。 2.	GPA 達3.44分以上。 3.	TOEFL iBT 79 (接受 Home Edition) 或 IELTS 6.0 或 全民英檢高級。  或 4.	具俄語檢定(TORFL)成績 第一級TРКИ-1 級以上,,全學年0名。因交換學生往來不平衡，該校2025/2026年度不開放申請。,Fall semester；Study period: September 1 — January 24,須在本校註冊並繳交全額學雜費，免繳該校學費，但該校雜費、住宿費、生活費、保險費、往返機票費等均須自行負擔。,保證住宿，住宿資訊請參閱此連結。,交換學校一覽表所列之語言能力為該校之最低門檻要求，同學需自行確認語言能力是否符合該校修課要求、查詢是否有足夠的課程可供選讀、能否達到該校之每學期修課學分數要求、以及是否具備相關領域之背景知識，若未達標準，該校有權拒收。,,55.7055406
1135,新加坡科技與設計大學,Singapore University of Technology and Design,新加坡,Singapore,https://oia.ntu.edu.tw/outgoing/view/semester/1/sn/1135,是,一般組,,大二以上(僅限大學部)學生,,,全學年3名。,注意事項；交換學校一覽表所列之語言能力為該校之最低門檻要求，同學需自行確認語言能力是否符合該校修課要求、查詢是否有足夠的課程可供選讀、能否達到該校之每學期修課學分數要求、以及是否具備相關領域之背景知識，若未達標準，該校有權拒收。,"須在本校註冊並繳交全額學雜費，免繳該校學費，但該校雜費、住宿費、生活費、保險費、往返機票費等均須自行負擔。保險及生活費資訊InsuranceEstimated cost of living: approximately SGD 1,100 to SGD2,400 per month.",不保證住宿，住宿資訊請參考此連結。,交換學校一覽表所列之語言能力為該校之最低門檻要求，同學需自行確認語言能力是否符合該校修課要求、查詢是否有足夠的課程可供選讀、能否達到該校之每學期修課學分數要求、以及是否具備相關領域之背景知識，若未達標準，該校有權拒收。,,1.3413227
45,新加坡管理大學,Singapore Management University,新加坡,Singapore,https://oia.ntu.edu.tw/outgoing/view/semester/1/sn/45,是,一般組,,,,,全學年8名。,Term 1: August - December；Term 2: January - April,須在本校註冊並繳交全額學雜費，免繳該校學費，但該校雜費、住宿費、生活費、保險費、往返機票費等均須自行負擔。,,交換學校一覽表所列之語言能力為該校之最低門檻要求，同學需自行確認語言能力是否符合該校修課要求、查詢是否有足夠的課程可供選讀、能否達到該校之每學期修課學分數要求、以及是否具備相關領域之背景知識，若未達標準，該校有權拒收。,,1.296168
43,南洋理工大學,Nanyang Technological University,新加坡,Singapore,https://oia.ntu.edu.tw/outgoing/view/semester/1/sn/43,是,一般組,GPA 達2.83分以上,,,電機資訊學院電機工程學系、電機資訊學院電機工程學研究所,一般組 全學年4名。,Semester 1 (Fall): August to December；Semester2 (Spring): January to May,須在本校註冊並繳交全額學雜費，免繳該校學費，但該校雜費、住宿費、生活費、保險費、往返機票費等均須自行負擔。,不保證住宿，住宿資訊請參考此連結。,交換學校一覽表所列之語言能力為該校之最低門檻要求，同學需自行確認語言能力是否符合該校修課要求、查詢是否有足夠的課程可供選讀、能否達到該校之每學期修課學分數要求、以及是否具備相關領域之背景知識，若未達標準，該校有權拒收。,,1.3484104
44,新加坡國立大學,National University of Singapore (NUS),新加坡,Singapore,https://oia.ntu.edu.tw/outgoing/view/semester/1/sn/44,是,一般組,GPA 達3.00分以上,大二以上(僅限大學部)學生,,管理學院、醫學院、公共衛生學院、法律學院,全學年5名。,Semester 1: August to December；Semester 2: January to May,須在本校註冊並繳交全額學雜費，免繳該校學費，但該校雜費、住宿費、生活費、保險費、往返機票費等均須自行負擔。,不保證住宿，住宿資訊請參考此連結。,交換學校一覽表所列之語言能力為該校之最低門檻要求，同學需自行確認語言能力是否符合該校修課要求、查詢是否有足夠的課程可供選讀、能否達到該校之每學期修課學分數要求、以及是否具備相關領域之背景知識，若未達標準，該校有權拒收。,,1.2962018
984,馬希竇大學,Mahidol University,泰國,Thailand,https://oia.ntu.edu.tw/outgoing/view/semester/1/sn/984,是,一般組,GPA 達3.00分以上,,,,全學年2名。,For General Program；Fall Semester 1st Semester: mid of August - mid of December,須在本校註冊並繳交全額學雜費，免繳該校學費，但該校雜費、住宿費、生活費、保險費、往返機票費等均須自行負擔。,,交換學校一覽表所列之語言能力為該校之最低門檻要求，同學需自行確認語言能力是否符合該校修課要求、查詢是否有足夠的課程可供選讀、能否達到該校之每學期修課學分數要求、以及是否具備相關領域之背景知識，若未達標準，該校有權拒收。,,13.794652
794,國立法政大學,Thammasat University,泰國,Thailand,https://oia.ntu.edu.tw/outgoing/view/semester/1/sn/794,是,一般組,GPA 達3.00分以上,,,文學院人類學系、文學院人類學研究所、社會科學院社會學系、社會科學院社會學研究所、理學院、醫學院、公共衛生學院,全學年3名。,1st semester: August - December；2nd semester: January - May,須在本校註冊並繳交全額學雜費，免繳該校學費，但該校雜費、住宿費、生活費、保險費、往返機票費等均須自行負擔。,,交換學校一覽表所列之語言能力為該校之最低門檻要求，同學需自行確認語言能力是否符合該校修課要求、查詢是否有足夠的課程可供選讀、能否達到該校之每學期修課學分數要求、以及是否具備相關領域之背景知識，若未達標準，該校有權拒收。,,18.3173369
390,朱拉隆功大學,Chulalongkorn University,泰國,Thailand,https://oia.ntu.edu.tw/outgoing/view/semester/1/sn/390,是,一般組,GPA 達3.00分以上,,,電機資訊學院電機工程學系、電機資訊學院電機工程學研究所,全學年2名。,,須在本校註冊並繳交全額學雜費，免繳該校學費，但該校雜費、住宿費、生活費、保險費、往返機票費等均須自行負擔。,,交換學校一覽表所列之語言能力為該校之最低門檻要求，同學需自行確認語言能力是否符合該校修課要求、查詢是否有足夠的課程可供選讀、能否達到該校之每學期修課學分數要求、以及是否具備相關領域之背景知識，若未達標準，該校有權拒收。,,13.7431114
46,亞洲理工學院,,泰國,Thailand,https://oia.ntu.edu.tw/outgoing/view/semester/1/sn/46,是,一般組,,,,,一學期2名。,Fall Semester: July - December；Spring Semester: January - May,須在本校註冊並繳交全額學雜費，免繳該校學費，但該校雜費、住宿費、生活費、保險費、往返機票費等均須自行負擔。,,交換學校一覽表所列之語言能力為該校之最低門檻要求，同學需自行確認語言能力是否符合該校修課要求、查詢是否有足夠的課程可供選讀、能否達到該校之每學期修課學分數要求、以及是否具備相關領域之背景知識，若未達標準，該校有權拒收。,,14.0803261
1216,薩邦哲大學,Sabanci University,土耳其,Turkey,https://oia.ntu.edu.tw/outgoing/view/semester/1/sn/1216,是,一般組,GPA 達2.50分以上,,,,全學年1名。,Fall Semester: September - January；Spring Semester: February - May,須在本校註冊並繳交全額學雜費，免繳該校學費，但該校雜費、住宿費、生活費、保險費、往返機票費等均須自行負擔。,,交換學校一覽表所列之語言能力等規定為該校之最低門檻，同學需自行確認最新資訊，如語言能力及成績是否符合該校要求、查詢是否有足夠的課程可供選讀、能否達到該校之每學期修課學分數要求、以及是否具備相關領域之背景知識等，若未達標準，該校有權拒收。本表所提供之資訊如有與交換學校／國家／地區最新公告不符之處，申請學生應以交換學校／國家／地區之最新公告為準。經甄選錄取獲得本校推薦資格之交換生，不得於取得該校入學許可後，要求變更已取得的入學許可條件；或者是交換申請被該校拒絕後，要求以另一種條件重新提出申請。如有以上情事者，將直接取消其錄取資格。,,40.8927159
1189,海峽大學,Bogazici University,土耳其,Turkey,https://oia.ntu.edu.tw/outgoing/view/semester/1/sn/1189,是,一般組,GPA 達2.70分以上,大一以上/碩一以上/博一以上學生,,理學院心理學研究所、社會科學院經濟學研究所、社會科學院社會學研究所、管理學院財務金融學研究所、管理學院資訊管理學研究所,全學年1名。,Fall semester: September to January；Spring semester: February to June,須在本校註冊並繳交全額學雜費，免繳該校學費，但該校雜費、住宿費、生活費、保險費、往返機票費等均須自行負擔。,,交換學校一覽表所列之語言能力等規定為該校之最低門檻，同學需自行確認最新資訊，如語言能力及成績是否符合該校要求、查詢是否有足夠的課程可供選讀、能否達到該校之每學期修課學分數要求、以及是否具備相關領域之背景知識等，若未達標準，該校有權拒收。本表所提供之資訊如有與交換學校／國家／地區最新公告不符之處，申請學生應以交換學校／國家／地區之最新公告為準。經甄選錄取獲得本校推薦資格之交換生，不得於取得該校入學許可後，要求變更已取得的入學許可條件；或者是交換申請被該校拒絕後，要求以另一種條件重新提出申請。如有以上情事者，將直接取消其錄取資格。,,41.0832733
1183,畢爾肯大學,Bilkent University,土耳其,Turkey,https://oia.ntu.edu.tw/outgoing/view/semester/1/sn/1183,是,一般組,GPA 達2.70分以上,,,,全學年2名。,Fall semester: September to January；Spring semester: January to May,須在本校註冊並繳交全額學雜費，免繳該校學費，但該校雜費、住宿費、生活費、保險費、往返機票費等均須自行負擔。,保證校內住宿，住宿資訊請參考此連結。,交換學校一覽表所列之語言能力等規定為該校之最低門檻，同學需自行確認最新資訊，如語言能力及成績是否符合該校要求、查詢是否有足夠的課程可供選讀、能否達到該校之每學期修課學分數要求、以及是否具備相關領域之背景知識等，若未達標準，該校有權拒收。本表所提供之資訊如有與交換學校／國家／地區最新公告不符之處，申請學生應以交換學校／國家／地區之最新公告為準。經甄選錄取獲得本校推薦資格之交換生，不得於取得該校入學許可後，要求變更已取得的入學許可條件；或者是交換申請被該校拒絕後，要求以另一種條件重新提出申請。如有以上情事者，將直接取消其錄取資格。,,39.870469
1079,中東科技大學,Middle East Technical University (METU),土耳其,Turkey,https://oia.ntu.edu.tw/outgoing/view/semester/1/sn/1079,是,一般組,GPA 達3.30分以上,,,,全學年2名。,,須在本校註冊並繳交全額學雜費，免繳該校學費，但該校雜費、住宿費、生活費、保險費、往返機票費等均須自行負擔。,,交換學校一覽表所列之語言能力等規定為該校之最低門檻，同學需自行確認最新資訊，如語言能力及成績是否符合該校要求、查詢是否有足夠的課程可供選讀、能否達到該校之每學期修課學分數要求、以及是否具備相關領域之背景知識等，若未達標準，該校有權拒收。本表所提供之資訊如有與交換學校／國家／地區最新公告不符之處，申請學生應以交換學校／國家／地區之最新公告為準。經甄選錄取獲得本校推薦資格之交換生，不得於取得該校入學許可後，要求變更已取得的入學許可條件；或者是交換申請被該校拒絕後，要求以另一種條件重新提出申請。如有以上情事者，將直接取消其錄取資格。,,39.8755074
890,柯克大學,Koç University,土耳其,Turkey,https://oia.ntu.edu.tw/outgoing/view/semester/1/sn/890,是,一般組,GPA 達2.50分以上,,,醫學院學士後護理學系、醫學院護理學系、醫學院護理學研究所,全學年1名。,Fall Semester: October - January；Spring Semester: February - June,須在本校註冊並繳交全額學雜費，免繳該校學費，但該校雜費、住宿費、生活費、保險費、往返機票費等均須自行負擔。,,交換學校一覽表所列之語言能力等規定為該校之最低門檻，同學需自行確認最新資訊，如語言能力及成績是否符合該校要求、查詢是否有足夠的課程可供選讀、能否達到該校之每學期修課學分數要求、以及是否具備相關領域之背景知識等，若未達標準，該校有權拒收。本表所提供之資訊如有與交換學校／國家／地區最新公告不符之處，申請學生應以交換學校／國家／地區之最新公告為準。經甄選錄取獲得本校推薦資格之交換生，不得於取得該校入學許可後，要求變更已取得的入學許可條件；或者是交換申請被該校拒絕後，要求以另一種條件重新提出申請。如有以上情事者，將直接取消其錄取資格。,,41.203159
998,維也納大學,University of Vienna,奧地利,Austria,https://oia.ntu.edu.tw/outgoing/view/semester/1/sn/998,否,德語組,,,本校大二以上/碩一以上(不含博士生)學生。 2.	TOEFL iBT 80 (接受 Home Edition) 或 IELTS 6.0 或 全民英檢中高級。  或 3.	具德語檢定成績 B2(中高級) 級以上,,全學年2名。,Academic Calendar,須在本校註冊並繳交全額學雜費，免繳該校學費，但該校雜費、住宿費、生活費、保險費、往返機票費等均須自行負擔,"The University of Vienna does not have its own student halls of residence. Students are therefore responsible for organising accommodation for their stay in Vienna themselves. We strongly recommend starting to search for accommodation as soon as possible, especially if you are going to stay in a hall of residence. More information here.",交換學校一覽表所列之語言能力為該校之最低門檻要求，同學需自行確認語言能力是否符合該校修課要求、查詢是否有相對應的系所及足夠的課程可供選讀、能否達到該校之每學期修課學分數要求、以及是否具備相關領域之背景知識，若未達標準，該校有權拒收。,,48.2131469
171,林茲大學,Johannes Kepler University of Linz,奧地利,Austria,https://oia.ntu.edu.tw/outgoing/view/semester/1/sn/171,是,德語組,,,本校大二以上/碩一以上(不含博士生)學生。 2.	TOEFL iBT 85 (接受 Home Edition) 或 IELTS 6.0 或 全民英檢中高級，僅具備英語能力者請務必詳閱注意事項說明。  或 3.	具德語檢定成績 B2(中高級) 級以上,,全學年3名。（可選擇交換一學期或一學年，限於本校第1學期出國交換）,Winter Semester: 1st week of October-January 31st (Start of the compulsory orientation programme: 2nd or 3rd week of September)；Summer Semester: 1st week of March-June 30th (Start of the compulsory orientation programme: 2nd week of February),須在本校註冊並繳交全額學雜費，免繳該校學費，但該校雜費、住宿費、生活費、保險費、往返機票費等均須自行負擔,"The International Office arranges accommodation at the various student dormitories, most of them within walking distance from campus. For more information visit the website.",交換學校一覽表所列之語言能力為該校之最低門檻要求，同學需自行確認語言能力是否符合該校修課要求、查詢是否有相對應的系所及足夠的課程可供選讀、能否達到該校之每學期修課學分數要求、以及是否具備相關領域之背景知識，若未達標準，該校有權拒收。,['交換學校一覽表所列之語言能力為該校之最低門檻要求，同學需自行確認語言能力是否符合該校修課要求、查詢是否有相對應的系所及足夠的課程可供選讀、能否達到該校之每學期修課學分數要求、以及是否具備相關領域之背景知識，若未達標準，該校有權拒收。'],
1302,蒙斯大學,University of Mons,比利時,Belgium,https://oia.ntu.edu.tw/outgoing/view/semester/1/sn/1302,是,法語組,,,本校大二/碩一/碩二(不含博士生)學生。 2.	TOEFL iBT 80 (不接受 Home Edition) 或 IELTS 6.0，僅具備英語能力者，務必自行確認是否有足夠英語授課課程可供選讀。  或 3.	具法語檢定成績 B1(中級) 級以上,醫學院、公共衛生學院、法律學院,全學年3名。,Academic Calendar,須在本校註冊並繳交全額學雜費，免繳該校學費，但該校雜費、住宿費、生活費、保險費、往返機票費等均須自行負擔,辦公時間,交換學校一覽表所列之語言能力為該校之最低門檻要求，同學需自行確認語言能力是否符合該校修課要求、查詢是否有相對應的系所及足夠的課程可供選讀、能否達到該校之每學期修課學分數要求、以及是否具備相關領域之背景知識，若未達標準，該校有權拒收。,,45.5027702
1103,托馬斯莫爾應用科技大學,Thomas More University of Applied Sciences,比利時,Belgium,https://oia.ntu.edu.tw/outgoing/view/semester/1/sn/1103,是,一般組,,大二以上/碩一以上/博一以上學生,,,全學年1名。,Academic Calendar 24/25；Fall semester typically starts the third week of September and ends around the end of January.,須在本校註冊並繳交全額學雜費，免繳該校學費，但該校雜費、住宿費、生活費、保險費、往返機票費等均須自行負擔,,交換學校一覽表所列之語言能力為該校之最低門檻要求，同學需自行確認語言能力是否符合該校修課要求、查詢是否有相對應的系所及足夠的課程可供選讀、能否達到該校之每學期修課學分數要求、以及是否具備相關領域之背景知識，若未達標準，該校有權拒收。,,
59,布魯塞爾自由大學,Université Libre de Bruxelles,比利時,Belgium,https://oia.ntu.edu.tw/outgoing/view/semester/1/sn/59,否,法語組,,,本校大二以上/碩一以上(不含博士生)學生。 2.	具法語檢定成績 B1(中級) 級以上，B2 recommended. A proof of language proficiency might be requested by the faculties.,管理學院、醫學院、公共衛生學院,全學年1名。,Academic Calendar；Semester 1: September to January,須在本校註冊並繳交全額學雜費，免繳該校學費，但該校雜費、住宿費、生活費、保險費、往返機票費等均須自行負擔,,交換學校一覽表所列之語言能力為該校之最低門檻要求，同學需自行確認語言能力是否符合該校修課要求、查詢是否有相對應的系所及足夠的課程可供選讀、能否達到該校之每學期修課學分數要求、以及是否具備相關領域之背景知識，若未達標準，該校有權拒收。,"[' La Plaine', ' Erasme) or off-campus (with over 2', '400 rooms or flats). The Housing Office will help you to find a suitable accommodation and advise you on many aspects of student housing.', '交換學校一覽表所列之語言能力為該校之最低門檻要求，同學需自行確認語言能力是否符合該校修課要求、查詢是否有相對應的系所及足夠的課程可供選讀、能否達到該校之每學期修課學分數要求、以及是否具備相關領域之背景知識，若未達標準，該校有權拒收。']",50.8134718
921,查理士大學,Charles University,捷克,Czech Republic,https://oia.ntu.edu.tw/outgoing/view/semester/1/sn/921,否,一般組,,,,,全學年1名。,Academic Calendar,須在本校註冊並繳交全額學雜費，免繳該校學費，但該校雜費、住宿費、生活費、保險費、往返機票費等均須自行負擔,Please note that exchange students need to have an accommodation agreement to apply for the visa.,交換學校一覽表所列之語言能力為該校之最低門檻要求，同學需自行確認語言能力是否符合該校修課要求、查詢是否有相對應的系所及足夠的課程可供選讀、能否達到該校之每學期修課學分數要求、以及是否具備相關領域之背景知識，若未達標準，該校有權拒收。,['交換學校一覽表所列之語言能力為該校之最低門檻要求，同學需自行確認語言能力是否符合該校修課要求、查詢是否有相對應的系所及足夠的課程可供選讀、能否達到該校之每學期修課學分數要求、以及是否具備相關領域之背景知識，若未達標準，該校有權拒收。'],50.0888947
387,馬薩里克大學,Masaryk University,捷克,Czech Republic,https://oia.ntu.edu.tw/outgoing/view/semester/1/sn/387,否,一般組,GPA 達2.70分以上,大二以上/碩一以上/博一以上學生,,,全學年1名。,Academic Calendar,須在本校註冊並繳交全額學雜費，免繳該校學費，但該校雜費、住宿費、生活費、保險費、往返機票費等均須自行負擔,Other Highlight,交換學校一覽表所列之語言能力為該校之最低門檻要求，同學需自行確認語言能力是否符合該校修課要求、查詢是否有相對應的系所及足夠的課程可供選讀、能否達到該校之每學期修課學分數要求、以及是否具備相關領域之背景知識，若未達標準，該校有權拒收。,,49.2099967
1194,奧胡斯大學,Aarhus University,丹麥,Denmark,https://oia.ntu.edu.tw/outgoing/view/semester/1/sn/1194,是,一般組,,,,醫學院、公共衛生學院,全學年1名。,Academic Calendar,須在本校註冊並繳交全額學雜費，免繳該校學費，但該校雜費、住宿費、生活費、保險費、往返機票費等均須自行負擔,Other Highlight,交換學校一覽表所列之語言能力為該校之最低門檻要求，同學需自行確認語言能力是否符合該校修課要求、查詢是否有相對應的系所及足夠的課程可供選讀、能否達到該校之每學期修課學分數要求、以及是否具備相關領域之背景知識，若未達標準，該校有權拒收。,['交換學校一覽表所列之語言能力為該校之最低門檻要求，同學需自行確認語言能力是否符合該校修課要求、查詢是否有相對應的系所及足夠的課程可供選讀、能否達到該校之每學期修課學分數要求、以及是否具備相關領域之背景知識，若未達標準，該校有權拒收。'],56.1670905
61,哥本哈根大學,University of Copenhagen,丹麥,Denmark,https://oia.ntu.edu.tw/outgoing/view/semester/1/sn/61,否,一般組,,,,醫學院、公共衛生學院,全學年3名。,Fall semester start - 1 September to 31 January；Spring semester start - 1 February to 30 June,須在本校註冊並繳交全額學雜費，免繳該校學費，但該校雜費、住宿費、生活費、保險費、往返機票費等均須自行負擔,,交換學校一覽表所列之語言能力為該校之最低門檻要求，同學需自行確認語言能力是否符合該校修課要求、查詢是否有相對應的系所及足夠的課程可供選讀、能否達到該校之每學期修課學分數要求、以及是否具備相關領域之背景知識，若未達標準，該校有權拒收。,"[' please check this website.', '交換學校一覽表所列之語言能力為該校之最低門檻要求，同學需自行確認語言能力是否符合該校修課要求、查詢是否有相對應的系所及足夠的課程可供選讀、能否達到該校之每學期修課學分數要求、以及是否具備相關領域之背景知識，若未達標準，該校有權拒收。']",55.6801502
898,拉瑞爾應用科技大學,Laurea University of Applied Sciences,芬蘭,Finland,https://oia.ntu.edu.tw/outgoing/view/semester/1/sn/898,是,一般組,,大二以上(僅限大學部)學生,,,一般組 一學期1名。,Academic Calendar,須在本校註冊並繳交全額學雜費，免繳該校學費，但該校雜費、住宿費、生活費、保險費、往返機票費等均須自行負擔,,交換學校一覽表所列之語言能力為該校之最低門檻要求，同學需自行確認語言能力是否符合該校修課要求、查詢是否有相對應的系所及足夠的課程可供選讀、能否達到該校之每學期修課學分數要求、以及是否具備相關領域之背景知識，若未達標準，該校有權拒收。,,60.2228169
62,赫爾辛基大學,University of Helsinki,芬蘭,Finland,https://oia.ntu.edu.tw/outgoing/view/semester/1/sn/62,否,一般組,,,,管理學院、工學院、醫學院護理學系、醫學院護理學研究所、醫學院牙醫學系、醫學院臨床牙醫學研究所,全學年3名。,Academic Calendar,須在本校註冊並繳交全額學雜費，免繳該校學費，但該校雜費、住宿費、生活費、保險費、往返機票費等均須自行負擔,,交換學校一覽表所列之語言能力為該校之最低門檻要求，同學需自行確認語言能力是否符合該校修課要求、查詢是否有相對應的系所及足夠的課程可供選讀、能否達到該校之每學期修課學分數要求、以及是否具備相關領域之背景知識，若未達標準，該校有權拒收。,['交換學校一覽表所列之語言能力為該校之最低門檻要求，同學需自行確認語言能力是否符合該校修課要求、查詢是否有相對應的系所及足夠的課程可供選讀、能否達到該校之每學期修課學分數要求、以及是否具備相關領域之背景知識，若未達標準，該校有權拒收。'],60.2267221
1301,巴黎高等師範學院,,法國,France,https://oia.ntu.edu.tw/outgoing/view/semester/1/sn/1301,是,,,,,無,,Fall Semester；Humanities: September 15th to December 20th,須在本校註冊並繳交全額學雜費，免繳該校學費，但該校雜費、住宿費、生活費、保險費、往返機票費等均須自行負擔,,交換學校一覽表所列之語言能力為該校之最低門檻要求，同學需自行確認語言能力是否符合該校修課要求、查詢是否有相對應的系所及足夠的課程可供選讀、能否達到該校之每學期修課學分數要求、以及是否具備相關領域之背景知識，若未達標準，該校有權拒收。,,48.8417072
1106,波爾多大學,University of Bordeaux,法國,France,https://oia.ntu.edu.tw/outgoing/view/semester/1/sn/1106,是,法語組,GPA 達2.70分以上,,"本校大二以上/碩一以上(不含博士生)學生。 2.	GPA 達2.70分以上。 3.	TOEFL iBT 79 (接受 Home Edition) 或 IELTS 6.0 或 全民英檢中高級。  或 4.	具法語檢定成績 B1(中級) 級以上，For health and human sciences, education, economics, management: B2",醫學院、公共衛生學院,全學年3名。,Fall Semester : September – January；Spring Semester : February – June,須在本校註冊並繳交全額學雜費，免繳該校學費，但該校雜費、住宿費、生活費、保險費、往返機票費等均須自行負擔,Room in university residence .......................................................250€,交換學校一覽表所列之語言能力為該校之最低門檻要求，同學需自行確認語言能力是否符合該校修課要求、查詢是否有相對應的系所及足夠的課程可供選讀、能否達到該校之每學期修課學分數要求、以及是否具備相關領域之背景知識，若未達標準，該校有權拒收。,,
1105,奧爾良大學,University of Orleans,法國,France,https://oia.ntu.edu.tw/outgoing/view/semester/1/sn/1105,是,法語組,,,本校大二以上/碩一以上(不含博士生)學生。 2.	TOEFL iBT 90 (不接受 Home Edition) 或 IELTS 6.5，僅具英語能力者，請詳見下方注意事項。  或 3.	具法語檢定成績 B2(中高級) 級以上,,全學年2名。,Semester 1 (Fall semester): Early September - Late December / Early January；Semester 2 (Spring semester): Early January - May / June,須在本校註冊並繳交全額學雜費，免繳該校學費，但該校雜費、住宿費、生活費、保險費、往返機票費等均須自行負擔,Other Highlight,交換學校一覽表所列之語言能力為該校之最低門檻要求，同學需自行確認語言能力是否符合該校修課要求、查詢是否有相對應的系所及足夠的課程可供選讀、能否達到該校之每學期修課學分數要求、以及是否具備相關領域之背景知識，若未達標準，該校有權拒收。,,33.2107144
1014,巴黎高等農業學院,,法國,France,https://oia.ntu.edu.tw/outgoing/view/semester/1/sn/1014,是,法語組,,,本校大四/大五/碩一以上/博一以上學生。 2.	具法語檢定成績 B1(中級) 級以上，B2 level is highly recommended to follow courses and take exams comfortably,無,全學年1名。,1st semester: Start of September – Start of February；2nd semester: Start of February – June,須在本校註冊並繳交全額學雜費，免繳該校學費，但該校雜費、住宿費、生活費、保險費、往返機票費等均須自行負擔,,交換學校一覽表所列之語言能力為該校之最低門檻要求，同學需自行確認語言能力是否符合該校修課要求、查詢是否有相對應的系所及足夠的課程可供選讀、能否達到該校之每學期修課學分數要求、以及是否具備相關領域之背景知識，若未達標準，該校有權拒收。,,48.7138102
104,巴黎薩克雷大學,University of Paris-Saclay,法國,France,https://oia.ntu.edu.tw/outgoing/view/semester/1/sn/104,否,法語組,GPA 達3.00分以上,,本校大四/大五/碩一以上(不含博士生)學生。 2.	GPA 達3.00分以上。 3.	TOEFL iBT 90 (不接受 Home Edition) 或 IELTS 6.5 或 全民英檢中高級，該校絕大多數為法語授課，僅具備英語能力者需同時具A2法語能力。  或 4.	具法語檢定成績 B2(中高級) 級以上,文學院,全學年3名。,Autumn Semester: September - January；Spring Semester: January - June,須在本校註冊並繳交全額學雜費，免繳該校學費，但該校雜費、住宿費、生活費、保險費、往返機票費等均須自行負擔,校園導覽,交換學校一覽表所列之語言能力為該校之最低門檻要求，同學需自行確認語言能力是否符合該校修課要求、查詢是否有相對應的系所及足夠的課程可供選讀、能否達到該校之每學期修課學分數要求、以及是否具備相關領域之背景知識，若未達標準，該校有權拒收。,,
917,巴黎高等礦業學院,,法國,France,https://oia.ntu.edu.tw/outgoing/view/semester/1/sn/917,是,法語組,GPA 達3.00分以上,,本校碩一/碩二(不含博士生)學生。 2.	GPA 達3.00分以上。 3.	TOEFL iBT 90 (不接受 Home Edition) 或 IELTS 6.5，僅具備英語能力者，請詳閱注意事項。  或 4.	具法語檢定成績 B2(中高級) 級以上,,一學期3名。,Fall semester: Early September to end of January/mid-February (depending on program)；Spring semester: mid-February to May,須在本校註冊並繳交全額學雜費，免繳該校學費，但該校雜費、住宿費、生活費、保險費、往返機票費等均須自行負擔,,交換學校一覽表所列之語言能力為該校之最低門檻要求，同學需自行確認語言能力是否符合該校修課要求、查詢是否有相對應的系所及足夠的課程可供選讀、能否達到該校之每學期修課學分數要求、以及是否具備相關領域之背景知識，若未達標準，該校有權拒收。,['交換學校一覽表所列之語言能力為該校之最低門檻要求，同學需自行確認語言能力是否符合該校修課要求、查詢是否有相對應的系所及足夠的課程可供選讀、能否達到該校之每學期修課學分數要求、以及是否具備相關領域之背景知識，若未達標準，該校有權拒收。'],48.6117414
818,雷恩第一大學（原翰尼第一大學）,University of Rennes 1,法國,France,https://oia.ntu.edu.tw/outgoing/view/semester/1/sn/818,是,法語組,,,本校大二以上/碩一以上(不含博士生)學生。 2.	TOEFL iBT 90 (不接受 Home Edition) 或 IELTS 6.5，Each faculty may have higher regulations。  或 3.	具法語檢定成績 B2(中高級) 級以上,,全學年2名。,Academic Calendar,須在本校註冊並繳交全額學雜費，免繳該校學費，但該校雜費、住宿費、生活費、保險費、往返機票費等均須自行負擔,Other Highlight,交換學校一覽表所列之語言能力為該校之最低門檻要求，同學需自行確認語言能力是否符合該校修課要求、查詢是否有相對應的系所及足夠的課程可供選讀、能否達到該校之每學期修課學分數要求、以及是否具備相關領域之背景知識，若未達標準，該校有權拒收。,['交換學校一覽表所列之語言能力為該校之最低門檻要求，同學需自行確認語言能力是否符合該校修課要求、查詢是否有相對應的系所及足夠的課程可供選讀、能否達到該校之每學期修課學分數要求、以及是否具備相關領域之背景知識，若未達標準，該校有權拒收。'],
788,巴黎第十三大學（北巴黎大學）,Sorbonne Paris North University,法國,France,https://oia.ntu.edu.tw/outgoing/view/semester/1/sn/788,否,法語組,GPA 達2.70分以上,大二以上/碩一以上/博一以上學生,本校大二以上/碩一以上/博一以上學生。 2.	學士生 GPA 達2.70分以上； 研究生 GPA 達2.70分以上。 3.	學士生 具法語檢定成績 B1(中級) 級以上；,,全學年3名。,Fall 01/09/2025 - 31/01/2026；Spring 01/02/2026 - 30/06/2026,須在本校註冊並繳交全額學雜費，免繳該校學費，但該校雜費、住宿費、生活費、保險費、往返機票費等均須自行負擔,,交換學校一覽表所列之語言能力為該校之最低門檻要求，同學需自行確認語言能力是否符合該校修課要求、查詢是否有相對應的系所及足夠的課程可供選讀、能否達到該校之每學期修課學分數要求、以及是否具備相關領域之背景知識，若未達標準，該校有權拒收。,['交換學校一覽表所列之語言能力為該校之最低門檻要求，同學需自行確認語言能力是否符合該校修課要求、查詢是否有相對應的系所及足夠的課程可供選讀、能否達到該校之每學期修課學分數要求、以及是否具備相關領域之背景知識，若未達標準，該校有權拒收。'],
305,巴黎薩克雷高等師範學校,,法國,France,https://oia.ntu.edu.tw/outgoing/view/semester/1/sn/305,否,法語組,,,本校大三/大四/大五/碩一以上/博一以上學生。 2.	TOEFL iBT 95 (接受 Home Edition) 或 IELTS 6.5。  或 3.	具法語檢定成績 B2(中高級) 級以上，Bachelor in Economics/ Humanities require C1 because courses are taught only in French except the Master of Economics in English,,全學年0名。（因交換學生往來不平衡，本次甄選不開放申請）,"It really depends on the training chosen but usually,；Fall semester: Start of september - End of december/End of January.",須在本校註冊並繳交全額學雜費，免繳該校學費，但該校雜費、住宿費、生活費、保險費、往返機票費等均須自行負擔,,交換學校一覽表所列之語言能力為該校之最低門檻要求，同學需自行確認語言能力是否符合該校修課要求、查詢是否有相對應的系所及足夠的課程可供選讀、能否達到該校之每學期修課學分數要求、以及是否具備相關領域之背景知識，若未達標準，該校有權拒收。,,48.7128733
392,里爾天主教大學,Lille Catholic University,法國,France,https://oia.ntu.edu.tw/outgoing/view/semester/1/sn/392,是,法語組,GPA 達2.75分以上,,本校大二以上/碩一以上(不含博士生)學生。 2.	GPA 達2.75分以上。 3.	TOEFL iBT 92 (接受 Home Edition) 或 IELTS 6.5 或 全民英檢中高級。  或 4.	具法語檢定成績 B2(中高級) 級以上,醫學院、法律學院法律學研究所、法律學院科際整合法律學研究所,法語組 全學年3名。,Academic Calendar；Semester 1 or Fall Semester: it starts from end of August or early September and ends in December,須在本校註冊並繳交全額學雜費，免繳該校學費，但該校雜費、住宿費、生活費、保險費、往返機票費等均須自行負擔,Other Highlight,交換學校一覽表所列之語言能力為該校之最低門檻要求，同學需自行確認語言能力是否符合該校修課要求、查詢是否有相對應的系所及足夠的課程可供選讀、能否達到該校之每學期修課學分數要求、以及是否具備相關領域之背景知識，若未達標準，該校有權拒收。,['交換學校一覽表所列之語言能力為該校之最低門檻要求，同學需自行確認語言能力是否符合該校修課要求、查詢是否有相對應的系所及足夠的課程可供選讀、能否達到該校之每學期修課學分數要求、以及是否具備相關領域之背景知識，若未達標準，該校有權拒收。'],
597,巴黎中央理工學院-電力高等學院,,法國,France,https://oia.ntu.edu.tw/outgoing/view/semester/1/sn/597,是,法語組,,,本校大三/大四/大五/碩一/碩二(不含博士生)學生，須具備扎實工程或電機基礎。 2.	TOEFL iBT 85 (接受 Home Edition) 或 IELTS 6.0 或 全民英檢中高級。  或 3.	具法語檢定成績 B1(中級) 級以上,無,全學年2名。,Fall semester: end of August 2026 - end of January 2027；Spring semester: end of January 2027 - end of June 2027,須在本校註冊並繳交全額學雜費，免繳該校學費，但該校雜費、住宿費、生活費、保險費、往返機票費等均須自行負擔,Paris-Saclay Campus: Césal (€400 to €750 per month),交換學校一覽表所列之語言能力為該校之最低門檻要求，同學需自行確認語言能力是否符合該校修課要求、查詢是否有相對應的系所及足夠的課程可供選讀、能否達到該校之每學期修課學分數要求、以及是否具備相關領域之背景知識，若未達標準，該校有權拒收。,,49.1030194
601,巴黎西大學農泰爾拉德芳斯（巴黎第十大學）,University of Paris Ouest - Nanterre La Défense,法國,France,https://oia.ntu.edu.tw/outgoing/view/semester/1/sn/601,是,法語組,GPA 達3.30分以上,,本校大二/大三學生。 2.	GPA 達3.30分以上。 3.	具法語檢定成績 B1(中級) 級以上,,全學年4名。,Academic Calendar,須在本校註冊並繳交全額學雜費，免繳該校學費，但該校雜費、住宿費、生活費、保險費、往返機票費等均須自行負擔,,交換學校一覽表所列之語言能力為該校之最低門檻要求，同學需自行確認語言能力是否符合該校修課要求、查詢是否有相對應的系所及足夠的課程可供選讀、能否達到該校之每學期修課學分數要求、以及是否具備相關領域之背景知識，若未達標準，該校有權拒收。,,
101,法國女性高等綜合理工學院,,法國,France,https://oia.ntu.edu.tw/outgoing/view/semester/1/sn/101,是,法語組,,,本校大三/大四/碩一以上(不含博士生)學生。 2.	TOEFL iBT 79 (不接受 Home Edition) 或 IELTS 6.0 或 全民英檢中高級，僅具備英語能力證明者，請詳閱注意事項說明。  或 3.	具法語檢定成績 B1(中級) 級以上,,全學年4名。,Fall semester: Early September to Late January；Spring semester: Late January to Late of June,須在本校註冊並繳交全額學雜費，免繳該校學費，但該校雜費、住宿費、生活費、保險費、往返機票費等均須自行負擔,"EPF has agreements with student residences and provides assistance with the accommodation search and booking, however accommodation is not guaranteed.",交換學校一覽表所列之語言能力為該校之最低門檻要求，同學需自行確認語言能力是否符合該校修課要求、查詢是否有相對應的系所及足夠的課程可供選讀、能否達到該校之每學期修課學分數要求、以及是否具備相關領域之背景知識，若未達標準，該校有權拒收。,['交換學校一覽表所列之語言能力為該校之最低門檻要求，同學需自行確認語言能力是否符合該校修課要求、查詢是否有相對應的系所及足夠的課程可供選讀、能否達到該校之每學期修課學分數要求、以及是否具備相關領域之背景知識，若未達標準，該校有權拒收。'],
67,特魯瓦科技大學,University of Technology of Troyes (UTT),法國,France,https://oia.ntu.edu.tw/outgoing/view/semester/1/sn/67,是,法語組,,,本校大二以上/碩一以上(不含博士生)學生。 2.	TOEFL iBT 79 (接受 Home Edition) 或 IELTS 6.0 或 全民英檢中高級。  或 3.	具法語檢定成績 B1(中級) 級以上,無,全學年1名。,Academic Calendar,須在本校註冊並繳交全額學雜費，免繳該校學費，但該校雜費、住宿費、生活費、保險費、往返機票費等均須自行負擔,,交換學校一覽表所列之語言能力為該校之最低門檻要求，同學需自行確認語言能力是否符合該校修課要求、查詢是否有相對應的系所及足夠的課程可供選讀、能否達到該校之每學期修課學分數要求、以及是否具備相關領域之背景知識，若未達標準，該校有權拒收。,['交換學校一覽表所列之語言能力為該校之最低門檻要求，同學需自行確認語言能力是否符合該校修課要求、查詢是否有相對應的系所及足夠的課程可供選讀、能否達到該校之每學期修課學分數要求、以及是否具備相關領域之背景知識，若未達標準，該校有權拒收。'],48.269078
68,索邦大學（原皮耶及瑪麗居禮大學 ),Sorbonne University ( University Pierre and Marie CURIE ),法國,France,https://oia.ntu.edu.tw/outgoing/view/semester/1/sn/68,是,法語組,GPA 達3.00分以上,大二以上/碩一以上/博一以上學生,本校大二以上/碩一以上/博一以上學生。 2.	具法語檢定成績 B2(中高級) 級以上,,法語組 全學年2名。,Faculty of Lettres；Faculty of Science and Engineering,須在本校註冊並繳交全額學雜費，免繳該校學費，但該校雜費、住宿費、生活費、保險費、往返機票費等均須自行負擔,Other Highlight,交換學校一覽表所列之語言能力為該校之最低門檻要求，同學需自行確認語言能力是否符合該校修課要求、查詢是否有相對應的系所及足夠的課程可供選讀、能否達到該校之每學期修課學分數要求、以及是否具備相關領域之背景知識，若未達標準，該校有權拒收。,,48.8468997
66,巴黎高等政治學院,,法國,France,https://oia.ntu.edu.tw/outgoing/view/semester/1/sn/66,是,法語組,,大二以上/碩一以上/博一以上學生,本校大二以上/碩一以上/博一以上學生。 2.	學士生 TOEFL iBT 100 (接受 Home Edition) 或 IELTS 6.5； 研究生 TOEFL iBT 100 (接受 Home Edition) 或 IELTS 6.5；。  或 3.	學士生 具法語檢定成績 B2(中高級) 級以上，TCF 400；,無,全學年8名。,Academic Calendar,須在本校註冊並繳交全額學雜費，免繳該校學費，但該校雜費、住宿費、生活費、保險費、往返機票費等均須自行負擔,Other Highlight,交換學校一覽表所列之語言能力為該校之最低門檻要求，同學需自行確認語言能力是否符合該校修課要求、查詢是否有相對應系所及足夠的課程可供選讀、能否達到該校之每學期修課學分數要求、以及是否具備相關領域之背景知識，若未達標準，該校有權拒收。,,48.8538978
65,尚慕蘭里昂第三大學,University Jean Moulin - Lyon 3,法國,France,https://oia.ntu.edu.tw/outgoing/view/semester/1/sn/65,否,法語組,,大二以上/碩一以上/博一以上學生,"本校大二以上/碩一以上/博一以上學生。 2.	TOEFL iBT 80 (讀 20 聽 20 說 20 寫 20 不接受 Home Edition) 或 IELTS 6.5 (聽 6.0 讀 6.0 寫 6.0 說 6.0)。  或 3.	具法語檢定成績 B1(中級) 級以上，For law school B2, for information-communication class C1",,全學年2名。,Academic Calendar,須在本校註冊並繳交全額學雜費，免繳該校學費，但該校雜費、住宿費、生活費、保險費、往返機票費等均須自行負擔,,交換學校一覽表所列之語言能力為該校之最低門檻要求，同學需自行確認語言能力是否符合該校修課要求、查詢是否有相對應的系所及足夠的課程可供選讀、能否達到該校之每學期修課學分數要求、以及是否具備相關領域之背景知識，若未達標準，該校有權拒收。,,
63,科諾伯勒阿爾卑斯大學,University Grenoble Alpes (UGA),法國,France,https://oia.ntu.edu.tw/outgoing/view/semester/1/sn/63,否,法語組,,,本校大二以上/碩一以上(不含博士生)學生。 2.	TOEFL iBT 79 (接受 Home Edition) 或 IELTS 6.0 或 全民英檢中高級。  或 3.	具法語檢定成績 B2(中高級) 級以上,醫學院、公共衛生學院,全學年2名。,The academic calendar may be different depending on the host faculty.,須在本校註冊並繳交全額學雜費，免繳該校學費，但該校雜費、住宿費、生活費、保險費、往返機票費等均須自行負擔,Students who meet the deadlines will receive one offer of accommodation only from the International Students & Scholars Office (ISSO).,交換學校一覽表所列之語言能力為該校之最低門檻要求，同學需自行確認語言能力是否符合該校修課要求、查詢是否有相對應的系所及足夠的課程可供選讀、能否達到該校之每學期修課學分數要求、以及是否具備相關領域之背景知識，若未達標準，該校有權拒收。,['交換學校一覽表所列之語言能力為該校之最低門檻要求，同學需自行確認語言能力是否符合該校修課要求、查詢是否有相對應的系所及足夠的課程可供選讀、能否達到該校之每學期修課學分數要求、以及是否具備相關領域之背景知識，若未達標準，該校有權拒收。'],44.9253263
1289,哥廷根大學,Georg-August-University Göttingen,德國,Germany,https://oia.ntu.edu.tw/outgoing/view/semester/1/sn/1289,是,德語組,,,本校大二以上/碩一以上(不含博士生)學生。 2.	TOEFL iBT 79 (不接受 Home Edition) 或 IELTS 6.5 或 全民英檢中高級。  或 3.	具德語檢定成績 B2(中高級) 級以上,,全學年2名。,Winter term: lecture period from mid-October to beginning of February；Summer term: lecture period from mid-April to mid-July,須在本校註冊並繳交全額學雜費，免繳該校學費，但該校雜費、住宿費、生活費、保險費、往返機票費等均須自行負擔,,交換學校一覽表所列之語言能力為該校之最低門檻要求，同學需自行確認語言能力是否符合該校修課要求、查詢是否有相對應的系所及足夠的課程可供選讀、能否達到該校之每學期修課學分數要求、以及是否具備相關領域之背景知識，若未達標準，該校有權拒收。,['交換學校一覽表所列之語言能力為該校之最低門檻要求，同學需自行確認語言能力是否符合該校修課要求、查詢是否有相對應的系所及足夠的課程可供選讀、能否達到該校之每學期修課學分數要求、以及是否具備相關領域之背景知識，若未達標準，該校有權拒收。'],51.5592251
1286,德勒斯登工業大學,Dresden University of Technology (TUD),德國,Germany,https://oia.ntu.edu.tw/outgoing/view/semester/1/sn/1286,是,德語組,,,本校大三/大四/大五/碩一以上/博一以上學生。 2.	TOEFL iBT 90 (接受 Home Edition) 或 IELTS 6.5 或 全民英檢中高級，僅具備英語能力者，請詳閱注意事項。  或 3.	具德語檢定成績 B1(中級) 級以上,醫學院、公共衛生學院,全學年2名。,Academic Calendar,須在本校註冊並繳交全額學雜費，免繳該校學費，但該校雜費、住宿費、生活費、保險費、往返機票費等均須自行負擔,,交換學校一覽表所列之語言能力為該校之最低門檻要求，同學需自行確認語言能力是否符合該校修課要求、查詢是否有相對應的系所及足夠的課程可供選讀、能否達到該校之每學期修課學分數要求、以及是否具備相關領域之背景知識，若未達標準，該校有權拒收。,['交換學校一覽表所列之語言能力為該校之最低門檻要求，同學需自行確認語言能力是否符合該校修課要求、查詢是否有相對應的系所及足夠的課程可供選讀、能否達到該校之每學期修課學分數要求、以及是否具備相關領域之背景知識，若未達標準，該校有權拒收。'],51.0514402
1200,明斯特大學,University of Münster,德國,Germany,https://oia.ntu.edu.tw/outgoing/view/semester/1/sn/1200,是,德語組,,,本校大二以上/碩一以上(不含博士生)學生。 2.	TOEFL iBT 85 (不接受 Home Edition) 或 IELTS 6.0 或 全民英檢中高級，僅具備英語能力者，務必自行確認是否具備足夠英語授課課程。  或 3.	具德語檢定成績 B2(中高級) 級以上,,全學年1名。,Academic Calendar；Winter semester: 1. October 2026 – 31. March 2027,須在本校註冊並繳交全額學雜費，免繳該校學費，但該校雜費、住宿費、生活費、保險費、往返機票費等均須自行負擔,Other Highlight,交換學校一覽表所列之語言能力為該校之最低門檻要求，同學需自行確認語言能力是否符合該校修課要求、查詢是否有相對應的系所及足夠的課程可供選讀、能否達到該校之每學期修課學分數要求、以及是否具備相關領域之背景知識，若未達標準，該校有權拒收。,,51.9673422
141,達姆施塔特工業大學,Technical University of Darmstadt,德國,Germany,https://oia.ntu.edu.tw/outgoing/view/semester/1/sn/141,否,德語組,GPA 達3.30分以上,,本校大三/大四/大五/碩一以上(不含博士生)學生。 2.	GPA 達3.30分以上。 3.	TOEFL iBT 79 (不接受 Home Edition) 或 IELTS 6.0 或 全民英檢中高級。  或 4.	具德語檢定成績 B2(中高級) 級以上,理學院心理學系、理學院心理學研究所、法律學院,全學年3名。,"Academic Calendar；Winter semester: October to February (Orientation and language course in September, exams in February and March)",須在本校註冊並繳交全額學雜費，免繳該校學費，但該校雜費、住宿費、生活費、保險費、往返機票費等均須自行負擔,,交換學校一覽表所列之語言能力為該校之最低門檻要求，同學需自行確認語言能力是否符合該校修課要求、查詢是否有相對應的系所及足夠的課程可供選讀、能否達到該校之每學期修課學分數要求、以及是否具備相關領域之背景知識，若未達標準，該校有權拒收。,['交換學校一覽表所列之語言能力為該校之最低門檻要求，同學需自行確認語言能力是否符合該校修課要求、查詢是否有相對應的系所及足夠的課程可供選讀、能否達到該校之每學期修課學分數要求、以及是否具備相關領域之背景知識，若未達標準，該校有權拒收。'],
616,康斯坦茨大學,University of Konstanz,德國,Germany,https://oia.ntu.edu.tw/outgoing/view/semester/1/sn/616,否,德語組,GPA 達3.00分以上,,本校大二/大三/大四/碩一/碩二(不含博士生)學生。 2.	GPA 達3.00分以上。 3.	TOEFL iBT 79 (不接受 Home Edition) 或 IELTS 6.0 或 全民英檢中高級。  或 4.	具德語檢定成績 B2(中高級) 級以上,,全學年2名。,"Academic Calendar (Drop-down list ""Important dates"")",須在本校註冊並繳交全額學雜費，免繳該校學費，但該校雜費、住宿費、生活費、保險費、往返機票費等均須自行負擔,"Seezeit student services is the largest provider of student accommodation in Konstanz. The rooms are usually in single or double occupancy apartments as well as in shared flats (WGs = Wohngemeinschaft). Every student, however, receives their own personal room. The WGs are usually shared by male and female students. Due to the extremely high demand, the rooms are assigned by lottery. The application for the dormitory room is part of the application for an exchange place at the University of Konstanz and is completed together.",交換學校一覽表所列之語言能力為該校之最低門檻要求，同學需自行確認語言能力是否符合該校修課要求、查詢是否有相對應的系所及足夠的課程可供選讀、能否達到該校之每學期修課學分數要求、以及是否具備相關領域之背景知識，若未達標準，該校有權拒收。,,47.6899569
354,柏林洪堡大學,Humboldt-University Berlin,德國,Germany,https://oia.ntu.edu.tw/outgoing/view/semester/1/sn/354,否,德語組,GPA 達3.00分以上,,本校大二/大三/大四/碩一/碩二(不含博士生)學生。 2.	GPA 達3.00分以上。 3.	TOEFL iBT 80 (不接受 Home Edition) 或 IELTS 6.0。  或 4.	具德語檢定成績 B2(中高級) 級以上,醫學院、公共衛生學院、文學院歷史學研究所,全學年2名。,Academic Calendar,須在本校註冊並繳交全額學雜費，免繳該校學費，但該校雜費、住宿費、生活費、保險費、往返機票費等均須自行負擔,On-campus accommodation is NOT available.,交換學校一覽表所列之語言能力為該校之最低門檻要求，同學需自行確認語言能力是否符合該校修課要求、查詢是否有相對應的系所及足夠的課程可供選讀、能否達到該校之每學期修課學分數要求、以及是否具備相關領域之背景知識，若未達標準，該校有權拒收。,,52.5185794
893,斯圖加特大學,University of Stuttgart,德國,Germany,https://oia.ntu.edu.tw/outgoing/view/semester/1/sn/893,否,德語組,,,本校大二以上/碩一以上(不含博士生)學生。 2.	TOEFL iBT 79 (不接受 Home Edition) 或 IELTS 6.0，僅具備英語能力者，請詳閱注意事項。  或 3.	具德語檢定成績 B2(中高級) 級以上,,全學年4名。,"Academic Calendar；(Semester 1 = winter semester, Semester 2 = summer semester)",須在本校註冊並繳交全額學雜費，免繳該校學費，但該校雜費、住宿費、生活費、保險費、往返機票費等均須自行負擔,"According to the regulations of the Studierendenwerk, students are required to book a minimum rental period: either from Sept. 1/March 1 (students who attend the intensive German course) or from Oct. 1/April 1 (students who do not attend the intensive German course) until Feb. 28/Aug. 31 (students who will stay for one semester). Students who will stay for two semesters will receive a rental contract for 11-12 months. Other periods of rental agreements are not possible!",交換學校一覽表所列之語言能力為該校之最低門檻要求，同學需自行確認語言能力是否符合該校修課要求、查詢是否有相對應的系所及足夠的課程可供選讀、能否達到該校之每學期修課學分數要求、以及是否具備相關領域之背景知識，若未達標準，該校有權拒收。,,48.7133801
897,弗萊堡大學,University of Freiburg,德國,Germany,https://oia.ntu.edu.tw/outgoing/view/semester/1/sn/897,是,德語組,GPA 達3.00分以上,,本校大二以上/碩一以上(不含博士生)學生。 2.	GPA 達3.00分以上。 3.	TOEFL iBT 85 (不接受 Home Edition) 或 IELTS 6.0 或 全民英檢中高級，僅具備英語能力者，請詳閱注意事項。  或 4.	具德語檢定成績 B2(中高級) 級以上,醫學院、公共衛生學院、理學院心理學系、理學院心理學研究所,全學年1名。,Academic Calendar,須在本校註冊並繳交全額學雜費，免繳該校學費，但該校雜費、住宿費、生活費、保險費、往返機票費等均須自行負擔,,交換學校一覽表所列之語言能力為該校之最低門檻要求，同學需自行確認語言能力是否符合該校修課要求、查詢是否有相對應的系所及足夠的課程可供選讀、能否達到該校之每學期修課學分數要求、以及是否具備相關領域之背景知識，若未達標準，該校有權拒收。,,46.793058
98,魯耳波洪大學,Ruhr-University Bochum,德國,Germany,https://oia.ntu.edu.tw/outgoing/view/semester/1/sn/98,是,德語組,,大二以上/碩一以上/博一以上學生,本校大二以上/碩一以上/博一以上學生。 2.	TOEFL iBT 79 (不接受 Home Edition) 或 IELTS 6.0 或 全民英檢中高級，僅具備英語能力者，請詳閱注意事項。  或 3.	具德語檢定成績 B2(中高級) 級以上,,全學年4名。,Academic calendar,須在本校註冊並繳交全額學雜費，免繳該校學費，但該校雜費、住宿費、生活費、保險費、往返機票費等均須自行負擔,"The International Office offers a special service for exchange students. Students can apply for accommodation for the duration of their exchange (1-2 semesters). Since the International Office can only reserve a limited number of rooms for exchange students, early registration and flexibility is useful. Information on the accommodation application can be found here.",交換學校一覽表所列之語言能力為該校之最低門檻要求，同學需自行確認語言能力是否符合該校修課要求、查詢是否有相對應的系所及足夠的課程可供選讀、能否達到該校之每學期修課學分數要求、以及是否具備相關領域之背景知識，若未達標準，該校有權拒收。,,51.4441576
380,柏林工業大學,Technical University of Berlin,德國,Germany,https://oia.ntu.edu.tw/outgoing/view/semester/1/sn/380,否,德語組,,,本校大二以上/碩一以上(不含博士生)學生，該校不開放交換生選讀之領域請詳見下方一覽表。 2.	TOEFL iBT 87 (不接受 Home Edition) 或 IELTS 6.0 或 全民英檢中高級。  或 3.	具德語檢定成績 B2(中高級) 級以上,,全學年2名。,Academic Calendar,須在本校註冊並繳交全額學雜費，免繳該校學費，但該校雜費、住宿費、生活費、保險費、往返機票費等均須自行負擔,Other Highlight,交換學校一覽表所列之語言能力為該校之最低門檻要求，同學需自行確認語言能力是否符合該校修課要求、查詢是否有相對應的系所及足夠的課程可供選讀、能否達到該校之每學期修課學分數要求、以及是否具備相關領域之背景知識，若未達標準，該校有權拒收。,,
391,慕尼黑大學,Ludwig Maximilian University of Munich,德國,Germany,https://oia.ntu.edu.tw/outgoing/view/semester/1/sn/391,是,德語組,GPA 達3.30分以上,大二以上/碩一以上/博一以上學生,本校大二以上/碩一以上/博一以上學生。 2.	GPA 達3.30分以上。 3.	TOEFL iBT 90 (不接受 Home Edition) 或 IELTS 6.0。  或 4.	具德語檢定成績 B2(中高級) 級以上,醫學院、公共衛生學院、生物資源暨農學院獸醫學系、生物資源暨農學院獸醫學研究所、生物資源暨農學院臨床動物醫學研究所,全學年4名。,Academic Calendar,須在本校註冊並繳交全額學雜費，免繳該校學費，但該校雜費、住宿費、生活費、保險費、往返機票費等均須自行負擔,,交換學校一覽表所列之語言能力為該校之最低門檻要求，同學需自行確認語言能力是否符合該校修課要求、查詢是否有相對應的系所及足夠的課程可供選讀、能否達到該校之每學期修課學分數要求、以及是否具備相關領域之背景知識，若未達標準，該校有權拒收。,['交換學校一覽表所列之語言能力為該校之最低門檻要求，同學需自行確認語言能力是否符合該校修課要求、查詢是否有相對應的系所及足夠的課程可供選讀、能否達到該校之每學期修課學分數要求、以及是否具備相關領域之背景知識，若未達標準，該校有權拒收。'],48.1504757
595,曼漢姆大學,University of Mannheim,德國,Germany,https://oia.ntu.edu.tw/outgoing/view/semester/1/sn/595,否,德語組,,,本校大二以上/碩一以上(不含博士生)學生。 2.	TOEFL iBT 80 (接受 Home Edition) 或 IELTS 6.5 或 全民英檢中高級。  或 3.	具德語檢定成績 B2(中高級) 級以上,管理學院,一學期3名。,Academic Calendar,須在本校註冊並繳交全額學雜費，免繳該校學費，但該校雜費、住宿費、生活費、保險費、往返機票費等均須自行負擔,,交換學校一覽表所列之語言能力為該校之最低門檻要求，同學需自行確認語言能力是否符合該校修課要求、查詢是否有相對應的系所及足夠的課程可供選讀、能否達到該校之每學期修課學分數要求、以及是否具備相關領域之背景知識，若未達標準，該校有權拒收。,['交換學校一覽表所列之語言能力為該校之最低門檻要求，同學需自行確認語言能力是否符合該校修課要求、查詢是否有相對應的系所及足夠的課程可供選讀、能否達到該校之每學期修課學分數要求、以及是否具備相關領域之背景知識，若未達標準，該校有權拒收。'],49.483885
99,漢堡大學,University of Hamburg,德國,Germany,https://oia.ntu.edu.tw/outgoing/view/semester/1/sn/99,是,德語組,,大二以上/碩一以上/博一以上學生,本校大二以上/碩一以上/博一以上學生。 2.	TOEFL iBT 85 (接受 Home Edition) 或 IELTS 6.0 或 全民英檢中高級。  或 3.	具德語檢定成績 B1(中級) 級以上,醫學院牙醫學系、醫學院藥學系、醫學院臨床牙醫學研究所、醫學院藥學研究所,全學年5名。,Academic Calendar,須在本校註冊並繳交全額學雜費，免繳該校學費，但該校雜費、住宿費、生活費、保險費、往返機票費等均須自行負擔,,交換學校一覽表所列之語言能力為該校之最低門檻要求，同學需自行確認語言能力是否符合該校修課要求、查詢是否有相對應的系所及足夠的課程可供選讀、能否達到該校之每學期修課學分數要求、以及是否具備相關領域之背景知識，若未達標準，該校有權拒收。,,53.564106
247,亞亨工業大學,RWTH Aachen University,德國,Germany,https://oia.ntu.edu.tw/outgoing/view/semester/1/sn/247,是,德語組,,大二以上/碩一以上/博一以上學生,"本校大二以上/碩一以上/博一以上學生。 2.	TOEFL iBT 79 (不接受 Home Edition) 或 IELTS 6.0 或 全民英檢中高級。  或 3.	具德語檢定成績 B1(中級) 級以上，In ""Earth Sciences and Geography"" and ""Medicine"" German of at least B2.1",,全學年4名。,Academic Calendar,須在本校註冊並繳交全額學雜費，免繳該校學費，但該校雜費、住宿費、生活費、保險費、往返機票費等均須自行負擔,Not guaranteed. A limited number of quota rooms in student dorms are available for exchange students (application details will be provided). More information here.,交換學校一覽表所列之語言能力為該校之最低門檻要求，同學需自行確認語言能力是否符合該校修課要求、查詢是否有相對應的系所及足夠的課程可供選讀、能否達到該校之每學期修課學分數要求、以及是否具備相關領域之背景知識，若未達標準，該校有權拒收。,,50.7791657
292,慕尼黑工業大學,Technical University of Munich,德國,Germany,https://oia.ntu.edu.tw/outgoing/view/semester/1/sn/292,否,德語組,,,本校大二以上/碩一以上(不含博士生)學生，建議理、工、電資學院同學選填。 2.	TOEFL iBT 79 (不接受 Home Edition) 或 IELTS 6.0。  或 3.	具德語檢定成績 B1(中級) 級以上，At least CEFR B1 / B2 level - required level depends on TUM School / discipline,,全學年7名。,Academic Calendar；Winter semester: October 1 – March 31,須在本校註冊並繳交全額學雜費，免繳該校學費，但該校雜費、住宿費、生活費、保險費、往返機票費等均須自行負擔,The TUM Global Office receives a limited number of dormitory offerings (Service Package) from Munich Student Union. Students wishing to be considered for this Service Package must check the relevant box in the application form.,交換學校一覽表所列之語言能力為該校之最低門檻要求，同學需自行確認語言能力是否符合該校修課要求、查詢是否有相對應系所及足夠的課程可供選讀、能否達到該校之每學期修課學分數要求、以及是否具備相關領域之背景知識，若未達標準，該校有權拒收。,,48.2654976
75,杜賓根大學,University of Tübingen,德國,Germany,https://oia.ntu.edu.tw/outgoing/view/semester/1/sn/75,否,德語組,,,本校大二以上/碩一以上(不含博士生)學生。 2.	TOEFL iBT 92 (接受 Home Edition) 或 IELTS 6.5 或 全民英檢中高級，僅具備英語能力者，詳見下方注意事項。  或 3.	具德語檢定成績 B2(中高級) 級以上,無,全學年3名。,Academic Calendar,須在本校註冊並繳交全額學雜費，免繳該校學費，但該校雜費、住宿費、生活費、保險費、往返機票費等均須自行負擔,The University of Tübingen has a yearly quota of rooms that are reserved solely for exchange students. More info: Accomodation. Please see for details of the dormitories the Overview of residence halls by the Studierendenwerk.,交換學校一覽表所列之語言能力為該校之最低門檻要求，同學需自行確認語言能力是否符合該校修課要求、查詢是否有相對應的系所及足夠的課程可供選讀、能否達到該校之每學期修課學分數要求、以及是否具備相關領域之背景知識，若未達標準，該校有權拒收。,,48.5340595
76,烏爾姆大學,Ulm University,德國,Germany,https://oia.ntu.edu.tw/outgoing/view/semester/1/sn/76,是,德語組,,,本校大二以上/碩一以上(不含博士生)學生。 2.	TOEFL iBT 79 (不接受 Home Edition) 或 IELTS 6.0 或 全民英檢中高級，僅具備英語能力者，請詳閱注意事項。  或 3.	具德語檢定成績 B2(中高級) 級以上,醫學院、公共衛生學院,全學年1名。,Academic Calendar,須在本校註冊並繳交全額學雜費，免繳該校學費，但該校雜費、住宿費、生活費、保險費、往返機票費等均須自行負擔,Other Highlight,交換學校一覽表所列之語言能力為該校之最低門檻要求，同學需自行確認語言能力是否符合該校修課要求、查詢是否有相對應的系所及足夠的課程可供選讀、能否達到該校之每學期修課學分數要求、以及是否具備相關領域之背景知識，若未達標準，該校有權拒收。,['交換學校一覽表所列之語言能力為該校之最低門檻要求，同學需自行確認語言能力是否符合該校修課要求、查詢是否有相對應的系所及足夠的課程可供選讀、能否達到該校之每學期修課學分數要求、以及是否具備相關領域之背景知識，若未達標準，該校有權拒收。'],48.4086307
71,波昂大學,University of Bonn,德國,Germany,https://oia.ntu.edu.tw/outgoing/view/semester/1/sn/71,否,德語組,GPA 達3.30分以上,,本校大二以上/碩一以上(不含博士生)學生。 2.	GPA 達3.30分以上。 3.	TOEFL iBT 85 (接受 Home Edition) 或 IELTS 6.5 或 全民英檢中高級，僅具備英語能力者，請詳閱注意事項。  或 4.	具德語檢定成績 B2(中高級) 級以上,醫學院、公共衛生學院,全學年1名。,Academic Calendar,須在本校註冊並繳交全額學雜費，免繳該校學費，但該校雜費、住宿費、生活費、保險費、往返機票費等均須自行負擔,Students can apply for a room in a dorm owned by the Studierendenwerk Bonn via the online application page. The rental contract will be emailed to the student and will need to be signed around 6 weeks before they arrive.,交換學校一覽表所列之語言能力為該校之最低門檻要求，同學需自行確認語言能力是否符合該校修課要求、查詢是否有相對應的系所及足夠的課程可供選讀、能否達到該校之每學期修課學分數要求、以及是否具備相關領域之背景知識，若未達標準，該校有權拒收。,,50.7338124
72,卡爾斯魯爾理工學院,,德國,Germany,https://oia.ntu.edu.tw/outgoing/view/semester/1/sn/72,否,德語組,,,本校大二以上/碩一以上(不含博士生)學生，建議理、工、電資領域同學申請。 2.	TOEFL iBT 79 (不接受 Home Edition) 或 IELTS 6.0 或 全民英檢中高級。  或 3.	具德語檢定成績 B1(中級) 級以上，僅具備英語能力者請詳閱下方注意事項,,全學年5名。（可選擇一學期或一學年，限於本校第1學期出國交換）,Academic Calendar,須在本校註冊並繳交全額學雜費，免繳該校學費，但該校雜費、住宿費、生活費、保險費、往返機票費等均須自行負擔,Other Highlight,交換學校一覽表所列之語言能力為該校之最低門檻要求，同學需自行確認語言能力是否符合該校修課要求、查詢是否有相對應的系所及足夠的課程可供選讀、能否達到該校之每學期修課學分數要求、以及是否具備相關領域之背景知識，若未達標準，該校有權拒收。,,49.1018534
73,艾朗根紐倫堡大學,Friedrich-Alexander - University Erlangen-Nurnberg,德國,Germany,https://oia.ntu.edu.tw/outgoing/view/semester/1/sn/73,是,德語組,,,本校大二以上/碩一以上(不含博士生)學生。 2.	TOEFL iBT 87 (不接受 Home Edition) 或 IELTS 6.0 或 全民英檢中高級，僅具備英語能力者，請詳閱注意事項。  或 3.	具德語檢定成績 B2(中高級) 級以上,社會科學院經濟學系、社會科學院經濟學研究所、醫學院、管理學院、公共衛生學院、法律學院、理學院心理學系、理學院心理學研究所,德語組 全學年1名。,Academic Calendar,須在本校註冊並繳交全額學雜費，免繳該校學費，但該校雜費、住宿費、生活費、保險費、往返機票費等均須自行負擔,,交換學校一覽表所列之語言能力為該校之最低門檻要求，同學需自行確認語言能力是否符合該校修課要求、查詢是否有相對應的系所及足夠的課程可供選讀、能否達到該校之每學期修課學分數要求、以及是否具備相關領域之背景知識，若未達標準，該校有權拒收。,,
74,多特蒙德工業大學,TU Dortmund University,德國,Germany,https://oia.ntu.edu.tw/outgoing/view/semester/1/sn/74,是,德語組,,,本校大二以上/碩一以上(不含博士生)學生。 2.	TOEFL iBT 79 (接受 Home Edition) 或 IELTS 6.0 或 全民英檢中高級，僅具備英語能力者，務必自行確認是否有足夠英語授課課程。  或 3.	具德語檢定成績 B2(中高級) 級以上,,全學年2名。,Academic Calendar,須在本校註冊並繳交全額學雜費，免繳該校學費，但該校雜費、住宿費、生活費、保險費、往返機票費等均須自行負擔,校園導覽,交換學校一覽表所列之語言能力為該校之最低門檻要求，同學需自行確認語言能力是否符合該校修課要求、查詢是否有相對應的系所及足夠的課程可供選讀、能否達到該校之每學期修課學分數要求、以及是否具備相關領域之背景知識，若未達標準，該校有權拒收。,,51.4914844
70,海德堡大學,Heidelberg University,德國,Germany,https://oia.ntu.edu.tw/outgoing/view/semester/1/sn/70,是,德語組,GPA 達3.30分以上,,本校大二以上/碩一以上(不含博士生)學生。 2.	GPA 達3.30分以上。 3.	TOEFL iBT 80 (不接受 Home Edition) 或 IELTS 6.0，僅具備英語能力者，請詳閱注意事項。  或 4.	具德語檢定成績 B2(中高級) 級以上,醫學院、公共衛生學院、管理學院、生物資源暨農學院,全學年2名。,Academic Calendar,須在本校註冊並繳交全額學雜費，免繳該校學費，但該校雜費、住宿費、生活費、保險費、往返機票費等均須自行負擔,,交換學校一覽表所列之語言能力為該校之最低門檻要求，同學需自行確認語言能力是否符合該校修課要求、查詢是否有相對應的系所及足夠的課程可供選讀、能否達到該校之每學期修課學分數要求、以及是否具備相關領域之背景知識，若未達標準，該校有權拒收。,,49.4186003
69,柏林自由大學,Free University of Berlin,德國,Germany,https://oia.ntu.edu.tw/outgoing/view/semester/1/sn/69,否,德語組,,大二以上/碩一以上/博一以上學生,本校大二以上/碩一以上/博一以上學生。 2.	TOEFL iBT 90 (不接受 Home Edition) 或 IELTS 6.5，僅具備英語能力者，請詳閱注意事項。  或 3.	具德語檢定成績 B2(中高級) 級以上,醫學院、生物資源暨農學院獸醫學系、生物資源暨農學院獸醫學研究所,全學年1名。,Academic Calendar,須在本校註冊並繳交全額學雜費，免繳該校學費，但該校雜費、住宿費、生活費、保險費、往返機票費等均須自行負擔,*根據歷屆交換生指出，FU有三種宿舍房型，有兩種是簽六個月的合約，另一種則是可以直接簽到一年的。若選擇前兩者，第二學期將無法直接從住宿組登記到宿舍，請往後欲申請宿舍的同學特別留意。,交換學校一覽表所列之語言能力為該校之最低門檻要求，同學需自行確認語言能力是否符合該校修課要求、查詢是否有相對應的系所及足夠的課程可供選讀、能否達到該校之每學期修課學分數要求、以及是否具備相關領域之背景知識，若未達標準，該校有權拒收。,"[' shared flats and fully furnished single apartments.', '交換學校一覽表所列之語言能力為該校之最低門檻要求，同學需自行確認語言能力是否符合該校修課要求、查詢是否有相對應的系所及足夠的課程可供選讀、能否達到該校之每學期修課學分數要求、以及是否具備相關領域之背景知識，若未達標準，該校有權拒收。']",
1287,雅典大學,National and Kapodistrian University of Athens,希臘,Greece,https://oia.ntu.edu.tw/outgoing/view/semester/1/sn/1287,是,一般組,GPA 達3.50分以上,大二以上(僅限大學部)學生,,,全學年2名。,Academic Calendar,須在本校註冊並繳交全額學雜費，免繳該校學費，但該校雜費、住宿費、生活費、保險費、往返機票費等均須自行負擔,,交換學校一覽表所列之語言能力為該校之最低門檻要求，同學需自行確認語言能力是否符合該校修課要求、查詢是否有相對應的系所及足夠的課程可供選讀、能否達到該校之每學期修課學分數要求、以及是否具備相關領域之背景知識，若未達標準，該校有權拒收。,['交換學校一覽表所列之語言能力為該校之最低門檻要求，同學需自行確認語言能力是否符合該校修課要求、查詢是否有相對應的系所及足夠的課程可供選讀、能否達到該校之每學期修課學分數要求、以及是否具備相關領域之背景知識，若未達標準，該校有權拒收。'],37.970038
1203,布達佩斯考文紐斯大學,Corvinus University of Budapest,匈牙利,Hungary,https://oia.ntu.edu.tw/outgoing/view/semester/1/sn/1203,是,一般組,,大二以上/碩一以上/博一以上學生,,,全學年1名。,Academic Calendar,須在本校註冊並繳交全額學雜費，免繳該校學費，但該校雜費、住宿費、生活費、保險費、往返機票費等均須自行負擔,"While Corvinus University cannot offer on-campus (dormitory) accommodation, we do have a selected number of places that offer dormitory-like accommodation (checked by Corvinus staff members) at similar prices. Information on these will be sent out to all incoming students after the preliminary course registration period, well before their date of arrival. Information on what to keep in mind and check if arranging for accommodation individually will also be sent out to students.",交換學校一覽表所列之語言能力為該校之最低門檻要求，同學需自行確認語言能力是否符合該校修課要求、查詢是否有相對應的系所及足夠的課程可供選讀、能否達到該校之每學期修課學分數要求、以及是否具備相關領域之背景知識，若未達標準，該校有權拒收。,['交換學校一覽表所列之語言能力為該校之最低門檻要求，同學需自行確認語言能力是否符合該校修課要求、查詢是否有相對應的系所及足夠的課程可供選讀、能否達到該校之每學期修課學分數要求、以及是否具備相關領域之背景知識，若未達標準，該校有權拒收。'],47.4862802
1204,布達佩斯科技經濟大學,Budapest University of Technology and Economics,匈牙利,Hungary,https://oia.ntu.edu.tw/outgoing/view/semester/1/sn/1204,否,一般組,GPA 達3.00分以上,,,,一學期1名。,Academic Calendar,須在本校註冊並繳交全額學雜費，免繳該校學費，但該校雜費、住宿費、生活費、保險費、往返機票費等均須自行負擔,Other Highlight,交換學校一覽表所列之語言能力為該校之最低門檻要求，同學需自行確認語言能力是否符合該校修課要求、查詢是否有相對應的系所及足夠的課程可供選讀、能否達到該校之每學期修課學分數要求、以及是否具備相關領域之背景知識，若未達標準，該校有權拒收。,,47.4784413
324,羅蘭大學,Eötvös Loránd University,匈牙利,Hungary,https://oia.ntu.edu.tw/outgoing/view/semester/1/sn/324,否,一般組,,大二以上/碩一以上/博一以上學生,,,全學年1名。,Academic Calendar,須在本校註冊並繳交全額學雜費，免繳該校學費，但該校雜費、住宿費、生活費、保險費、往返機票費等均須自行負擔,Students can apply for dormitory places or arrange their accommodation privately. Bilateral exchange students usually got a place in our dormitory. Dormitory fee in 2-beded room: approx. HUF 70000 per month. Check this webpage.,交換學校一覽表所列之語言能力為該校之最低門檻要求，同學需自行確認語言能力是否符合該校修課要求、查詢是否有相對應的系所及足夠的課程可供選讀、能否達到該校之每學期修課學分數要求、以及是否具備相關領域之背景知識，若未達標準，該校有權拒收。,,47.4934799
374,冰島大學,University of Iceland,冰島,Iceland,https://oia.ntu.edu.tw/outgoing/view/semester/1/sn/374,否,一般組,,大二以上/碩一以上/博一以上學生,,法律學院法律學系、社會科學院經濟學系、管理學院管理學院企業管理碩士專班、理學院心理學系、理學院心理學研究所、醫學院、公共衛生學院,全學年1名。,Academic Calendar,須在本校註冊並繳交全額學雜費，免繳該校學費，但該校雜費、住宿費、生活費、保險費、往返機票費等均須自行負擔,Other Highlight,交換學校一覽表所列之語言能力為該校之最低門檻要求，同學需自行確認語言能力是否符合該校修課要求、查詢是否有相對應的系所及足夠的課程可供選讀、能否達到該校之每學期修課學分數要求、以及是否具備相關領域之背景知識，若未達標準，該校有權拒收,,64.1401831
1295,米蘭理工大學,,義大利,Italy,https://oia.ntu.edu.tw/outgoing/view/semester/1/sn/1295,是,一般組,,,,,一學期2名。（限於本校第一學期出國交換）,Academic Calendar,須在本校註冊並繳交全額學雜費，免繳該校學費，但該校雜費、住宿費、生活費、保險費、往返機票費等均須自行負擔,簽證注意事項,交換學校一覽表所列之語言能力為該校之最低門檻要求，同學需自行確認語言能力是否符合該校修課要求、查詢是否有相對應的系所及足夠的課程可供選讀、能否達到該校之每學期修課學分數要求、以及是否具備相關領域之背景知識，若未達標準，該校有權拒收。,,45.0482825
1051,聖心天主教大學,Catholic University of the Sacred Heart,義大利,Italy,https://oia.ntu.edu.tw/outgoing/view/semester/1/sn/1051,是,一般組,GPA 達2.70分以上,,,,全學年1名。,Academic Calendar,須在本校註冊並繳交全額學雜費，免繳該校學費，但該校雜費、住宿費、生活費、保險費、往返機票費等均須自行負擔,簽證注意事項,交換學校一覽表所列之語言能力為該校之最低門檻要求，同學需自行確認語言能力是否符合該校修課要求、查詢是否有相對應的系所及足夠的課程可供選讀、能否達到該校之每學期修課學分數要求、以及是否具備相關領域之背景知識，若未達標準，該校有權拒收。,,
1039,波隆納大學,University of Bologna (UNIBO),義大利,Italy,https://oia.ntu.edu.tw/outgoing/view/semester/1/sn/1039,否,一般組,,,,醫學院、公共衛生學院,全學年2名。,Academic Calendar；(Calendar may vary for each School),須在本校註冊並繳交全額學雜費，免繳該校學費，但該校雜費、住宿費、生活費、保險費、往返機票費等均須自行負擔,"If you have difficulties in finding accommodation, please get in touch with our SIAS system (support in finding accommodation for foreign students) early in the application process to ask for their support.",交換學校一覽表所列之語言能力為該校之最低門檻要求，同學需自行確認語言能力是否符合該校修課要求、查詢是否有相對應的系所及足夠的課程可供選讀、能否達到該校之每學期修課學分數要求、以及是否具備相關領域之背景知識，若未達標準，該校有權拒收。,,44.4352269
535,拉脫維亞大學,University of Latvia,拉脫維亞,Latvia,https://oia.ntu.edu.tw/outgoing/view/semester/1/sn/535,否,一般組,GPA 達3.00分以上,,,工學院,全學年1名。,Academic Calendar,須在本校註冊並繳交全額學雜費，免繳該校學費，但該校雜費、住宿費、生活費、保險費、往返機票費等均須自行負擔,,交換學校一覽表所列之語言能力為該校之最低門檻要求，同學需自行確認語言能力是否符合該校修課要求、查詢是否有相對應的系所及足夠的課程可供選讀、能否達到該校之每學期修課學分數要求、以及是否具備相關領域之背景知識，若未達標準，該校有權拒收。,,56.950744
989,考納斯理工大學,Kaunas University of Technology,立陶宛,Lithuania,https://oia.ntu.edu.tw/outgoing/view/semester/1/sn/989,否,一般組,,,,,全學年1名。,Academic Calendar,須在本校註冊並繳交全額學雜費，免繳該校學費，但該校雜費、住宿費、生活費、保險費、往返機票費等均須自行負擔,,交換學校一覽表所列之語言能力為該校之最低門檻要求，同學需自行確認語言能力是否符合該校修課要求、查詢是否有相對應的系所及足夠的課程可供選讀、能否達到該校之每學期修課學分數要求、以及是否具備相關領域之背景知識，若未達標準，該校有權拒收。,['交換學校一覽表所列之語言能力為該校之最低門檻要求，同學需自行確認語言能力是否符合該校修課要求、查詢是否有相對應的系所及足夠的課程可供選讀、能否達到該校之每學期修課學分數要求、以及是否具備相關領域之背景知識，若未達標準，該校有權拒收。'],54.8988052
1040,維爾紐斯大學,Vilnius University,立陶宛,Lithuania,https://oia.ntu.edu.tw/outgoing/view/semester/1/sn/1040,是,一般組,,大二以上/碩一以上/博一以上學生,,,全學年2名。,Academic Calendar,須在本校註冊並繳交全額學雜費，免繳該校學費，但該校雜費、住宿費、生活費、保險費、往返機票費等均須自行負擔,Other Highlight,交換學校一覽表所列之語言能力為該校之最低門檻要求，同學需自行確認語言能力是否符合該校修課要求、查詢是否有相對應的系所及足夠的課程可供選讀、能否達到該校之每學期修課學分數要求、以及是否具備相關領域之背景知識，若未達標準，該校有權拒收。,['交換學校一覽表所列之語言能力為該校之最低門檻要求，同學需自行確認語言能力是否符合該校修課要求、查詢是否有相對應的系所及足夠的課程可供選讀、能否達到該校之每學期修課學分數要求、以及是否具備相關領域之背景知識，若未達標準，該校有權拒收。'],54.682847
1100,盧森堡大學,University of Luxembourg,盧森堡,Luxembourg,https://oia.ntu.edu.tw/outgoing/view/semester/1/sn/1100,是,法語組,,大二以上/碩一以上/博一以上學生,本校大二以上/碩一以上/博一以上學生。 2.	TOEFL iBT 88 (讀 22 聽 22 說 22 寫 22 接受 Home Edition) 或 IELTS 7.0 或 全民英檢中高級。  或 3.	具法語檢定成績 B2(中高級) 級以上，C1 is required to apply for Cultures Européennes - French Studies,,法語組 全學年1名。,Academic Calendar,須在本校註冊並繳交全額學雜費，免繳該校學費，但該校雜費、住宿費、生活費、保險費、往返機票費等均須自行負擔。,,交換學校一覽表所列之語言能力為該校之最低門檻要求，同學需自行確認語言能力是否符合該校修課要求、查詢是否有相對應的系所及足夠的課程可供選讀、能否達到該校之每學期修課學分數要求、以及是否具備相關領域之背景知識，若未達標準，該校有權拒收。,['交換學校一覽表所列之語言能力為該校之最低門檻要求，同學需自行確認語言能力是否符合該校修課要求、查詢是否有相對應的系所及足夠的課程可供選讀、能否達到該校之每學期修課學分數要求、以及是否具備相關領域之背景知識，若未達標準，該校有權拒收。'],49.5036259
1092,奈梅亨大學,Radboud University Nijmegen,荷蘭,Netherlands,https://oia.ntu.edu.tw/outgoing/view/semester/1/sn/1092,否,一般組,,,,,一學期1名。,Academic Calendar,須在本校註冊並繳交全額學雜費，免繳該校學費，但該校雜費、住宿費、生活費、保險費、往返機票費等均須自行負擔,Other Highlight,交換學校一覽表所列之語言能力為該校之最低門檻要求，同學需自行確認語言能力是否符合該校修課要求、查詢是否有相對應的系所及足夠的課程可供選讀、能否達到該校之每學期修課學分數要求、以及是否具備相關領域之背景知識，若未達標準，該校有權拒收。,['交換學校一覽表所列之語言能力為該校之最低門檻要求，同學需自行確認語言能力是否符合該校修課要求、查詢是否有相對應的系所及足夠的課程可供選讀、能否達到該校之每學期修課學分數要求、以及是否具備相關領域之背景知識，若未達標準，該校有權拒收。'],51.8215172
187,阿姆斯特丹自由大學,VU University Amsterdam,荷蘭,Netherlands,https://oia.ntu.edu.tw/outgoing/view/semester/1/sn/187,否,一般組,,大二以上(僅限大學部)學生,,醫學院牙醫學系,全學年2名。,2025-2026；Semester 1: 01/09/2025-31/01/2026,須在本校註冊並繳交全額學雜費，免繳該校學費，但該校雜費、住宿費、生活費、保險費、往返機票費等均須自行負擔,"After they have applied for the exchange programme, students can apply for accommodation through the International Office. A handling fee of €250 per semester is required for this service. Students will be informed about the procedure after uploading their application package.",交換學校一覽表所列之語言能力為該校之最低門檻要求，同學需自行確認語言能力是否符合該校修課要求、查詢是否有相對應的系所及足夠的課程可供選讀、能否達到該校之每學期修課學分數要求、以及是否具備相關領域之背景知識，若未達標準，該校有權拒收。,,52.3340539
81,馬斯垂克大學,Maastricht University,荷蘭,Netherlands,https://oia.ntu.edu.tw/outgoing/view/semester/1/sn/81,否,一般組,GPA 達3.70分以上,大二以上(僅限大學部)學生,,,一般組 全學年4名。,Academic Calendar (2024/2025): SBE / FPN / UCM,須在本校註冊並繳交全額學雜費，免繳該校學費，但該校雜費、住宿費、生活費、保險費、往返機票費等均須自行負擔,,交換學校一覽表所列之語言能力為該校之最低門檻要求，同學需自行確認語言能力是否符合該校修課要求、查詢是否有相對應的系所及足夠的課程可供選讀、能否達到該校之每學期修課學分數要求、以及是否具備相關領域之背景知識，若未達標準，該校有權拒收。,,50.8472117
79,葛洛寧恩大學,University of Groningen,荷蘭,Netherlands,https://oia.ntu.edu.tw/outgoing/view/semester/1/sn/79,是,一般組,GPA 達3.00分以上,,,,一般組 全學年5名。,Academic Calendar,須在本校註冊並繳交全額學雜費，免繳該校學費，但該校雜費、住宿費、生活費、保險費、往返機票費等均須自行負擔,Other Highlight,交換學校一覽表所列之語言能力為該校之最低門檻要求，同學需自行確認語言能力是否符合該校修課要求、查詢是否有相對應系所及足夠的課程可供選讀、能否達到該校之每學期修課學分數要求、以及是否具備相關領域之背景知識，若未達標準，該校有權拒收。,['交換學校一覽表所列之語言能力為該校之最低門檻要求，同學需自行確認語言能力是否符合該校修課要求、查詢是否有相對應系所及足夠的課程可供選讀、能否達到該校之每學期修課學分數要求、以及是否具備相關領域之背景知識，若未達標準，該校有權拒收。'],53.2194416
80,烏特列茲大學,Utrecht University,荷蘭,Netherlands,https://oia.ntu.edu.tw/outgoing/view/semester/1/sn/80,否,一般組,,,,醫學院、公共衛生學院、生物資源暨農學院獸醫學系、生物資源暨農學院獸醫學研究所、生物資源暨農學院臨床動物醫學研究所,全學年3名。,Academic Calendar,須在本校註冊並繳交全額學雜費，免繳該校學費，但該校雜費、住宿費、生活費、保險費、往返機票費等均須自行負擔,,交換學校一覽表所列之語言能力為該校之最低門檻要求，同學需自行確認語言能力是否符合該校修課要求、查詢是否有相對應的系所及足夠的課程可供選讀、能否達到該校之每學期修課學分數要求、以及是否具備相關領域之背景知識，若未達標準，該校有權拒收。,['交換學校一覽表所列之語言能力為該校之最低門檻要求，同學需自行確認語言能力是否符合該校修課要求、查詢是否有相對應的系所及足夠的課程可供選讀、能否達到該校之每學期修課學分數要求、以及是否具備相關領域之背景知識，若未達標準，該校有權拒收。'],52.1592134
78,萊頓大學,Leiden University,荷蘭,Netherlands,https://oia.ntu.edu.tw/outgoing/view/semester/1/sn/78,是,一般組,GPA 達3.50分以上,,,,全學年4名。,Academic calendar,須在本校註冊並繳交全額學雜費，免繳該校學費，但該校雜費、住宿費、生活費、保險費、往返機票費等均須自行負擔。,,交換學校一覽表所列之語言能力為該校之最低門檻要求，同學需自行確認語言能力是否符合該校修課要求、查詢是否有相對應的系所及足夠的課程可供選讀、能否達到該校之每學期修課學分數要求、以及是否具備相關領域之背景知識，若未達標準，該校有權拒收。,['交換學校一覽表所列之語言能力為該校之最低門檻要求，同學需自行確認語言能力是否符合該校修課要求、查詢是否有相對應的系所及足夠的課程可供選讀、能否達到該校之每學期修課學分數要求、以及是否具備相關領域之背景知識，若未達標準，該校有權拒收。'],52.1686355
82,奧斯陸大學,University of Oslo,挪威,Norway,https://oia.ntu.edu.tw/outgoing/view/semester/1/sn/82,否,一般組,,,,醫學院、公共衛生學院,全學年1名。,Academic Calendar,須在本校註冊並繳交全額學雜費，免繳該校學費，但該校雜費、住宿費、生活費、保險費、往返機票費等均須自行負擔,"The University of Oslo guarantees accommodation in the Student Welfare Organization (SIO)'s student villages, provided they apply by the given deadline. More information here.",交換學校一覽表所列之語言能力為該校之最低門檻要求，同學需自行確認語言能力是否符合該校修課要求、查詢是否有相對應的系所及足夠的課程可供選讀、能否達到該校之每學期修課學分數要求、以及是否具備相關領域之背景知識，若未達標準，該校有權拒收。,['交換學校一覽表所列之語言能力為該校之最低門檻要求，同學需自行確認語言能力是否符合該校修課要求、查詢是否有相對應的系所及足夠的課程可供選讀、能否達到該校之每學期修課學分數要求、以及是否具備相關領域之背景知識，若未達標準，該校有權拒收。'],59.9414173
1206,華沙理工大學,Warsaw University of Technology,波蘭,Poland,https://oia.ntu.edu.tw/outgoing/view/semester/1/sn/1206,是,一般組,,大二以上/碩一以上/博一以上學生,,無,全學年2名。,Academic Calendar,須在本校註冊並繳交全額學雜費，免繳該校學費，但該校雜費、住宿費、生活費、保險費、往返機票費等均須自行負擔,Candidates will be able to apply for dormitory. They will have to submit their applications through Online Accommodation System. Detailed information will be sent directly to candidates.,交換學校一覽表所列之語言能力為該校之最低門檻要求，同學需自行確認語言能力是否符合該校修課要求、查詢是否有相對應的系所及足夠的課程可供選讀、能否達到該校之每學期修課學分數要求、以及是否具備相關領域之背景知識，若未達標準，該校有權拒收。,,52.2216394
1042,華沙大學,University of Warsaw,波蘭,Poland,https://oia.ntu.edu.tw/outgoing/view/semester/1/sn/1042,否,一般組,,大二以上/碩一以上/博一以上學生,,工學院,全學年2名。,Academic Calendar,須在本校註冊並繳交全額學雜費，免繳該校學費，但該校雜費、住宿費、生活費、保險費、往返機票費等均須自行負擔,A limited number of places available at dormitories for exchange students. The majority of places are in double rooms with a shared bathroom and kitchen.,交換學校一覽表所列之語言能力為該校之最低門檻要求，同學需自行確認語言能力是否符合該校修課要求、查詢是否有相對應的系所及足夠的課程可供選讀、能否達到該校之每學期修課學分數要求、以及是否具備相關領域之背景知識，若未達標準，該校有權拒收。,,52.2216394
388,波爾圖大學,University of Porto,葡萄牙,Portugal,https://oia.ntu.edu.tw/outgoing/view/semester/1/sn/388,是,一般組,GPA 達3.50分以上,大二以上(僅限大學部)學生,本校大二以上(僅限大學部)學生。 2.	GPA 達3.50分以上。 3.	具葡萄牙語能力證明 ，A2以上檢定證書或本校修讀葡語4個學期以上成績及格證明,,全學年1名。,Academic Calendar,須在本校註冊並繳交全額學雜費，免繳該校學費，但該校雜費、住宿費、生活費、保險費、往返機票費等均須自行負擔,Other Highlight,交換學校一覽表所列之語言能力為該校之最低門檻要求，同學需自行確認語言能力是否符合該校修課要求、查詢是否有相對應的系所及足夠的課程可供選讀、能否達到該校之每學期修課學分數要求、以及是否具備相關領域之背景知識，若未達標準，該校有權拒收。,,41.1784933
1300,普里斯汀納大學,University of Prishtina,科索沃,Kosovo,https://oia.ntu.edu.tw/outgoing/view/semester/1/sn/1300,是,一般組,GPA 達2.44分以上,大二以上/碩一以上/博一以上學生,,,全學年2名。,,,,,,42.6575808
1207,盧比安納大學,University of Ljubljana,斯洛維尼亞,Slovenia,https://oia.ntu.edu.tw/outgoing/view/semester/1/sn/1207,否,一般組,,大二以上/碩一以上/博一以上學生,,,全學年2名。,Academic Calendar,須在本校註冊並繳交全額學雜費，免繳該校學費，但該校雜費、住宿費、生活費、保險費、往返機票費等均須自行負擔,,交換學校一覽表所列之語言能力為該校之最低門檻要求，同學需自行確認語言能力是否符合該校修課要求、查詢是否有相對應的系所及足夠的課程可供選讀、能否達到該校之每學期修課學分數要求、以及是否具備相關領域之背景知識，若未達標準，該校有權拒收。,['交換學校一覽表所列之語言能力為該校之最低門檻要求，同學需自行確認語言能力是否符合該校修課要求、查詢是否有相對應的系所及足夠的課程可供選讀、能否達到該校之每學期修課學分數要求、以及是否具備相關領域之背景知識，若未達標準，該校有權拒收。'],46.0744053
1294,馬德里卡洛斯三世大學,Charles III University of Madrid (UC3M),西班牙,Spain,https://oia.ntu.edu.tw/outgoing/view/semester/1/sn/1294,是,西語組,,,本校大二/大三/大四學生。 2.	TOEFL iBT 79 (接受 Home Edition) 或 IELTS 6.0 或 全民英檢中高級。  或 3.	具西語檢定成績 B2(中高級) 級以上，（2024.10.30更新）,,全學年3名。(可選擇交換一學期或一學年，限於本校第1學期出國交換),Academic Calendar,須在本校註冊並繳交全額學雜費，免繳該校學費，但該校雜費、住宿費、生活費、保險費、往返機票費等均須自行負擔,,交換學校一覽表所列之語言能力為該校之最低門檻要求，同學需自行確認語言能力是否符合該校修課要求、查詢是否有相對應的系所及足夠的課程可供選讀、能否達到該校之每學期修課學分數要求、以及是否具備相關領域之背景知識，若未達標準，該校有權拒收。,,40.3165632
1156,巴塞隆納大學,University of Barcelona,西班牙,Spain,https://oia.ntu.edu.tw/outgoing/view/semester/1/sn/1156,否,西語組,,,本校大二/大三學生。 2.	TOEFL iBT 80 (不接受 Home Edition) 或 IELTS 6.0。  或 3.	具西語檢定成績 B1(中級) 級以上，不同科系，可能有更嚴格的語言檢定要求，詳閱下方注意事項,醫學院、公共衛生學院、社會科學院經濟學系,全學年2名。,Academic Calendar,須在本校註冊並繳交全額學雜費，免繳該校學費，但該校雜費、住宿費、生活費、保險費、往返機票費等均須自行負擔,"The Barcelona University Centre (BCU) provides the information you need to know to live and to study in Barcelona: how to get to Barcelona, cost of living, climate, moving about the city or services for the university community.",交換學校一覽表所列之語言能力為該校之最低門檻要求，同學需自行確認語言能力是否符合該校修課要求、查詢是否有相對應的系所及足夠的課程可供選讀、能否達到該校之每學期修課學分數要求、以及是否具備相關領域之背景知識，若未達標準，該校有權拒收。,,41.3868596
1007,馬德里大學,Complutense University of Madrid,西班牙,Spain,https://oia.ntu.edu.tw/outgoing/view/semester/1/sn/1007,是,西語組,,大二以上/碩一以上/博一以上學生,本校大二以上/碩一以上/博一以上學生。 2.	學士生 具西語檢定成績 B1(中級) 級以上，部分系所有較高之語檢要求，請務必詳閱注意事項說明；,,一學期1名。,Academic Calendar,須在本校註冊並繳交全額學雜費，免繳該校學費，但該校雜費、住宿費、生活費、保險費、往返機票費等均須自行負擔,Alojamiento en la UCM,交換學校一覽表所列之語言能力為該校之最低門檻要求，同學需自行確認語言能力是否符合該校修課要求、查詢是否有相對應的系所及足夠的課程可供選讀、能否達到該校之每學期修課學分數要求、以及是否具備相關領域之背景知識，若未達標準，該校有權拒收。,,40.4314742
1041,聖地牙哥．孔波斯特拉大學,University of Santiago de Compostela,西班牙,Spain,https://oia.ntu.edu.tw/outgoing/view/semester/1/sn/1041,是,西語組,,大二以上(僅限大學部)學生,本校大二以上(僅限大學部)學生。 2.	具西語檢定成績 B1(中級) 級以上，B2 for courses in the Faculty of Philology and certain Master's degrees,醫學院、公共衛生學院,全學年2名。,Academic Calendar,須在本校註冊並繳交全額學雜費，免繳該校學費，但該校雜費、住宿費、生活費、保險費、往返機票費等均須自行負擔,,交換學校一覽表所列之語言能力為該校之最低門檻要求，同學需自行確認語言能力是否符合該校修課要求、查詢是否有相對應的系所及足夠的課程可供選讀、能否達到該校之每學期修課學分數要求、以及是否具備相關領域之背景知識，若未達標準，該校有權拒收。,['交換學校一覽表所列之語言能力為該校之最低門檻要求，同學需自行確認語言能力是否符合該校修課要求、查詢是否有相對應的系所及足夠的課程可供選讀、能否達到該校之每學期修課學分數要求、以及是否具備相關領域之背景知識，若未達標準，該校有權拒收。'],42.8874537
968,薩拉曼卡大學,University of Salamanca,西班牙,Spain,https://oia.ntu.edu.tw/outgoing/view/semester/1/sn/968,是,西語組,,,本校大二以上/碩一以上(不含博士生)學生。 2.	具西語檢定成績 B1(中級) 級以上,,全學年2名。,Calendar；1st semester: September - February,須在本校註冊並繳交全額學雜費，免繳該校學費，但該校雜費、住宿費、生活費、保險費、往返機票費等均須自行負擔,,交換學校一覽表所列之語言能力為該校之最低門檻要求，同學需自行確認語言能力是否符合該校修課要求、查詢是否有相對應的系所及足夠的課程可供選讀、能否達到該校之每學期修課學分數要求、以及是否具備相關領域之背景知識，若未達標準，該校有權拒收。,['交換學校一覽表所列之語言能力為該校之最低門檻要求，同學需自行確認語言能力是否符合該校修課要求、查詢是否有相對應的系所及足夠的課程可供選讀、能否達到該校之每學期修課學分數要求、以及是否具備相關領域之背景知識，若未達標準，該校有權拒收。'],40.9621455
958,龐貝法布拉大學,Pompeu Fabra University,西班牙,Spain,https://oia.ntu.edu.tw/outgoing/view/semester/1/sn/958,是,西語組,,大二以上(僅限大學部)學生,本校大二以上(僅限大學部)學生。 2.	TOEFL iBT 79 (接受 Home Edition) 或 IELTS 6.0 或 全民英檢中高級。  或 3.	具西語檢定成績 B1(中級) 級以上,,全學年2名。,Academic Calendar (> Academic calendar)；It is divided in three terms: September – December | January – March | April – June,須在本校註冊並繳交全額學雜費，免繳該校學費，但該校雜費、住宿費、生活費、保險費、往返機票費等均須自行負擔,,交換學校一覽表所列之語言能力為該校之最低門檻要求，同學需自行確認語言能力是否符合該校修課要求、查詢是否有相對應的系所及足夠的課程可供選讀、能否達到該校之每學期修課學分數要求、以及是否具備相關領域之背景知識，若未達標準，該校有權拒收。,"[' a public service that assists international students coming to Barcelona. It manages the BCU Housing Service with a wide range of flats and rooms to rent and information about student residence halls. UPF has direct agreements with some residence halls. More information check here.', '交換學校一覽表所列之語言能力為該校之最低門檻要求，同學需自行確認語言能力是否符合該校修課要求、查詢是否有相對應的系所及足夠的課程可供選讀、能否達到該校之每學期修課學分數要求、以及是否具備相關領域之背景知識，若未達標準，該校有權拒收。']",41.4043275
825,馬德里自治大學,Autonomous University of Madrid,西班牙,Spain,https://oia.ntu.edu.tw/outgoing/view/semester/1/sn/825,是,西語組,,大二以上/碩一以上/博一以上學生,"本校大二以上/碩一以上/博一以上學生。 2.	TOEFL iBT 90 (不接受 Home Edition) 或 IELTS 6.5，僅具備英語能力者請詳閱注意事項。  或 3.	具西語檢定成績 B1(中級) 級以上，B2 required for the following studies: Postgraduate studies: Master / Faculty of Economics and Business Studies / Faculty of Arts and Humanities for the following Degree: Hispanic Studies Degree, Modern Languages, Culture and Communication Degree.",,全學年2名。,Academic Calendar,須在本校註冊並繳交全額學雜費，免繳該校學費，但該校雜費、住宿費、生活費、保險費、往返機票費等均須自行負擔,,交換學校一覽表所列之語言能力為該校之最低門檻要求，同學需自行確認語言能力是否符合該校修課要求、查詢是否有相對應的系所及足夠的課程可供選讀、能否達到該校之每學期修課學分數要求、以及是否具備相關領域之背景知識，若未達標準，該校有權拒收。,,
87,巴塞隆納自治大學,Autonomous University of Barcelona,西班牙,Spain,https://oia.ntu.edu.tw/outgoing/view/semester/1/sn/87,是,西語組,,大二以上(僅限大學部)學生,本校大二以上(僅限大學部)學生。 2.	TOEFL iBT 80 (不接受 Home Edition) 或 IELTS 6.0 或 全民英檢中高級。  或 3.	具西語檢定成績 B2(中高級) 級以上,,全學年4名。,Academic Calendar,須在本校註冊並繳交全額學雜費，免繳該校學費，但該校雜費、住宿費、生活費、保險費、往返機票費等均須自行負擔,,交換學校一覽表所列之語言能力為該校之最低門檻要求，同學需自行確認語言能力是否符合該校修課要求、查詢是否有相對應的系所及足夠的課程可供選讀、能否達到該校之每學期修課學分數要求、以及是否具備相關領域之背景知識，若未達標準，該校有權拒收。,['交換學校一覽表所列之語言能力為該校之最低門檻要求，同學需自行確認語言能力是否符合該校修課要求、查詢是否有相對應的系所及足夠的課程可供選讀、能否達到該校之每學期修課學分數要求、以及是否具備相關領域之背景知識，若未達標準，該校有權拒收。'],
88,馬德里技術大學,Technical University of Madrid,西班牙,Spain,https://oia.ntu.edu.tw/outgoing/view/semester/1/sn/88,否,西語組,,,本校大二/大三/碩一(不含博士生)學生，建議具備理、工、電資背景同學選填。 2.	TOEFL iBT 79 (不接受 Home Edition) 或 IELTS 6.0。  或 3.	具西語檢定成績 B2(中高級) 級以上,,全學年1名。,Academic Calendar,須在本校註冊並繳交全額學雜費，免繳該校學費，但該校雜費、住宿費、生活費、保險費、往返機票費等均須自行負擔,,交換學校一覽表所列之語言能力為該校之最低門檻要求，同學需自行確認語言能力是否符合該校修課要求、查詢是否有相對應的系所及足夠的課程可供選讀、能否達到該校之每學期修課學分數要求、以及是否具備相關領域之背景知識，若未達標準，該校有權拒收。,,19.0545876
86,林雪平大學,Linköping University,瑞典,Sweden,https://oia.ntu.edu.tw/outgoing/view/semester/1/sn/86,否,一般組,,,,,一般組 全學年3名。,Faculty of Science and Engineering；Faculty of Arts and Sciences:,須在本校註冊並繳交全額學雜費，免繳該校學費，但該校雜費、住宿費、生活費、保險費、往返機票費等均須自行負擔,Other Highlight,交換學校一覽表所列之語言能力為該校之最低門檻要求，同學需自行確認語言能力是否符合該校修課要求、查詢是否有相對應的系所及足夠的課程可供選讀、能否達到該校之每學期修課學分數要求、以及是否具備相關領域之背景知識，若未達標準，該校有權拒收。,,58.3977911
606,皇家理工學院,,瑞典,Sweden,https://oia.ntu.edu.tw/outgoing/view/semester/1/sn/606,是,一般組,,,,無,全學年2名。,Academic Calendar,須在本校註冊並繳交全額學雜費，免繳該校學費，但該校雜費、住宿費、生活費、保險費、往返機票費等均須自行負擔,,交換學校一覽表所列之語言能力為該校之最低門檻要求，同學需自行確認語言能力是否符合該校修課要求、查詢是否有相對應的系所及足夠的課程可供選讀、能否達到該校之每學期修課學分數要求、以及是否具備相關領域之背景知識，若未達標準，該校有權拒收。,['交換學校一覽表所列之語言能力為該校之最低門檻要求，同學需自行確認語言能力是否符合該校修課要求、查詢是否有足夠的課程可供選讀、能否達到該校之每學期修課學分數要求、以及是否具備相關領域之背景知識，若未達標準，該校有權拒收。'],59.2016758
375,烏普薩拉大學,Uppsala University,瑞典,Sweden,https://oia.ntu.edu.tw/outgoing/view/semester/1/sn/375,否,一般組,,大二以上/碩一以上/博一以上學生,,社會科學院經濟學系、社會科學院經濟學研究所(其餘系所之修課限制，請詳閱注意事項說明),全學年1名。,Academic Calendar,須在本校註冊並繳交全額學雜費，免繳該校學費，但該校雜費、住宿費、生活費、保險費、往返機票費等均須自行負擔,1. The exchange agreement is relatively well balanced with regard to incoming/ outgoing students.,交換學校一覽表所列之語言能力為該校之最低門檻要求，同學需自行確認語言能力是否符合該校修課要求、查詢是否有相對應的系所及足夠的課程可供選讀、能否達到該校之每學期修課學分數要求、以及是否具備相關領域之背景知識，若未達標準，該校有權拒收。,['交換學校一覽表所列之語言能力為該校之最低門檻要求，同學需自行確認語言能力是否符合該校修課要求、查詢是否有足夠的課程可供選讀、能否達到該校之每學期修課學分數要求、以及是否具備相關領域之背景知識，若未達標準，該校有權拒收。'],59.8576363
85,優密歐大學,Umeå University,瑞典,Sweden,https://oia.ntu.edu.tw/outgoing/view/semester/1/sn/85,是,一般組,,大二以上/碩一以上/博一以上學生,,,一般組 全學年2名。,Academic Calendar,須在本校註冊並繳交全額學雜費，免繳該校學費，但該校雜費、住宿費、生活費、保險費、往返機票費等均須自行負擔,Other Highlight,交換學校一覽表所列之語言能力為該校之最低門檻要求，同學需自行確認語言能力是否符合該校修課要求、查詢是否有相對應的系所及足夠的課程可供選讀、能否達到該校之每學期修課學分數要求、以及是否具備相關領域之背景知識，若未達標準，該校有權拒收。,['交換學校一覽表所列之語言能力為該校之最低門檻要求，同學需自行確認語言能力是否符合該校修課要求、查詢是否有足夠的課程可供選讀、能否達到該校之每學期修課學分數要求、以及是否具備相關領域之背景知識，若未達標準，該校有權拒收。'],63.8217763
84,斯德哥爾摩大學,Stockholm University,瑞典,Sweden,https://oia.ntu.edu.tw/outgoing/view/semester/1/sn/84,否,一般組,,,,,全學年1名。,Academic Calendar,須在本校註冊並繳交全額學雜費，免繳該校學費，但該校雜費、住宿費、生活費、保險費、往返機票費等均須自行負擔,,交換學校一覽表所列之語言能力為該校之最低門檻要求，同學需自行確認語言能力是否符合該校修課要求、查詢是否有相對應的系所及足夠的課程可供選讀、能否達到該校之每學期修課學分數要求、以及是否具備相關領域之背景知識，若未達標準，該校有權拒收。,,59.366141
83,隆德大學,Lund University,瑞典,Sweden,https://oia.ntu.edu.tw/outgoing/view/semester/1/sn/83,否,一般組,,,,社會科學院新聞研究所、醫學院,全學年2名。,Academic Calendar,須在本校註冊並繳交全額學雜費，免繳該校學費，但該校雜費、住宿費、生活費、保險費、往返機票費等均須自行負擔,LU ACCOMMODATION: It is strongly recommended that students apply as soon as the application period opens.,交換學校一覽表所列之語言能力為該校之最低門檻要求，同學需自行確認語言能力是否符合該校修課要求、查詢是否有相對應的系所及足夠的課程可供選讀、能否達到該校之每學期修課學分數要求、以及是否具備相關領域之背景知識，若未達標準，該校有權拒收。,,55.7126504
1281,瑞士東部應用科技大學,Eastern Switzerland University of Applied Sciences,瑞士,Switzerland,https://oia.ntu.edu.tw/outgoing/view/semester/1/sn/1281,是,德語組,,,本校大二以上/碩一以上(不含博士生)學生。 2.	TOEFL iBT 79 (接受 Home Edition) 或 IELTS 6.0。  或 3.	具德語檢定成績 B2(中高級) 級以上,無,德語組 全學年1名。,Academic Calendar,須在本校註冊並繳交全額學雜費，免繳該校學費，但該校雜費、住宿費、生活費、保險費、往返機票費等均須自行負擔,"Campus Buchs: No on-campus accommodation. Rooms in shared flats and private accommodation in or near Buchs, approx. CHF 400 - CHF 700 monthly.",交換學校一覽表所列之語言能力為該校之最低門檻要求，同學需自行確認語言能力是否符合該校修課要求、查詢是否有相對應的系所及足夠的課程可供選讀、能否達到該校之每學期修課學分數要求、以及是否具備相關領域之背景知識，若未達標準，該校有權拒收。,"['無', '交換學校一覽表所列之語言能力為該校之最低門檻要求，同學需自行確認語言能力是否符合該校修課要求、查詢是否有相對應的系所及足夠的課程可供選讀、能否達到該校之每學期修課學分數要求、以及是否具備相關領域之背景知識，若未達標準，該校有權拒收。']",
469,蘇黎世大學,University of Zurich,瑞士,Switzerland,https://oia.ntu.edu.tw/outgoing/view/semester/1/sn/469,否,德語組,,大二以上/碩一以上/博一以上學生,本校大二以上/碩一以上/博一以上學生。 2.	TOEFL iBT 90 (不接受 Home Edition) 或 IELTS 6.5。  或 3.	具德語檢定成績 C1(高級) 級以上，German language certificate only if students want to attend courses taught in German.,,全學年1名。,Academic Calendar,須在本校註冊並繳交全額學雜費，免繳該校學費，但該校雜費、住宿費、生活費、保險費、往返機票費等均須自行負擔,,交換學校一覽表所列之語言能力為該校之最低門檻要求，同學需自行確認語言能力是否符合該校修課要求、查詢是否有相對應的系所及足夠的課程可供選讀、能否達到該校之每學期修課學分數要求、以及是否具備相關領域之背景知識，若未達標準，該校有權拒收。,['交換學校一覽表所列之語言能力為該校之最低門檻要求，同學需自行確認語言能力是否符合該校修課要求、查詢是否有相對應的系所及足夠的課程可供選讀、能否達到該校之每學期修課學分數要求、以及是否具備相關領域之背景知識，若未達標準，該校有權拒收。'],47.4968435
425,洛桑大學,University of Lausanne,瑞士,Switzerland,https://oia.ntu.edu.tw/outgoing/view/semester/1/sn/425,否,法語組,GPA 達2.70分以上,大二以上/碩一以上/博一以上學生,本校大二以上/碩一以上/博一以上學生。 2.	GPA 達2.70分以上。 3.	TOEFL iBT 80 (接受 Home Edition) 或 IELTS 6.0。  或 4.	具法語檢定成績 B2(中高級) 級以上,管理學院會計學研究所、管理學院財務金融學研究所、管理學院管理學院企業管理碩士專班、醫學院,全學年1名。,Academic Calendar,須在本校註冊並繳交全額學雜費，免繳該校學費，但該校雜費、住宿費、生活費、保險費、往返機票費等均須自行負擔,Accepted students will receive instructions to apply online for a room in one of the Students' Residences of UNILausanne. More infomation here.,交換學校一覽表所列之語言能力為該校之最低門檻要求，同學需自行確認語言能力是否符合該校修課要求、查詢是否有相對應的系所及足夠的課程可供選讀、能否達到該校之每學期修課學分數要求、以及是否具備相關領域之背景知識，若未達標準，該校有權拒收。,,46.5225695
371,伯恩大學,University of Bern,瑞士,Switzerland,https://oia.ntu.edu.tw/outgoing/view/semester/1/sn/371,是,德語組,,大二以上/碩一以上/博一以上學生,本校大二以上/碩一以上/博一以上學生。 2.	TOEFL iBT 80 (寫 17 不接受 Home Edition) 或 IELTS 6.0 (寫 6.0) 或 全民英檢中高級，C1 for studies in the English department。  或 3.	具德語檢定成績 B2(中高級) 級以上,醫學院、公共衛生學院、生物資源暨農學院獸醫學系、生物資源暨農學院獸醫學研究所、生物資源暨農學院臨床動物醫學研究所,全學年2名。,Academic Calendar,須在本校註冊並繳交全額學雜費，免繳該校學費，但該校雜費、住宿費、生活費、保險費、往返機票費等均須自行負擔,Other Highlight,交換學校一覽表所列之語言能力為該校之最低門檻要求，同學需自行確認語言能力是否符合該校修課要求、查詢是否有相對應的系所及足夠的課程可供選讀、能否達到該校之每學期修課學分數要求、以及是否具備相關領域之背景知識，若未達標準，該校有權拒收。,,46.9509726
89,聖加倫大學,University of St. Gallen,瑞士,Switzerland,https://oia.ntu.edu.tw/outgoing/view/semester/1/sn/89,是,德語組,,,本校大二以上/碩一以上(不含博士生)學生。 2.	TOEFL iBT 89 (接受 Home Edition) 或 IELTS 6.5 或 全民英檢中高級。  或 3.	具德語檢定成績 B2(中高級) 級以上,無,全學年4名。,Academic Calendar,免繳該校學雜費，但仍須在本校註冊並繳交全額學雜費，生活費、住宿費、保險費及往返機票費等均須自行負擔。,Other Highlight,交換學校一覽表所列之語言能力為該校之最低門檻要求，同學需自行確認語言能力是否符合該校修課要求、查詢是否有相對應的系所及足夠的課程可供選讀、能否達到該校之每學期修課學分數要求、以及是否具備相關領域之背景知識，若未達標準，該校有權拒收。,,47.4300025
91,倫敦大學亞非學院,"School of Oriental and African Studies, University of London (SOAS)",英國,United Kingdom,https://oia.ntu.edu.tw/outgoing/view/semester/1/sn/91,是,一般組,GPA 達3.50分以上,大二以上(僅限大學部)學生,,,全學年1名。,Academic Calendar,須在本校註冊並繳交全額學雜費，免繳該校學費，但該校雜費、住宿費、生活費、保險費、往返機票費等均須自行負擔,Electronic Travel Authorisations (ETAs) Information,交換學校一覽表所列之語言能力為該校之最低門檻要求，同學需自行確認語言能力是否符合該校修課要求、查詢是否有相對應的系所及足夠的課程可供選讀、能否達到該校之每學期修課學分數要求、以及是否具備相關領域之背景知識，若未達標準，該校有權拒收。,['交換學校一覽表所列之語言能力為該校之最低門檻要求，同學需自行確認語言能力是否符合該校修課要求、查詢是否有相對應的系所及足夠的課程可供選讀、能否達到該校之每學期修課學分數要求、以及是否具備相關領域之背景知識，若未達標準，該校有權拒收。'],51.5218979
1303,東安格利亞大學,University of East Anglia,英國,United Kingdom,https://oia.ntu.edu.tw/outgoing/view/semester/1/sn/1303,是,一般組,GPA 達3.00分以上,大二以上(僅限大學部)學生,,醫學院、公共衛生學院、社會科學院社會工作學系,全學年3名。,Academic Calendar；Autumn 2026,須在本校註冊並繳交全額學雜費，免繳該校學費，但該校雜費、住宿費、生活費、保險費、往返機票費等均須自行負擔,"UEA has a wide range of on-campus accommodation available. UEA guarantees accommodation for students who apply before the accommodation deadline in most circumstances. Information about accommodation can be found here, including links to the prices.",交換學校一覽表所列之語言能力為該校之最低門檻要求，同學需自行確認語言能力是否符合該校修課要求、查詢是否有相對應的系所及足夠的課程可供選讀、能否達到該校之每學期修課學分數要求、以及是否具備相關領域之背景知識，若未達標準，該校有權拒收。,['交換學校一覽表所列之語言能力為該校之最低門檻要求，同學需自行確認語言能力是否符合該校修課要求、查詢是否有相對應的系所及足夠的課程可供選讀、能否達到該校之每學期修課學分數要求、以及是否具備相關領域之背景知識，若未達標準，該校有權拒收。'],52.6210623
1291,杜倫大學,Durham University,英國,United Kingdom,https://oia.ntu.edu.tw/outgoing/view/semester/1/sn/1291,是,一般組,GPA 達3.20分以上,,,,全學年2名。,Academic Calendar；Induction Week: 30th September – 6th October 2025,須在本校註冊並繳交全額學雜費，免繳該校學費，但該校雜費、住宿費、生活費、保險費、往返機票費等均須自行負擔,All full year non-European exchange students from non-European partners are guaranteed a place in one of the residential colleges of the University if they apply for the programme by the deadline. Students opt for college accommodation on the application form. Students will be notified of their college via e-mail. The college will then contact the student with further details prior to arrival.,交換學校一覽表所列之語言能力為該校之最低門檻要求，同學需自行確認語言能力是否符合該校修課要求、查詢是否有相對應的系所及足夠的課程可供選讀、能否達到該校之每學期修課學分數要求、以及是否具備相關領域之背景知識，若未達標準，該校有權拒收。,,54.7641281
1290,里茲大學,University of Leeds,英國,United Kingdom,https://oia.ntu.edu.tw/outgoing/view/semester/1/sn/1290,是,一般組,GPA 達3.00分以上,大二以上(僅限大學部)學生,,醫學院、公共衛生學院,全學年2名。,Academic Calendar,"須在本校註冊並繳交全額學雜費，免繳該校學費，但該校雜費、住宿費、生活費、保險費、往返機票費等均須自行負擔特殊語檢規定Higher language requirement for the following Schools and subject areas (Fine Art, Media and Communication, English, Law, Linguistics and Phonetics, Business, Philosophy, Religion and History of Science, Politics and International relations):TOEFL (iBT)Overall: 88Listening: 19Reading: 20Writing: 21Speaking: 22IELTSOverall: 6.56.0 minimum in listening, reading, speaking and writing",Students can compare the costs of different residences on the accommodation website,交換學校一覽表所列之語言能力為該校之最低門檻要求，同學需自行確認語言能力是否符合該校修課要求、查詢是否有相對應的系所及足夠的課程可供選讀、能否達到該校之每學期修課學分數要求、以及是否具備相關領域之背景知識，若未達標準，該校有權拒收。,['交換學校一覽表所列之語言能力為該校之最低門檻要求，同學需自行確認語言能力是否符合該校修課要求、查詢是否有相對應的系所及足夠的課程可供選讀、能否達到該校之每學期修課學分數要求、以及是否具備相關領域之背景知識，若未達標準，該校有權拒收。'],53.8057925
1280,聖安德魯斯大學,University of St Andrews,英國,United Kingdom,https://oia.ntu.edu.tw/outgoing/view/semester/1/sn/1280,是,一般組,GPA 達3.50分以上,,,,全學年7名。,Academic Calendar,須在本校註冊並繳交全額學雜費，免繳該校學費，但該校雜費、住宿費、生活費、保險費、往返機票費等均須自行負擔,Undergraduate accommodation fees are available here / Postgraduate accommodation fees are available here,交換學校一覽表所列之語言能力為該校之最低門檻要求，同學需自行確認語言能力是否符合該校修課要求、查詢是否有相對應的系所及足夠的課程可供選讀、能否達到該校之每學期修課學分數要求、以及是否具備相關領域之背景知識，若未達標準，該校有權拒收。,['交換學校一覽表所列之語言能力為該校之最低門檻要求，同學需自行確認語言能力是否符合該校修課要求、查詢是否有相對應的系所及足夠的課程可供選讀、能否達到該校之每學期修課學分數要求、以及是否具備相關領域之背景知識，若未達標準，該校有權拒收。'],56.3398198
859,倫敦大學學院,University College London,英國,United Kingdom,https://oia.ntu.edu.tw/outgoing/view/semester/1/sn/859,是,一般組,GPA 達3.40分以上,大二以上(僅限大學部)學生,,,一般組 全學年2名。,Academic Calendar,須在本校註冊並繳交全額學雜費，免繳該校學費，但該校雜費、住宿費、生活費、保險費、往返機票費等均須自行負擔,Electronic Travel Authorisations (ETAs) Information,交換學校一覽表所列之語言能力為該校之最低門檻要求，同學需自行確認語言能力是否符合該校修課要求、查詢是否有相對應的系所及足夠的課程可供選讀、能否達到該校之每學期修課學分數要求、以及是否具備相關領域之背景知識，若未達標準，該校有權拒收。,['交換學校一覽表所列之語言能力為該校之最低門檻要求，同學需自行確認語言能力是否符合該校修課要求、查詢是否有相對應的系所及足夠的課程可供選讀、能否達到該校之每學期修課學分數要求、以及是否具備相關領域之背景知識，若未達標準，該校有權拒收。'],51.524203
148,伯明罕大學,University of Birmingham,英國,United Kingdom,https://oia.ntu.edu.tw/outgoing/view/semester/1/sn/148,否,一般組,GPA 達3.30分以上,,,,全學年2名。,Academic Calendar,須在本校註冊並繳交全額學雜費，免繳該校學費，但該校雜費、住宿費、生活費、保險費、往返機票費等均須自行負擔,One-semester only accommodation spaces are not guaranteed. More information can be found here.,交換學校一覽表所列之語言能力為該校之最低門檻要求，同學需自行確認語言能力是否符合該校修課要求、查詢是否有相對應的系所及足夠的課程可供選讀、能否達到該校之每學期修課學分數要求、以及是否具備相關領域之背景知識，若未達標準，該校有權拒收。,,52.4522956
815,諾丁漢大學,The University of Nottingham,英國,United Kingdom,https://oia.ntu.edu.tw/outgoing/view/semester/1/sn/815,否,一般組,GPA 達3.00分以上,,,醫學院、公共衛生學院、法律學院,一般組 全學年1名。,University Calendar,須在本校註冊並繳交全額學雜費，免繳該校學費，但該校雜費、住宿費、生活費、保險費、往返機票費等均須自行負擔。,Electronic Travel Authorisations (ETAs) Information,交換學校一覽表所列之語言能力為該校之最低門檻要求，同學需自行確認語言能力是否符合該校修課要求、查詢是否有相對應的系所及足夠的課程可供選讀、能否達到該校之每學期修課學分數要求、以及是否具備相關領域之背景知識，若未達標準，該校有權拒收。,['交換學校一覽表所列之語言能力為該校之最低門檻要求，同學需自行確認語言能力是否符合該校修課要求、查詢是否有相對應的系所及足夠的課程可供選讀、能否達到該校之每學期修課學分數要求、以及是否具備相關領域之背景知識，若未達標準，該校有權拒收。'],52.8389737
1205,倫敦大學瑪麗王后學院,Queen Mary University of London,英國,United Kingdom,https://oia.ntu.edu.tw/outgoing/view/semester/1/sn/1205,否,一般組,GPA 達3.00分以上,大二以上(僅限大學部)學生,,醫學院、公共衛生學院,全學年1名。,Academic Calendar,須在本校註冊並繳交全額學雜費，免繳該校學費，但該校雜費、住宿費、生活費、保險費、往返機票費等均須自行負擔,Information on our residences can be found here.,交換學校一覽表所列之語言能力為該校之最低門檻要求，同學需自行確認語言能力是否符合該校修課要求、查詢是否有相對應的系所及足夠的課程可供選讀、能否達到該校之每學期修課學分數要求、以及是否具備相關領域之背景知識，若未達標準，該校有權拒收。,"[' but we can provide guidance to these students on how to secure suitable housing off-campus.', '交換學校一覽表所列之語言能力為該校之最低門檻要求，同學需自行確認語言能力是否符合該校修課要求、查詢是否有足夠的課程可供選讀、能否達到該校之每學期修課學分數要求、以及是否具備相關領域之背景知識，若未達標準，該校有權拒收。']",51.5247403
1093,肯特大學,University of Kent,英國,United Kingdom,https://oia.ntu.edu.tw/outgoing/view/semester/1/sn/1093,否,一般組,GPA 達3.00分以上,,,醫學院、公共衛生學院,全學年1名。,Academic Calendar；該校自2025/2026學年度起改為三學期制，114-2交換學生甄選錄取者參加該校Spring + Summer Terms,須在本校註冊並繳交全額學雜費，免繳該校學費，但該校雜費、住宿費、生活費、保險費、往返機票費等均須自行負擔,Electronic Travel Authorisations (ETAs) Information,交換學校一覽表所列之語言能力為該校之最低門檻要求，同學需自行確認語言能力是否符合該校修課要求、查詢是否有相對應的系所及足夠的課程可供選讀、能否達到該校之每學期修課學分數要求、以及是否具備相關領域之背景知識，若未達標準，該校有權拒收。,,51.2950874
604,愛丁堡大學,University of Edinburgh,英國,United Kingdom,https://oia.ntu.edu.tw/outgoing/view/semester/1/sn/604,是,一般組,GPA 達3.30分以上,,,,全學年4名。,Academic Calendar,須在本校註冊並繳交全額學雜費，免繳該校學費，但該校雜費、住宿費、生活費、保險費、往返機票費等均須自行負擔,Electronic Travel Authorisations (ETAs) Information,交換學校一覽表所列之語言能力為該校之最低門檻要求，同學需自行確認語言能力是否符合該校修課要求、查詢是否有相對應的系所及足夠的課程可供選讀、能否達到該校之每學期修課學分數要求、以及是否具備相關領域之背景知識，若未達標準，該校有權拒收。,,55.9440765
102,薩塞克斯大學,University of Sussex,英國,United Kingdom,https://oia.ntu.edu.tw/outgoing/view/semester/1/sn/102,否,一般組,GPA 達3.00分以上,,,醫學院、公共衛生學院,全學年2名。,Academic Calendar,須在本校註冊並繳交全額學雜費，免繳該校學費，但該校雜費、住宿費、生活費、保險費、往返機票費等均須自行負擔,Full Year applicants are guaranteed university accommodation if they apply by the 30 June deadline.,交換學校一覽表所列之語言能力為該校之最低門檻要求，同學需自行確認語言能力是否符合該校修課要求、查詢是否有相對應的系所及足夠的課程可供選讀、能否達到該校之每學期修課學分數要求、以及是否具備相關領域之背景知識，若未達標準，該校有權拒收。,,50.8674377
215,曼徹斯特大學,University of Manchester,英國,United Kingdom,https://oia.ntu.edu.tw/outgoing/view/semester/1/sn/215,否,一般組,GPA 達3.30分以上,,,,全學年3名。,Academic Calendar,須在本校註冊並繳交全額學雜費，免繳該校學費，但該校雜費、住宿費、生活費、保險費、往返機票費等均須自行負擔,Information on the type and costs of accommodation can be found via this link.,交換學校一覽表所列之語言能力為該校之最低門檻要求，同學需自行確認語言能力是否符合該校修課要求、查詢是否有相對應的系所及足夠的課程可供選讀、能否達到該校之每學期修課學分數要求、以及是否具備相關領域之背景知識，若未達標準，該校有權拒收。,"[' additional online process', ' which students must complete AFTER receiving their offer letter from us.', '交換學校一覽表所列之語言能力為該校之最低門檻要求，同學需自行確認語言能力是否符合該校修課要求、查詢是否有相對應的系所及足夠的課程可供選讀、能否達到該校之每學期修課學分數要求、以及是否具備相關領域之背景知識，若未達標準，該校有權拒收。']",53.4660226
90,南安普頓大學,University of Southampton,英國,United Kingdom,https://oia.ntu.edu.tw/outgoing/view/semester/1/sn/90,否,一般組,GPA 達3.30分以上,,,,全學年1名。,Academic Calendar,須在本校註冊並繳交全額學雜費，免繳該校學費，但該校雜費、住宿費、生活費、保險費、往返機票費等均須自行負擔,Electronic Travel Authorisations (ETAs) Information,交換學校一覽表所列之語言能力為該校之最低門檻要求，同學需自行確認語言能力是否符合該校修課要求、查詢是否有相對應的系所及足夠的課程可供選讀、能否達到該校之每學期修課學分數要求、以及是否具備相關領域之背景知識，若未達標準，該校有權拒收。,,50.9617568
206,阿德雷德大學,The University of Adelaide,澳大利亞,Australia,https://oia.ntu.edu.tw/outgoing/view/semester/1/sn/206,否,一般組,GPA 達2.80分以上,,,管理學院國際企業學研究所、管理學院商學研究所、管理學院管理學院企業管理碩士專班、醫學院、生物資源暨農學院獸醫學系、生物資源暨農學院獸醫學研究所,一學期4名。,Semester 1: February - July；Semester 2: July - December,"須在本校註冊並繳交全額學雜費，免繳該校學費，但該校雜費、住宿費、生活費、保險費、往返機票費等均須自行負擔。Course restrictionsStudents should review choosing a course website to determine if their required study area is available.Study areas not open to Exchange students including but not limited to：Biomedical Studies, Dentistry, Indonesian, Italian, Medical Studies, Modern Greek, Museum and Curatorial Studies, Music Theatre, Nursing, Occupational Therapy, Oral Health, Physiotherapy, SpeechPathology, and etc.Unavailable Courses = courses not offered to Exchange students.Courses with (but not limited to) a course code ending in RG, NA, UAC are NOT available to exchange students.To check if a course you have selected is available to Study Abroad or Exchange students, visit the Course Outline list. Navigate to study area that you are interested in, then navigate to the course that you are interested in and click on the 'General Course Information' accordion.Some courses may have pre-requisites, limited availability or may require pre-approval by the School/Faculty. It's students' responsibility to ensure that they have appropriate academic background.Restricted Courses = courses may be available but have prerequisites and/or limited availability.Admission RequirementsThe faculties will look at the student's transcript and course descriptions from the home university to determine the students' suitability for enrolment into the desired courses.Courses from the following areas require additional approval prior to enrolment: Criminology, Education, Health Sciences, Languages, Law, MBA, Media, Music, Sciences.There are two categories of English requirements for entry, dependent on the courses chosen:General Academic Level: Most undergraduate and postgraduate courses.Higher English Language Level (including but not limited to): Education, Medicine, Animal & Veterinary Science, Law and MBA.English language requirement informationMinimum / Maximum academic workload per semester:At least 9 units (usually 3 courses). This is considered a 75% workload, but meets full time enrolment requirements for visa purposes.Max 12 units = 100% workload.","The University of Adelaide Village is the University's managed accommodation available to Exchange students. Exchange students may also wish to stay with private student accommodation provider, Scape. Other accommodation options are available and details can be found on the Accommodation Service website.",交換學校一覽表所列之語言能力為該校之最低門檻要求，同學需自行確認語言能力是否符合該校修課要求、查詢是否有相對應的系所或足夠的課程可供選讀、能否達到該校之每學期修課學分數要求、以及是否具備相關領域之背景知識，若未達標準，該校有權拒收,['交換學校一覽表所列之語言能力為該校之最低門檻要求，同學需自行確認語言能力是否符合該校修課要求、查詢是否有相對應的系所或足夠的課程可供選讀、能否達到該校之每學期修課學分數要求、以及是否具備相關領域之背景知識，若未達標準，該校有權拒收'],-34.928776
313,雪梨大學,The University of Sydney (USYD),澳大利亞,Australia,https://oia.ntu.edu.tw/outgoing/view/semester/1/sn/313,否,一般組,GPA 達3.20分以上,,,醫學院、生物資源暨農學院獸醫學系、生物資源暨農學院獸醫學研究所、理學院心理學系、理學院心理學研究所、公共衛生學院,"全學年2名。 ※114-1出國交換可選擇雪梨大學的 Semester 2 或 Semester 2 + Semester 1  Course restrictions Not open to medicine, dentistry, pharmacy, nursing, and psychology students. No Veterinary Science, and clinical placements available in any discipline at any level. Admission requirement Undergraduate Students must submit a list of initial unit of study requests at the time of application. USYD reserves the right to require additional documents or information based on the student's unique situation, such as a portfolio for architecture or art studio units or an audition video for performance-based music units, and etc. Postgraduate The application process is the same for postgraduate coursework students, but evidence of their undergraduate completion (English undergrad transcript and bachelor's degree certificate) is needed.",Semester 1: February - June；Semester 2: July - November,須在本校註冊並繳交全額學雜費，免繳該校學費，但住宿費、生活費、保險費、往返機票費等均須自行負擔。,"Guaranteed accommodation if apply before deadline, read more about accommodation",交換學校一覽表所列之語言能力為該校之最低門檻要求，同學需自行確認語言能力是否符合該校修課要求、查詢是否有相對應的系所或足夠的課程可供選讀、能否達到該校之每學期修課學分數要求、以及是否具備相關領域之背景知識，若未達標準，該校有權拒收,['交換學校一覽表所列之語言能力為該校之最低門檻要求，同學需自行確認語言能力是否符合該校修課要求、查詢是否有相對應的系所或足夠的課程可供選讀、能否達到該校之每學期修課學分數要求、以及是否具備相關領域之背景知識，若未達標準，該校有權拒收'],-33.8889073
1109,蒙納許大學,Monash University,澳大利亞,Australia,https://oia.ntu.edu.tw/outgoing/view/semester/1/sn/1109,是,一般組,GPA 達3.20分以上,,,法律學院、醫學院、管理學院會計學研究所、管理學院財務金融學研究所、管理學院國際企業學研究所、管理學院資訊管理學研究所、管理學院商學研究所、管理學院管理學院企業管理碩士專班,全學年3名。 ※114-1出國交換可選擇蒙納許大學的 Semester 2 或 Semester 2 + Semester 1  Academic Restrictions (by faculty) Please review Academic considerations before applying for exchange. Capstone and MBA units are not available to exchange and study abroad students. Law Quota units are not available for incoming exchange and study abroad students. Postgraduate and Bachelor of Medicine and Surgery units are not available to exchange and study abroad students.,該校行事曆請見 Semester dates summary；Semester 1：Feb ~ Jun,須在本校註冊並繳交全額學雜費，免繳該校學費，但該校雜費、住宿費、生活費、保險費、往返機票費等均須自行負擔。,On-campus accommodation,交換學校一覽表所列之語言能力為該校之最低門檻要求，同學需自行確認語言能力是否符合該校修課要求、查詢是否有相對應的系所或足夠的課程可供選讀、能否達到該校之每學期修課學分數要求、以及是否具備相關領域之背景知識，若未達標準，該校有權拒收,['交換學校一覽表所列之語言能力為該校之最低門檻要求，同學需自行確認語言能力是否符合該校修課要求、查詢是否有相對應的系所或足夠的課程可供選讀、能否達到該校之每學期修課學分數要求、以及是否具備相關領域之背景知識，若未達標準，該校有權拒收'],-37.7839745
210,昆士蘭大學,The University of Queensland (UQ),澳大利亞,Australia,https://oia.ntu.edu.tw/outgoing/view/semester/1/sn/210,否,一般組,GPA 達3.30分以上,,,醫學院、生物資源暨農學院獸醫學系、生物資源暨農學院獸醫學研究所、理學院心理學系、理學院心理學研究所,一學期1名。,Semester 1: February - June；Semester 2: July - November,"須在本校註冊並繳交全額學雜費，免繳該校學費，但該校雜費、住宿費、生活費、保險費、往返機票費等均須自行負擔。Higher English Language Proficiency RequirementsSome programs required a Higher English Language Proficiency, please refer to this Table for more information",,交換學校一覽表所列之語言能力為該校之最低門檻要求，同學需自行確認語言能力是否符合該校修課要求、查詢是否有相對應的系所或足夠的課程可供選讀、能否達到該校之每學期修課學分數要求、以及是否具備相關領域之背景知識，若未達標準，該校有權拒收,['交換學校一覽表所列之語言能力為該校之最低門檻要求，同學需自行確認語言能力是否符合該校修課要求、查詢是否有相對應的系所或足夠的課程可供選讀、能否達到該校之每學期修課學分數要求、以及是否具備相關領域之背景知識，若未達標準，該校有權拒收'],-27.4974181
97,格里菲斯大學,Griffith University,澳大利亞,Australia,https://oia.ntu.edu.tw/outgoing/view/semester/1/sn/97,否,一般組,GPA 達2.90分以上,,,醫學院、理學院心理學研究所、管理學院會計學研究所、管理學院財務金融學研究所、管理學院國際企業學研究所、管理學院資訊管理學研究所、管理學院商學研究所、管理學院管理學院企業管理碩士專班、生物資源暨農學院獸醫學系、生物資源暨農學院獸醫學研究所、公共衛生學院,全學年0名。兩校交換學生名額不平衡，114-1甄選不開放申請,Trimester 1: February to June；Trimester 2: July to October,"須在本校註冊並繳交全額學雜費，免繳該校學費，但該校雜費、住宿費、生活費、保險費、往返機票費等均須自行負擔。Course restrictionsMost undergraduate and postgraduate courses offered at Griffith University are available to inbound students, with some restrictions. Please refer to the Study Options page ‘Restricted Courses’ for more information.Not availableDental Technology*DentistryMaster of Business Administration coursesMedicineMusic (Queensland Conservatorium)*Occupational TherapyPsychology (postgraduate)All practicums, clinical placements and internshipsCommunity Internship (3002LFC)*Only available to students who major in the same areaArchitectureAviationCriminologyEducationLaw (postgraduate)In additionStudents who choose to study fine art, photography, or music courses at the South Bank campus will be required to submit a portfolio or audition files.Prerequisites + EnrolmentYou will need to meet any prerequisite requirements to be eligible to enrol in courses. Search the course finder to view the specific entry requirements of your courses.You can enrol in courses once the following has occurred：You have been matriculated into your Study Abroad or Exchange program.Enrolment has opened and you have received your Welcome to Griffith email. Please note we do not enrol you, it is your responsibility.Enrolment for Trimester 1 starts from mid-November of the year prior.You have received your Course Approval Report (CAR). Please refer to the 'Conditions' outlined in your CAR.",,交換學校一覽表所列之語言能力為該校之最低門檻要求，同學需自行確認語言能力是否符合該校修課要求、查詢是否有相對應的系所或足夠的課程可供選讀、能否達到該校之每學期修課學分數要求、以及是否具備相關領域之背景知識，若未達標準，該校有權拒收,['交換學校一覽表所列之語言能力為該校之最低門檻要求，同學需自行確認語言能力是否符合該校修課要求、查詢是否有相對應的系所或足夠的課程可供選讀、能否達到該校之每學期修課學分數要求、以及是否具備相關領域之背景知識，若未達標準，該校有權拒收'],-27.9633383
95,汀肯大學,Deakin University,澳大利亞,Australia,https://oia.ntu.edu.tw/outgoing/view/semester/1/sn/95,否,一般組,GPA 達2.80分以上,大二以上/碩一以上/博一以上學生,,醫學院、生物資源暨農學院獸醫學系、生物資源暨農學院獸醫學研究所、公共衛生學院,"全學年0名。兩校交換學生名額不平衡，114-1甄選不開放申請  Course restrictions Medicine, Nursing, Optometry, and Units with placements. Most units with a work-integrated learning component. Law units without prior studies at a law school.",Trimester 1: February - June；Trimester 2: July - October,"交換學生計畫：須在本校註冊並繳交全額學雜費，免繳該校學費，但該校雜費、住宿費、生活費、保險費、往返機票費等均須自行負擔。 訪問學生計畫：錄取一般組訪問學生計畫者，需自行負擔該校規定之訪問學生相關費用及住宿費、生活費、保險費、往返機票等費用。錄取一般組訪問學生計畫者，須在本校註冊並錄取報到時繳交計畫費2,000元，及本校學雜費1/4（一般生與延畢生皆依以上標準收費）。 汀肯大學學費資訊請參考此連結一般生與延畢生皆依以上標準收費",,交換學生計畫：,['交換學校一覽表所列之語言能力為該校之最低門檻要求，同學需自行確認語言能力是否符合該校修課要求、查詢是否有相對應的系所或足夠的課程可供選讀、能否達到該校之每學期修課學分數要求、以及是否具備相關領域之背景知識，若未達標準，該校有權拒收'],-37.8475136
96,新南威爾斯大學,The University of New South Wales (UNSW),澳大利亞,Australia,https://oia.ntu.edu.tw/outgoing/view/semester/1/sn/96,是,一般組,GPA 達3.30分以上,,,理學院心理學系、理學院心理學研究所、工學院化學工程學系、工學院化學工程學研究所、電機資訊學院資訊工程學系、電機資訊學院資訊工程學研究所、管理學院管理學院企業管理碩士專班、管理學院商學研究所、管理學院財務金融學研究所、管理學院國際企業學研究所、管理學院資訊管理學研究所,"全學年0名。兩校交換學生名額不平衡，114-1甄選不開放申請    Course restrictions  ★ Courses not open for exchange: 　　● MBA Coursework 　　● Courses that are part of the Honours degree (4xxx) 　　● UNSW Canberra at the Australian Defence Force Academy (all courses starting with ‘z’) 　　● Doctor of Medicine program 　　● Postgraduate students are NOT eligible to take undergraduate courses  While most courses are open to exchange students with the required academic background, some courses are restricted or not available to exchange students. ● Exchange students are limited to taking one online course only ● Courses in the Winter Term are limited and are generally electives, we recommend you are flexible ● Postgraduate students who are in their first semester and who do not have a transcript with results for their postgraduate studies at time of application should select first year postgraduate courses. Upper-level postgraduate courses will not be approved without a transcript demonstrating you meet any prerequisite courses, and you need to provide your transcript at least 6 weeks before term start date to be able to request enrolment in these courses at UNSW.  Faculty of Law & Justice ● Enrolment is restricted to Law Majors. Coursework is available at undergraduate and postgraduate level ● Juris Doctor courses are open to students enrolled in a Juris Doctor Program at their home institution ● Students are not able to take both LAWS and JURD courses simultaneously ● LLM elective courses are open to Law Exchange students ● Undergraduate and JD law enrolment for Exchange students is capped, and students are encouraged to also look at LLM elective courses ● Core courses are not available to Exchange students  The Arts & Media, Education, Humanities & Languages, Social Sciences ● Students wishing to take stage 3 ARTS courses must be majoring in the desired field ● Undergraduate students can only enrol in undergraduate courses ● Postgraduate students are not eligible to take undergraduate courses ● INST, GLST, DANC, EDST, MDIA and Music courses are restricted to declared majors  Art & Design ● Courses are held at the Paddington campus, approximately 20 minutes away – a free shuttle bus service is available ● Priority will be given to students majoring in Art/Design ● Students can take a mix of courses from Paddington and Kensington (main) campus, as long as they are aware of the travel involved  Built Environment ● Students are limited to one studio-based course due to space limitations and should be flexible with subject choices  UNSW Business School (The following courses are not available to exchange students) ● Industrial Training courses including MARK2999, MARK3999, MARK4999, FINS3100, FINS3200 ● MARK6xxx courses ● GBAT course  Faculty of Medicine & Health ● Exchange students can enrol in courses from the School of Medical Science however courses in the Doctor of Medicine program are not open to exchange students.  Faculty of Engineering ● Enrolment in Biomedical Engineering and Computer Science courses is extremely limited; students need to be prepared to select courses from another major.  Faculty of Science ● Postgraduate psychology courses are not available to exchange students. ● Undergraduate psychology courses are very limited.  Course selection  You can search for courses on the UNSW Handbook and you can view instructions on how to identify and search for these courses. When choosing your courses, it is important to be flexible.  You must meet any prerequisites for courses. This is assessed at the time of application, and new courses can be submitted for approval on an ongoing basis. You should check your proposed courses are offered in the term you will be on exchange. All students are required to enrol in a full-time load each term. Generally undergraduate students are not able to enrol in graduate courses, but there may be some limited options for Law and some Science and Engineering subjects It is generally not possible for graduate students to enrol in undergraduate courses.  ※You can study across multiple faculties/schools and should choose the level appropriate to you. We recommend you also check the Timetable to ensure that your chosen courses are available.",Term 1: Feb - May；Term 2: May - Aug,須在本校註冊並繳交全額學雜費，免繳該校學費，但該校雜費、住宿費、生活費、保險費、往返機票費等均須自行負擔。,On campus accommodation is extremely limited and is not guaranteed even if you apply by the deadline.,交換學校一覽表所列之語言能力為該校之最低門檻要求，同學需自行確認語言能力是否符合該校修課要求、查詢是否有相對應的系所或足夠的課程可供選讀、能否達到該校之每學期修課學分數要求、以及是否具備相關領域之背景知識，若未達標準，該校有權拒收。,['交換學校一覽表所列之語言能力為該校之最低門檻要求，同學需自行確認語言能力是否符合該校修課要求、查詢是否有相對應的系所或足夠的課程可供選讀、能否達到該校之每學期修課學分數要求、以及是否具備相關領域之背景知識，若未達標準，該校有權拒收'],-33.9062434
94,馬奎里大學,Macquarie University (MQ),澳大利亞,Australia,https://oia.ntu.edu.tw/outgoing/view/semester/1/sn/94,是,一般組,GPA 達3.00分以上,,,法律學院法律學研究所、法律學院科際整合法律學研究所、醫學院、理學院心理學系、理學院心理學研究所、管理學院商學研究所、管理學院管理學院企業管理碩士專班、公共衛生學院,"全學年2名。 ※114-1出國交換可選擇馬奎里大學的 Semester 2 或 Semester 2 + Semester 1  Restricted units  Course/Unit Restrictions and Programs with Special Entry Requirements   Students must be enrolled in a full-time study load: minimum 3 units and maximum 4 to comply with their visa requirements. Students cannot study units from both postgraduate and undergraduate programs. They can only take either undergraduate or postgraduate units. Check the list of restricted units to see which units are not available to Exchange students: https://www.mq.edu.au/__data/assets/pdf_file/0009/1308771/restricted-units-list-SAEX-2025.pdf Postgraduate Psychology units are not available to incoming exchange students. Postgraduate Law School: Students must have completed 180 ECTS to be admitted to the postgraduate exchange Law program. Students can study 8000-level units. Bachelor of Clinical Science: Admission to units in this degree is not guaranteed and is subject to a cap. Please send the unit request approval before applying to the program to: Faculty of Medicine, Health and Human Sciences: MMS.coursesupport@mq.edu.au Programs with special entry requirements  Postgraduate Law School: 180 ECTS completed to be admitted to the postgraduate exchange Law program (Students can study 8000- level units).  Bachelor of Clinical Science: Admission to units in this degree is not guaranteed and is subject to a cap. Please send the unit request approval before applying to the program to: • Faculty of Medicine, Health and Human Sciences, E: MMS.Course.Support@mq.edu.au  Postgraduate Psychology: Admission to units in PG Psychology is not guaranteed. Students have to be admitted to a Master of Psychology program in either organizational, neuropsychology or clinical psychology. Please send the units request approval before applying to the program to PSY department: • Rachael Rotton, E: rachael.rotton@mq.edu.au • Novello Alday, E: novello.alday@mq.edu.au",Session 1: February - June；Session 2: July - November,須在本校註冊並繳交全額學雜費，免繳該校學費，但該校雜費、住宿費、生活費、保險費、往返機票費等均須自行負擔。,Not guranteed.,交換學校一覽表所列之語言能力為該校之最低門檻要求，同學需自行確認語言能力是否符合該校修課要求、查詢是否有相對應的系所或足夠的課程可供選讀、能否達到該校之每學期修課學分數要求、以及是否具備相關領域之背景知識，若未達標準，該校有權拒收,,-33.7936441
93,澳洲國立大學,The Australian National University (ANU),澳大利亞,Australia,https://oia.ntu.edu.tw/outgoing/view/semester/1/sn/93,否,一般組,GPA 達3.00分以上,,,醫學院、生物資源暨農學院獸醫學系、生物資源暨農學院獸醫學研究所、理學院心理學系、理學院心理學研究所、公共衛生學院,全學年1名。 ※114-1出國交換可選擇澳洲國立大學的 Semester 2 或 Semester 2 + Semester 1,Semester 1 - February to June；Semester 2 - July to November,"須在本校註冊並繳交全額學雜費，免繳該校學費，但該校雜費、住宿費、生活費、保險費、往返機票費等均須自行負擔。Restricted coursesCourses offered by the ANU Medical School are not available.Art studio, music, and design courses are limited.Law courses are only available to students who are enrolled in a law degree at their home institution.All students must meet the pre-requisite requirements for the courses they wish to take.",Guranteed on-campus - though preferences cannot be guaranteed. Read more about Accommodation.,交換學校一覽表所列之語言能力為該校之最低門檻要求，同學需自行確認語言能力是否符合該校修課要求、查詢是否有相對應的系所或足夠的課程可供選讀、能否達到該校之每學期修課學分數要求、以及是否具備相關領域之背景知識，若未達標準，該校有權拒收,,-35.2812742
92,墨爾本大學,The University of Melbourne (UniMelb),澳大利亞,Australia,https://oia.ntu.edu.tw/outgoing/view/semester/1/sn/92,否,一般組,GPA 達3.00分以上,大二以上/碩一以上/博一以上學生,,醫學院牙醫學系、醫學院臨床牙醫學研究所、法律學院,一學期1名。,該校行事曆請見 University dates；Semester 1: February - June,"交換學生計畫：須在本校註冊並繳交全額學雜費，免繳該校學費，但該校雜費、住宿費、生活費、保險費、往返機票費等均須自行負擔。訪問學生計畫：錄取一般組訪問學生計畫者，需自行負擔該校規定之訪問學生相關費用及住宿費、生活費、保險費、往返機票等費用。錄取一般組訪問學生計畫者，須在本校註冊並於錄取報到時繳交計畫費2,000元，及本校學雜費1/4（一般生與延畢生皆依以上標準收費）。墨爾本大學訪問學生計畫學費請參照此連結一般生與延畢生皆依以上標準收費。",不保障住宿，住宿資訊請參考 Student accommodation,交換學生計畫：,,-37.7960951
326,奧塔哥大學,University of Otago,紐西蘭,New Zealand,https://oia.ntu.edu.tw/outgoing/view/semester/1/sn/326,是,一般組,GPA 達3.20分以上,大二以上(僅限大學部)學生,,醫學院、公共衛生學院、生物資源暨農學院獸醫學系、生物資源暨農學院獸醫學研究所、理學院心理學系、理學院心理學研究所,全學年1名。 ※114-1出國交換可選擇奧塔哥大學的 Semester 2 或 Semester 2 + Semester 1,Semester 1: February to June；Semester 2: July to November,"須在本校註冊並繳交全額學雜費，免繳該校學費，但住宿費、生活費、保險費、往返機票費等均須自行負擔。CampusExchange students attend courses offered at the Dunedin campus only.360° Campus Video (youtube)Study Abroad at the University of Otago (youtube)UniFlats Student Accommodation at Otago (youtube)Restricted programmesNo exchange students are able to take clinical courses (Medicine, Dentistry, Pharmacology, etc)部分領域不開放交換學生申請。The following programs are not available for exchange students:Medicine / Dentistry / Psychiatry / Physiotherapy / Pharmacology / Pharmacy or any other clinical course / MBA / Wildlife Management / Master of Science Communication",,交換學校一覽表所列之語言能力為該校之最低門檻要求，同學需自行確認語言能力是否符合該校修課要求、查詢是否有相對應的系所或足夠的課程可供選讀、能否達到該校之每學期修課學分數要求、以及是否具備相關領域之背景知識，若未達標準，該校有權拒收,,-45.8649793
1168,坎特伯雷大學,University of Canterbury,紐西蘭,New Zealand,https://oia.ntu.edu.tw/outgoing/view/semester/1/sn/1168,否,一般組,GPA 達3.00分以上,大二以上(僅限大學部)學生,,社會科學院新聞研究所、管理學院會計學研究所、管理學院財務金融學研究所、管理學院國際企業學研究所、管理學院資訊管理學研究所、管理學院商學研究所、管理學院管理學院企業管理碩士專班、生物資源暨農學院森林環境暨資源學系、生物資源暨農學院森林環境暨資源學研究所,全學年0名。,Semester 1: Feb - June；Semester 2: July - Nov,須在本校註冊並繳交全額學雜費，免繳該校學費，但住宿費、生活費、保險費、往返機票費等均須自行負擔。,"Not guaranteed, read more about Accommodation offer",交換學校一覽表所列之語言能力為該校之最低門檻要求，同學需自行確認語言能力是否符合該校修課要求、查詢是否有相對應的系所或足夠的課程可供選讀、能否達到該校之每學期修課學分數要求、以及是否具備相關領域之背景知識，若未達標準，該校有權拒收,['交換學校一覽表所列之語言能力為該校之最低門檻要求，同學需自行確認語言能力是否符合該校修課要求、查詢是否有相對應的系所或足夠的課程可供選讀、能否達到該校之每學期修課學分數要求、以及是否具備相關領域之背景知識，若未達標準，該校有權拒收'],-43.5240894
1002,威靈頓維多利亞大學,Victoria University of Wellington (VUW),紐西蘭,New Zealand,https://oia.ntu.edu.tw/outgoing/view/semester/1/sn/1002,否,一般組,GPA 達3.00分以上,,,,全學年0名。,Trimester 1: February - June；Trimester 2: July - November,須在本校註冊並繳交全額學雜費，免繳該校學費，但該校雜費、住宿費、生活費、保險費、往返機票費等均須自行負擔。,Student Accommodation at Victoria University of Wellington is very competitive. This means that students may not be placed in one of their initial choices for accommodation.,交換學校一覽表所列之語言能力為該校之最低門檻要求，同學需自行確認語言能力是否符合該校修課要求、查詢是否有相對應的系所或足夠的課程可供選讀、能否達到該校之每學期修課學分數要求、以及是否具備相關領域之背景知識，若未達標準，該校有權拒收,['交換學校一覽表所列之語言能力為該校之最低門檻要求，同學需自行確認語言能力是否符合該校修課要求、查詢是否有相對應的系所或足夠的課程可供選讀、能否達到該校之每學期修課學分數要求、以及是否具備相關領域之背景知識，若未達標準，該校有權拒收'],-41.2796445
203,奧克蘭大學,The University of Auckland,紐西蘭,New Zealand,https://oia.ntu.edu.tw/outgoing/view/semester/1/sn/203,是,一般組,GPA 達3.00分以上,,,醫學院、理學院心理學系、理學院心理學研究所、生物資源暨農學院獸醫學系、生物資源暨農學院獸醫學研究所、公共衛生學院、管理學院會計學研究所、管理學院財務金融學研究所、管理學院國際企業學研究所、管理學院資訊管理學研究所、管理學院商學研究所、管理學院管理學院企業管理碩士專班,全學年1名。 ※114-1出國交換可選擇奧克蘭大學的 Semester 2 或 Semester 2 + Semester 1,Semester One: February - June；Semester Two: July - November,"須在本校註冊並繳交全額學雜費，免繳該校學費，但住宿費、生活費、保險費、往返機票費等均須自行負擔。ProgrammeExchange students are considered “non-degree” students at the University of Auckland and are enrolled in the COPEX (Certificate of Proficiency for Exchange) programme.Course restrictionsNot available to exchange students (including but not limited to): School of Nursing, Medicine, Surgery, Pharmacy, Optometry, MBA, and Courses ending with the letters F, H.Many courses in Fine Arts, Architecture, Design and Music require the submission of supplementary information.Stage I Engineering courses (ENGGEN 115, ENGGEN 121, ENGGEN 131, ENGGEN 140, ENGGEN 150, ENGSCI 111, ELECTENG 101, CHEMMAT 121) are not open to exchange studentsStudents should apply for “concession” to enrol in courses that require Auckland faculty approval. In this process, faculties assess whether their prior study meets relevant course prerequisites and notify them accordingly. In some occasions, they may be asked to provide course outlines/syllabi in English for courses equivalent to Auckland prerequisite requirements. ...read more",Students are suggested to apply even before they are admitted to the exchange programme.,交換學校一覽表所列之語言能力為該校之最低門檻要求，同學需自行確認語言能力是否符合該校修課要求、查詢是否有相對應的系所或足夠的課程可供選讀、能否達到該校之每學期修課學分數要求、以及是否具備相關領域之背景知識，若未達標準，該校有權拒收,,-36.8660955
1143,開普敦大學,University of Cape Town,南非,South Africa,https://oia.ntu.edu.tw/outgoing/view/semester/1/sn/1143,否,一般組,GPA 達3.20分以上,大二以上/碩二以上/博二以上學生,,公共衛生學院、管理學院會計學研究所、管理學院財務金融學研究所、管理學院國際企業學研究所、管理學院資訊管理學研究所、管理學院商學研究所、管理學院管理學院企業管理碩士專班,全學年0名。,,須在本校註冊並繳交全額學雜費，免繳該校學費，但住宿費、生活費、保險費、往返機票費等均須自行負擔。,不保障住宿,交換學校一覽表所列之語言能力為該校之最低門檻要求，同學需自行確認語言能力是否符合該校修課要求、查詢是否有相對應的系所或足夠的課程可供選讀、能否達到該校之每學期修課學分數要求、以及是否具備相關領域之背景知識，若未達標準，該校有權拒收,,-33.9567559
902,斯泰倫博斯大學,Stellenbosch University,南非,South Africa,https://oia.ntu.edu.tw/outgoing/view/semester/1/sn/902,是,一般組,,,,醫學院、管理學院會計學系、管理學院會計學研究所、公共衛生學院,全學年1名。 ※114-1出國交換可選擇斯泰倫博斯大學的 Semester 2 或 Semester 2 + Semester 1,First Semester: February - June；Second Semester: July - December,"須在本校註冊並繳交全額學雜費，免繳該校學費，但住宿費、生活費、保險費、往返機票費等均須自行負擔。Course InformationYou can list more courses than you need credit for, but please make sure that you indicate how many credits you need, and which courses are compulsory for your programme. We will then liaise with the relevant academic departments.*If you have not submitted any course requests (i.e. a completed learning agreement) your application will not be processed. Students will only be allowed to register for courses that they have been approved for.*The final course registration will be completed during and after the orientation, but the application for courses must be submitted with the online exchange application.You can however take fewer courses than you were pre-approved for. The final learning agreement must be signed by your home coordinator.Selecting CoursesFor general instructions on finding courses, please visit the Course Information section on our website. Useful links in your search for courses are supplied in the above two documents, and will lead you to:The Online Yearbook and Faculty Websites (Overview of Degree Programmes and Course Lists per Faculty, which will lead you to the Departments' websites)The Departments’ websites can also be found under the university’s A – Z links Please also be aware of the fact that approval for courses at Stellenbosch is done by a very strict process, and approval/disapproval is the discretion of the relevant academic department/s. Course approval/disapproval feedback will be communicated continuously until arrival at Stellenbosch University.When selecting courses ensure that you complete your application with the corresponding course codes and module names.For example: 11147 717 Fixed Internet Securities (Theory)No timetable classes will be negotiated, it would be the student's responsibility to maintain their participation in the course selected.",International students are responsible for securing their own accommodation,交換學校一覽表所列之語言能力為該校之最低門檻要求，同學需自行確認語言能力是否符合該校修課要求、查詢是否有相對應的系所或足夠的課程可供選讀、能否達到該校之每學期修課學分數要求、以及是否具備相關領域之背景知識，若未達標準，該校有權拒收,['交換學校一覽表所列之語言能力為該校之最低門檻要求，同學需自行確認語言能力是否符合該校修課要求、查詢是否有相對應的系所或足夠的課程可供選讀、能否達到該校之每學期修課學分數要求、以及是否具備相關領域之背景知識，若未達標準，該校有權拒收'],-33.9326212
